METAR LPPT 010000Z 32008KT CAVOK 29/11 Q1013=
METAR LPPT 010030Z 03004KT 320V100 CAVOK 26/13 Q1013=
METAR LPPT 010100Z 06005G16KT 350V100 CAVOK 25/16 Q1014=
METAR LPPT 010130Z 32006KT 290V350 CAVOK 24/16 Q1013=
METAR LPPT 010200Z 32005KT 290V350 CAVOK 24/16 Q1013=
METAR LPPT 010230Z 32005KT 280V340 CAVOK 25/15 Q1013=
METAR LPPT 010300Z 32004KT 290V010 CAVOK 25/15 Q1013=
METAR LPPT 010330Z 31010KT CAVOK 24/15 Q1013=
METAR LPPT 010400Z 32011KT CAVOK 23/15 Q1013=
METAR LPPT 010430Z 32011KT CAVOK 21/16 Q1013=
METAR LPPT 010500Z 32013KT CAVOK 20/16 Q1013=
METAR LPPT 010530Z 31012KT CAVOK 20/17 Q1013=
METAR LPPT 010600Z 31013KT CAVOK 20/17 Q1013=
METAR LPPT 010630Z 32012KT 9999 FEW010 20/17 Q1013=
METAR LPPT 010700Z 31012KT 9999 FEW006 20/17 Q1014=
METAR LPPT 010730Z 32012KT 9999 FEW008 21/17 Q1014=
METAR LPPT 010800Z 32011KT 290V350 9999 FEW008 21/18 Q1014=
METAR LPPT 010830Z 31009KT 290V350 9999 FEW012 23/17 Q1014=
METAR LPPT 010900Z 31009KT CAVOK 25/17 Q1014=
METAR LPPT 010930Z 32008KT 290V350 CAVOK 27/18 Q1014=
METAR LPPT 011000Z 33008KT 300V360 CAVOK 28/17 Q1014=
METAR LPPT 011030Z 33005KT 280V360 CAVOK 30/17 Q1014=
METAR LPPT 011100Z 35005KT 300V110 CAVOK 30/17 Q1014=
METAR LPPT 011130Z 31006KT 280V350 CAVOK 31/16 Q1014=
METAR LPPT 011200Z 34007KT 300V030 CAVOK 32/17 Q1014=
METAR LPPT 011230Z 32005KT 270V030 CAVOK 32/17 Q1014=
METAR LPPT 011300Z 33008KT 290V360 CAVOK 33/17 Q1014=
METAR LPPT 011330Z 32009KT 290V360 CAVOK 32/18 Q1013=
METAR LPPT 011400Z 31010KT 280V350 CAVOK 32/18 Q1013=
METAR LPPT 011430Z 31011KT 280V340 CAVOK 31/18 Q1013=
METAR LPPT 011500Z 31011KT 270V340 CAVOK 31/18 Q1013=
METAR LPPT 011530Z 32013KT 290V350 CAVOK 30/18 Q1013=
METAR LPPT 011600Z 32014KT 290V350 CAVOK 29/18 Q1013=
METAR LPPT 011630Z 31014KT CAVOK 28/17 Q1013=
METAR LPPT 011700Z 32014KT CAVOK 27/17 Q1013=
METAR LPPT 011730Z 32015KT CAVOK 26/17 Q1013=
METAR LPPT 011800Z 33017KT CAVOK 25/16 Q1013=
METAR LPPT 011830Z 32019KT CAVOK 25/16 Q1012=
METAR LPPT 011900Z 32018KT CAVOK 24/16 Q1012=
METAR LPPT 011930Z 32016G26KT CAVOK 23/15 Q1013=
METAR LPPT 012000Z 32016G26KT CAVOK 22/15 Q1013=
METAR LPPT 012030Z 31017KT 9999 FEW012 21/15 Q1013=
METAR LPPT 012100Z 32017KT CAVOK 21/16 Q1014=
METAR LPPT 012130Z 33014G25KT 300V360 CAVOK 20/16 Q1014 WS R02=
METAR LPPT 012200Z 33014KT CAVOK 20/16 Q1015 WS R02=
METAR LPPT 012230Z 33011KT CAVOK 20/16 Q1015 WS R02=
METAR LPPT 012300Z 33011KT 9999 FEW012 19/16 Q1015 WS R02=
METAR LPPT 012330Z 33012KT 9999 FEW012 19/16 Q1015=
METAR LPPT 020000Z 32010KT 9999 FEW012 19/17 Q1015=
METAR LPPT 020030Z 32014KT 9999 FEW010 19/17 Q1015=
METAR LPPT 020100Z 33013KT 9999 FEW010 19/17 Q1015=
METAR LPPT 020130Z 33013KT 9999 FEW010 19/17 Q1015=
METAR LPPT 020200Z 32014KT 9999 FEW010 19/17 Q1014=
METAR LPPT 020230Z 33014KT 9999 FEW008 19/17 Q1014=
METAR LPPT 020300Z 32014G24KT 9999 FEW008 19/17 Q1014=
METAR LPPT 020330Z 33013KT 9999 FEW008 19/17 Q1015=
METAR LPPT 020400Z 32015KT 9999 FEW009 19/17 Q1015=
METAR LPPT 020430Z 32013KT 9999 FEW010 19/17 Q1015=
METAR LPPT 020500Z 33012KT 9999 FEW010 19/17 Q1015=
METAR LPPT 020530Z 32013KT 9999 FEW010 19/17 Q1015=
METAR LPPT 020600Z 33012KT 9999 FEW012 19/17 Q1015=
METAR LPPT 020630Z 32013KT 9999 FEW012 19/17 Q1015=
METAR LPPT 020700Z 32012KT 9999 FEW010 20/17 Q1016=
METAR LPPT 020730Z 32013KT 9999 FEW012 20/16 Q1016=
METAR LPPT 020800Z 32015KT 9999 FEW014 20/17 Q1016=
METAR LPPT 020830Z 33012KT 290V350 9999 FEW016 21/17 Q1016=
METAR LPPT 020900Z 33011KT 290V360 9999 FEW020 23/17 Q1016=
METAR LPPT 020930Z 33011KT 290V360 9999 FEW022 22/16 Q1016=
METAR LPPT 021000Z 32010KT 280V350 9999 FEW025 23/17 Q1016=
METAR LPPT 021030Z 34014KT 310V010 9999 FEW030 24/17 Q1016=
METAR LPPT 021100Z 32012KT 9999 FEW030 25/16 Q1016=
METAR LPPT 021130Z 32010KT 290V350 9999 FEW032 26/17 Q1016=
METAR LPPT 021200Z 32012KT 290V360 9999 FEW032 25/17 Q1016=
METAR LPPT 021230Z 32011KT 290V350 9999 FEW035 26/16 Q1016=
METAR LPPT 021300Z 32011KT 290V350 9999 FEW035 27/17 Q1015=
METAR LPPT 021330Z 32012KT 290V360 9999 FEW040 27/16 Q1015=
METAR LPPT 021400Z 34013KT 300V010 9999 FEW044 28/16 Q1015=
METAR LPPT 021430Z 34013KT 300V360 CAVOK 28/16 Q1015=
METAR LPPT 021500Z 32013KT 290V350 CAVOK 28/16 Q1015=
METAR LPPT 021530Z 33014KT CAVOK 27/17 Q1015=
METAR LPPT 021600Z 32012KT 290V350 CAVOK 27/17 Q1015=
METAR LPPT 021630Z 31013KT CAVOK 27/17 Q1014=
METAR LPPT 021700Z 32012KT CAVOK 27/16 Q1014=
METAR LPPT 021730Z 33014KT 290V360 CAVOK 26/16 Q1014=
METAR LPPT 021800Z 33012KT 290V350 CAVOK 26/16 Q1014=
METAR LPPT 021830Z 32015KT CAVOK 25/16 Q1014=
METAR LPPT 021900Z 32014KT CAVOK 24/16 Q1014=
METAR LPPT 021930Z 32016KT CAVOK 23/16 Q1014=
METAR LPPT 022000Z 33015KT 290V350 9999 FEW012 22/16 Q1014=
METAR LPPT 022030Z 33013KT 9999 FEW012 21/16 Q1015=
METAR LPPT 022100Z 31015KT 9999 FEW012 21/16 Q1015=
METAR LPPT 022130Z 32012KT 9999 FEW012 21/16 Q1015=
METAR LPPT 022200Z 32012KT 9999 FEW012 20/16 Q1015=
METAR LPPT 022230Z 32013KT CAVOK 20/16 Q1015=
METAR LPPT 022300Z 31012KT CAVOK 20/16 Q1015=
METAR LPPT 022330Z 32010KT 290V350 CAVOK 20/16 Q1015=
METAR LPPT 030000Z 33011KT 9999 FEW010 19/16 Q1015=
METAR LPPT 030030Z 33009KT 9999 FEW010 19/16 Q1015=
METAR LPPT 030100Z 33009KT 280V350 9999 FEW010 19/16 Q1015=
METAR LPPT 030130Z 32009KT 9999 FEW010 19/16 Q1015=
METAR LPPT 030200Z 31011KT 9999 FEW010 19/16 Q1014=
METAR LPPT 030230Z 32010KT 9999 FEW009 19/16 Q1014=
METAR LPPT 030300Z 31012KT 9999 FEW009 18/16 Q1014=
METAR LPPT 030330Z 31011KT 9999 FEW008 18/16 Q1015=
METAR LPPT 030400Z 32009KT 290V350 9999 FEW008 18/16 Q1015=
METAR LPPT 030430Z 33010KT 9999 FEW008 18/16 Q1015=
METAR LPPT 030500Z 34009KT 9999 FEW008 18/16 Q1015=
METAR LPPT 030530Z 34007KT 9999 FEW007 18/16 Q1015=
METAR LPPT 030600Z 35007KT 9999 FEW006 18/16 Q1015=
METAR LPPT 030630Z 33007KT 9999 FEW007 19/16 Q1016=
METAR LPPT 030700Z 34007KT 9999 FEW007 19/16 Q1016=
METAR LPPT 030730Z 34008KT 300V010 CAVOK 20/16 Q1016=
METAR LPPT 030800Z 34007KT CAVOK 21/17 Q1016=
METAR LPPT 030830Z 36005KT 330V040 CAVOK 23/16 Q1016=
METAR LPPT 030900Z 01006KT 330V070 CAVOK 24/17 Q1016=
METAR LPPT 030930Z VRB06KT CAVOK 25/18 Q1016=
METAR LPPT 031000Z 07006G17KT 010V120 CAVOK 26/18 Q1016=
METAR LPPT 031030Z VRB05G21KT CAVOK 27/17 Q1017=
METAR LPPT 031100Z 10005KT 060V140 CAVOK 28/17 Q1017=
METAR LPPT 031130Z 16005KT 110V210 CAVOK 29/17 Q1017=
METAR LPPT 031200Z 15007KT 120V200 CAVOK 30/17 Q1017=
METAR LPPT 031230Z 17008KT 130V200 CAVOK 31/17 Q1016=
METAR LPPT 031300Z 21010KT 120V260 CAVOK 32/16 Q1016=
METAR LPPT 031330Z VRB05KT CAVOK 32/16 Q1016=
METAR LPPT 031400Z 24008KT 210V280 CAVOK 32/17 Q1016=
METAR LPPT 031430Z 26006KT 200V310 CAVOK 33/17 Q1016=
METAR LPPT 031500Z 22008KT 200V270 CAVOK 32/16 Q1015=
METAR LPPT 031530Z 21011KT 180V240 CAVOK 32/17 Q1015=
METAR LPPT 031600Z 22010KT CAVOK 32/17 Q1015=
METAR LPPT 031630Z 22011KT 200V260 CAVOK 32/17 Q1015=
METAR LPPT 031700Z 23009KT 190V270 CAVOK 32/17 Q1015=
METAR LPPT 031730Z 22009KT 190V280 CAVOK 32/17 Q1015=
METAR LPPT 031800Z 24009KT CAVOK 31/16 Q1015=
METAR LPPT 031830Z 24009KT CAVOK 31/15 Q1015=
METAR LPPT 031900Z 26007KT 220V290 CAVOK 30/17 Q1015=
METAR LPPT 031930Z 27007KT CAVOK 29/16 Q1016=
METAR LPPT 032000Z 32005KT CAVOK 27/17 Q1016=
METAR LPPT 032030Z 33008KT CAVOK 25/17 Q1016=
METAR LPPT 032100Z 31006KT CAVOK 25/17 Q1016=
METAR LPPT 032130Z 31005KT CAVOK 25/16 Q1017=
METAR LPPT 032200Z 34004KT CAVOK 24/16 Q1017=
METAR LPPT 032230Z 35003KT 320V020 CAVOK 23/16 Q1017=
METAR LPPT 032300Z 31004KT 290V350 CAVOK 23/16 Q1017=
METAR LPPT 032330Z 34003KT 320V020 CAVOK 23/16 Q1017=
METAR LPPT 040000Z VRB02KT CAVOK 23/16 Q1017=
METAR LPPT 040030Z 03003KT 360V080 CAVOK 22/16 Q1017=
METAR LPPT 040100Z 02005KT 350V090 CAVOK 23/18 Q1017=
METAR LPPT 040130Z 03004KT CAVOK 21/18 Q1017=
METAR LPPT 040200Z 04003KT CAVOK 21/19 Q1017=
METAR LPPT 040230Z 04004KT CAVOK 21/19 Q1017=
METAR LPPT 040300Z 04004KT CAVOK 20/19 Q1017=
METAR LPPT 040330Z 05004KT CAVOK 20/19 Q1017=
METAR LPPT 040400Z 36003KT CAVOK 20/19 Q1017=
METAR LPPT 040430Z VRB02KT 9999 FEW004 20/20 Q1017=
METAR LPPT 040500Z 00000KT 9000 FEW004 19/19 Q1018=
METAR LPPT 040530Z 27002KT 9999 FEW004 19/18 Q1018=
METAR LPPT 040600Z 00000KT 9999 FEW006 20/19 Q1018=
METAR LPPT 040630Z 27003KT 220V290 9999 FEW008 21/19 Q1018=
METAR LPPT 040700Z VRB01KT 9999 FEW010 23/19 Q1019=
METAR LPPT 040730Z 07005KT 020V100 9999 FEW012 23/19 Q1019=
METAR LPPT 040800Z 08005KT 040V110 CAVOK 23/20 Q1019=
METAR LPPT 040830Z VRB06G18KT CAVOK 25/19 Q1019=
METAR LPPT 040900Z 13007KT 090V220 9999 FEW020 25/19 Q1019=
METAR LPPT 040930Z 15006KT 110V210 9999 SCT022 26/19 Q1019=
METAR LPPT 041000Z 15011G22KT 120V190 9999 BKN022 26/19 Q1019=
METAR LPPT 041030Z 16012KT 130V190 9999 BKN022 27/19 Q1019=
METAR LPPT 041100Z 20012KT 160V220 9999 SCT024 27/19 Q1019=
METAR LPPT 041130Z 21010KT 9999 FEW026 27/19 Q1019=
METAR LPPT 041200Z 22008KT 170V250 9999 FEW026 27/20 Q1019=
METAR LPPT 041230Z 20010KT 140V260 9999 FEW030 28/20 Q1019=
METAR LPPT 041300Z 21010KT 180V240 9999 FEW030 28/19 Q1019=
METAR LPPT 041330Z 24011KT 210V270 9999 FEW030 26/19 Q1019=
METAR LPPT 041400Z 23013KT CAVOK 27/19 Q1019=
METAR LPPT 041430Z 24013KT CAVOK 26/19 Q1019=
METAR LPPT 041500Z 24012KT CAVOK 27/19 Q1018=
METAR LPPT 041530Z 22011KT 200V260 CAVOK 27/19 Q1018=
METAR LPPT 041600Z 23012KT CAVOK 27/18 Q1018=
METAR LPPT 041630Z 23010KT CAVOK 27/18 Q1018=
METAR LPPT 041700Z 22009KT CAVOK 27/18 Q1018=
METAR LPPT 041730Z 23011KT CAVOK 27/18 Q1018=
METAR LPPT 041800Z 23008KT 200V260 CAVOK 27/18 Q1018=
METAR LPPT 041830Z 23008KT 9999 FEW012 26/18 Q1018=
METAR LPPT 041900Z 26006KT 9999 FEW012 27/18 Q1018=
METAR LPPT 041930Z 26008KT CAVOK 25/18 Q1018=
METAR LPPT 042000Z 34005KT CAVOK 23/17 Q1018=
METAR LPPT 042030Z 32005KT 290V350 CAVOK 22/17 Q1018=
METAR LPPT 042100Z 36003KT 320V030 CAVOK 22/17 Q1019=
METAR LPPT 042130Z 31003KT 240V350 CAVOK 22/18 Q1019=
METAR LPPT 042200Z 32004KT 280V350 CAVOK 23/18 Q1019=
METAR LPPT 042230Z 34004KT 310V010 CAVOK 22/18 Q1019=
METAR LPPT 042300Z 32003KT 280V360 CAVOK 22/18 Q1019=
METAR LPPT 042330Z 33006KT CAVOK 22/18 Q1019=
METAR LPPT 050000Z 32007KT CAVOK 22/18 Q1019=
METAR LPPT 050030Z 31006KT CAVOK 22/18 Q1019=
METAR LPPT 050100Z 32006KT CAVOK 22/18 Q1018=
METAR LPPT 050130Z 32005KT 290V350 CAVOK 22/18 Q1018=
METAR LPPT 050200Z 05003KT 330V110 CAVOK 22/18 Q1018=
METAR LPPT 050230Z 30003KT 280V350 CAVOK 22/18 Q1018=
METAR LPPT 050300Z VRB02KT CAVOK 22/17 Q1018=
METAR LPPT 050330Z VRB01KT CAVOK 21/17 Q1018=
METAR LPPT 050400Z VRB01KT CAVOK 21/17 Q1018=
METAR LPPT 050430Z VRB02KT CAVOK 21/17 Q1018=
METAR LPPT 050500Z VRB05G15KT CAVOK 20/17 Q1018=
METAR LPPT 050530Z 31009KT 9999 FEW003 19/17 Q1018=
METAR LPPT 050600Z 32008KT 9999 FEW003 19/18 Q1018=
METAR LPPT 050630Z 33009KT 9999 FEW006 19/18 Q1018=
METAR LPPT 050700Z 32009KT 9999 FEW006 20/18 Q1019=
METAR LPPT 050730Z 33009KT 300V360 9999 FEW008 21/18 Q1019=
METAR LPPT 050800Z 33009KT 300V360 9999 FEW012 21/18 Q1019=
METAR LPPT 050830Z 31006KT 270V010 9999 FEW015 23/18 Q1019=
METAR LPPT 050900Z 35008KT CAVOK 24/18 Q1019=
METAR LPPT 050930Z 33008KT 290V360 CAVOK 26/17 Q1019=
METAR LPPT 051000Z 36006KT 310V030 CAVOK 27/17 Q1019=
METAR LPPT 051030Z 35008KT 300V050 CAVOK 28/17 Q1019=
METAR LPPT 051100Z 34009KT 310V010 9999 FEW030 29/17 Q1018=
METAR LPPT 051130Z 30006KT 250V350 9999 FEW030 29/19 Q1018=
METAR LPPT 051200Z 30007KT 270V350 9999 FEW030 28/19 Q1018=
METAR LPPT 051230Z 31007KT 260V010 9999 FEW030 28/19 Q1018=
METAR LPPT 051300Z 32009KT 280V350 9999 FEW035 29/19 Q1018=
METAR LPPT 051330Z 31009KT 9999 FEW035 28/18 Q1018=
METAR LPPT 051400Z 32009KT 290V350 9999 FEW035 28/18 Q1017=
METAR LPPT 051430Z 32008KT 280V360 CAVOK 28/19 Q1017=
METAR LPPT 051500Z 30010KT 270V340 CAVOK 28/19 Q1017=
METAR LPPT 051530Z 31013KT 280V350 CAVOK 27/18 Q1017=
METAR LPPT 051600Z 31014KT CAVOK 26/18 Q1016=
METAR LPPT 051630Z 31015KT 9999 FEW020 25/18 Q1016=
METAR LPPT 051700Z 30012KT 9999 FEW016 23/18 Q1016=
METAR LPPT 051730Z 30013KT 9999 FEW014 23/18 Q1016=
METAR LPPT 051800Z 30014KT 9999 FEW010 22/18 Q1016=
METAR LPPT 051830Z 30013KT 9999 FEW012 22/18 Q1016=
METAR LPPT 051900Z 32016KT 9999 FEW012 22/17 Q1016=
METAR LPPT 051930Z 32015KT 9999 FEW012 21/17 Q1016=
METAR LPPT 052000Z 31016G26KT 9999 FEW011 21/18 Q1016=
METAR LPPT 052030Z 31018KT 9999 FEW010 20/18 Q1016=
METAR LPPT 052100Z 32016KT 9999 FEW010 20/17 Q1017=
METAR LPPT 052130Z 32016G27KT 9999 FEW009 20/18 Q1017=
METAR LPPT 052200Z 33015KT 9999 FEW008 20/18 Q1017=
METAR LPPT 052230Z 33014KT 9999 FEW008 20/17 Q1017=
METAR LPPT 052300Z 31011KT 9999 FEW008 20/17 Q1017=
METAR LPPT 052330Z 31013KT 290V350 9999 FEW008 19/17 Q1017=
METAR LPPT 060000Z 31016KT 9999 FEW008 19/17 Q1017=
METAR LPPT 060030Z 31016KT 9999 FEW008 19/16 Q1017=
METAR LPPT 060100Z 31016KT 9999 FEW008 19/16 Q1016=
METAR LPPT 060130Z 31018KT 9999 FEW010 19/16 Q1016=
METAR LPPT 060200Z 31019KT 9999 FEW010 19/16 Q1016=
METAR LPPT 060230Z 32015KT 290V350 9999 FEW010 19/16 Q1016=
METAR LPPT 060300Z 33011KT 290V010 9999 FEW010 19/15 Q1016=
METAR LPPT 060330Z 34011KT 300V020 9999 FEW010 19/15 Q1016=
METAR LPPT 060400Z 33013KT 290V350 9999 FEW010 18/15 Q1016=
METAR LPPT 060430Z 34012KT 9999 FEW010 18/15 Q1016=
METAR LPPT 060500Z 34015KT 9999 FEW010 18/15 Q1016=
METAR LPPT 060530Z 34014KT 9999 FEW010 18/15 Q1016=
METAR LPPT 060600Z 34014KT CAVOK 19/15 Q1016=
METAR LPPT 060630Z 34007KT 270V070 CAVOK 19/15 Q1017=
METAR LPPT 060700Z 33011KT 300V360 CAVOK 19/15 Q1017=
METAR LPPT 060730Z 33013KT CAVOK 20/15 Q1017=
METAR LPPT 060800Z 33017KT CAVOK 21/15 Q1017=
METAR LPPT 060830Z 33015KT CAVOK 22/15 Q1017=
METAR LPPT 060900Z 32014KT CAVOK 22/15 Q1017=
METAR LPPT 060930Z 33015KT 290V360 CAVOK 23/14 Q1017=
METAR LPPT 061000Z 32011KT 290V350 CAVOK 24/15 Q1017=
METAR LPPT 061030Z 33014G24KT 290V350 CAVOK 24/15 Q1017=
METAR LPPT 061100Z 32015KT CAVOK 25/14 Q1017=
METAR LPPT 061130Z 33014KT 290V350 CAVOK 26/14 Q1017=
METAR LPPT 061200Z 33014KT 290V350 CAVOK 27/14 Q1017=
METAR LPPT 061230Z 34017KT CAVOK 27/14 Q1017=
METAR LPPT 061300Z 33014KT 290V010 CAVOK 27/13 Q1016=
METAR LPPT 061330Z 33014KT 290V350 CAVOK 28/13 Q1016=
METAR LPPT 061400Z 34017KT 300V010 CAVOK 27/13 Q1016=
METAR LPPT 061430Z 33019KT CAVOK 26/13 Q1016=
METAR LPPT 061500Z 32013KT 290V360 CAVOK 27/14 Q1016=
METAR LPPT 061530Z 34014KT 300V360 CAVOK 26/13 Q1015=
METAR LPPT 061600Z 32015G25KT 290V350 CAVOK 26/13 Q1015=
METAR LPPT 061630Z 33014KT 290V350 CAVOK 26/13 Q1015=
METAR LPPT 061700Z 33016KT 290V350 9999 FEW025 25/15 Q1015 WS R02=
METAR LPPT 061730Z 32014KT 280V340 9999 FEW025 25/16 Q1015 WS R02=
METAR LPPT 061800Z 33017KT 9999 FEW025 24/15 Q1015=
METAR LPPT 061830Z 33018G31KT 300V010 9999 FEW025 23/15 Q1015 WS R02=
METAR LPPT 061900Z 34018KT 9999 FEW025 22/16 Q1015 WS R02=
METAR LPPT 061930Z 33011G22KT 240V010 9999 FEW020 22/17 Q1015 WS R02=
METAR LPPT 062000Z 32010KT 290V360 9999 FEW015 21/17 Q1015 WS R02=
METAR LPPT 062030Z 32009KT 260V010 9999 FEW012 20/17 Q1015 WS R02=
METAR LPPT 062100Z 33010G29KT 270V020 9999 FEW012 20/17 Q1016 WS R02=
METAR LPPT 062130Z 32011G21KT 290V350 9999 FEW010 20/17 Q1016 WS R02=
METAR LPPT 062200Z 33014G26KT 290V360 9999 BKN010 20/17 Q1016=
METAR LPPT 062230Z 34012G22KT 290V020 9999 FEW008 BKN010 19/17 Q1016=
METAR LPPT 062300Z 34014KT 300V020 9999 SCT008 BKN010 19/17 Q1016=
METAR LPPT 062330Z 34013KT 300V010 9999 BKN008 19/17 Q1016 WS R02=
METAR LPPT 070000Z 33014KT 300V360 9999 BKN008 19/17 Q1015 WS R02=
METAR LPPT 070030Z 34019KT 9999 FEW006 BKN008 19/17 Q1015 WS R02=
METAR LPPT 070100Z 34017KT 9999 BKN008 19/17 Q1015 WS R02=
METAR LPPT 070130Z 34015KT 9999 BKN008 19/17 Q1015 WS R02=
METAR LPPT 070200Z 35011G26KT 320V020 9999 BKN008 19/17 Q1015 WS R02=
METAR LPPT 070230Z 34010KT 300V010 9999 BKN008 19/17 Q1015 WS R02=
METAR LPPT 070300Z 36007KT 300V030 9999 BKN008 19/17 Q1015=
METAR LPPT 070330Z 34010KT 300V010 9999 BKN008 19/17 Q1014=
METAR LPPT 070400Z 34011KT 9999 FEW008 SCT010 19/17 Q1014=
METAR LPPT 070430Z 34010KT 9999 FEW008 SCT010 18/17 Q1014=
METAR LPPT 070500Z 33009KT 9999 FEW006 BKN008 18/17 Q1014=
METAR LPPT 070530Z 33011KT 9999 SCT006 BKN008 18/17 Q1014=
METAR LPPT 070600Z 33011KT 9999 FEW006 BKN008 19/17 Q1014=
METAR LPPT 070630Z 33010KT 9999 SCT008 19/17 Q1014=
METAR LPPT 070700Z 33012KT 290V350 9999 SCT008 19/17 Q1014=
METAR LPPT 070730Z 33010KT 300V360 9999 FEW008 20/17 Q1014=
METAR LPPT 070800Z 34009KT 310V010 9999 FEW010 20/17 Q1014=
METAR LPPT 070830Z 34009KT 9999 FEW010 22/17 Q1013=
METAR LPPT 070900Z 32008KT 290V350 9999 FEW012 22/17 Q1013=
METAR LPPT 070930Z 31009KT 280V350 9999 FEW012 24/17 Q1013=
METAR LPPT 071000Z 33010KT 290V360 9999 FEW015 24/17 Q1013=
METAR LPPT 071030Z 34010KT 9999 FEW015 26/17 Q1013=
METAR LPPT 071100Z 34008KT 300V020 9999 FEW020 27/18 Q1013=
METAR LPPT 071130Z 32009KT 280V360 9999 FEW020 27/18 Q1013=
METAR LPPT 071200Z 32010KT 280V360 9999 FEW020 27/18 Q1013=
METAR LPPT 071230Z 32010KT 290V350 9999 FEW025 28/18 Q1012=
METAR LPPT 071300Z 32011KT 280V350 9999 FEW025 28/17 Q1012=
METAR LPPT 071330Z 31011KT 280V350 9999 FEW030 28/17 Q1012=
METAR LPPT 071400Z 31013KT 290V350 CAVOK 27/17 Q1012=
METAR LPPT 071430Z 33014KT 290V350 CAVOK 27/17 Q1012=
METAR LPPT 071500Z 32017KT 290V350 CAVOK 26/17 Q1011=
METAR LPPT 071530Z 32015KT 290V350 CAVOK 27/16 Q1011=
METAR LPPT 071600Z 32015KT 290V350 CAVOK 26/16 Q1011=
METAR LPPT 071630Z 32014KT CAVOK 26/16 Q1011=
METAR LPPT 071700Z 32013KT CAVOK 27/16 Q1011=
METAR LPPT 071730Z 32014KT 290V350 CAVOK 26/16 Q1011=
METAR LPPT 071800Z 32012KT CAVOK 26/16 Q1011=
METAR LPPT 071830Z 32012KT 290V350 CAVOK 25/16 Q1011=
METAR LPPT 071900Z 32013KT CAVOK 24/16 Q1011=
METAR LPPT 071930Z 32011KT CAVOK 23/16 Q1011=
METAR LPPT 072000Z 32011KT CAVOK 22/15 Q1011=
METAR LPPT 072030Z 31014KT CAVOK 21/15 Q1011=
METAR LPPT 072100Z 31014KT CAVOK 21/15 Q1011=
METAR LPPT 072130Z 31014KT CAVOK 20/15 Q1011=
METAR LPPT 072200Z 32013KT CAVOK 19/15 Q1011=
METAR LPPT 072230Z 31013KT CAVOK 19/15 Q1011=
METAR LPPT 072300Z 31013KT CAVOK 19/15 Q1011=
METAR LPPT 072330Z 31013KT CAVOK 19/15 Q1011=
METAR LPPT 080000Z 31011KT CAVOK 19/15 Q1011=
METAR LPPT 080030Z 32007KT 290V350 CAVOK 19/15 Q1011=
METAR LPPT 080100Z 33007KT 290V360 CAVOK 19/15 Q1011=
METAR LPPT 080130Z 32007KT 290V350 CAVOK 19/15 Q1010=
METAR LPPT 080200Z 31007KT 280V340 CAVOK 19/15 Q1010=
METAR LPPT 080230Z 31007KT CAVOK 19/15 Q1010=
METAR LPPT 080300Z 32009KT CAVOK 19/15 Q1010=
METAR LPPT 080330Z 32008KT CAVOK 19/15 Q1010=
METAR LPPT 080400Z 32007KT CAVOK 18/15 Q1010=
METAR LPPT 080430Z 32008KT CAVOK 18/15 Q1010=
METAR LPPT 080500Z 31008KT CAVOK 18/15 Q1010=
METAR LPPT 080530Z 33006KT CAVOK 18/15 Q1010=
METAR LPPT 080600Z 32006KT CAVOK 18/15 Q1011=
METAR LPPT 080630Z 36003KT 330V030 CAVOK 19/15 Q1011=
METAR LPPT 080700Z 03003KT 350V060 CAVOK 20/16 Q1011=
METAR LPPT 080730Z 06004KT 010V090 CAVOK 20/16 Q1011=
METAR LPPT 080800Z 07004KT 360V120 CAVOK 21/16 Q1011=
METAR LPPT 080830Z 07004KT 340V130 CAVOK 22/16 Q1012=
METAR LPPT 080900Z 08005G16KT 050V120 CAVOK 23/16 Q1012=
METAR LPPT 080930Z 08005KT 030V150 CAVOK 24/16 Q1012=
METAR LPPT 081000Z VRB03KT CAVOK 26/16 Q1012=
METAR LPPT 081030Z VRB05G18KT CAVOK 27/17 Q1012=
METAR LPPT 081100Z VRB04KT CAVOK 28/17 Q1012=
METAR LPPT 081130Z 13007KT 090V190 CAVOK 29/17 Q1012=
METAR LPPT 081200Z 18006KT 090V230 CAVOK 30/16 Q1012=
METAR LPPT 081230Z 18007KT 130V220 CAVOK 31/17 Q1012=
METAR LPPT 081300Z 18007KT 140V220 CAVOK 31/17 Q1012=
METAR LPPT 081330Z 20008KT 160V230 CAVOK 32/16 Q1012=
METAR LPPT 081400Z 20010KT 150V220 CAVOK 31/16 Q1012=
METAR LPPT 081430Z 21009KT 150V260 CAVOK 31/16 Q1012=
METAR LPPT 081500Z 22009KT 180V250 CAVOK 31/16 Q1012=
METAR LPPT 081530Z 24009KT 190V270 CAVOK 30/16 Q1011=
METAR LPPT 081600Z 22007KT CAVOK 29/16 Q1011=
METAR LPPT 081630Z 23008KT 200V260 CAVOK 30/15 Q1011=
METAR LPPT 081700Z 21009KT CAVOK 29/15 Q1011=
METAR LPPT 081730Z 24011KT CAVOK 27/15 Q1011=
METAR LPPT 081800Z 22010KT CAVOK 26/16 Q1011=
METAR LPPT 081830Z 22011KT CAVOK 25/17 Q1012=
METAR LPPT 081900Z 22009KT 9999 FEW006 24/17 Q1012=
METAR LPPT 081930Z 21009KT 9999 FEW015 22/17 Q1012=
METAR LPPT 082000Z 22008KT 9999 FEW015 21/17 Q1013=
METAR LPPT 082030Z 21009KT 9999 FEW020 20/17 Q1013=
METAR LPPT 082100Z 23007KT 210V280 9999 FEW007 20/17 Q1013=
METAR LPPT 082130Z 24009KT 9999 SCT008 19/17 Q1014=
METAR LPPT 082200Z 24007KT 9999 FEW008 BKN011 19/17 Q1014=
METAR LPPT 082230Z 21008KT 200V260 9999 BKN010 19/17 Q1014=
METAR LPPT 082300Z 24007KT 200V270 9999 FEW009 BKN011 19/17 Q1014=
METAR LPPT 082330Z 21010KT 9999 FEW009 BKN011 19/16 Q1014=
METAR LPPT 090000Z 20008KT 9999 BKN009 18/16 Q1014=
METAR LPPT 090030Z 20008KT 9999 BKN009 18/16 Q1014=
METAR LPPT 090100Z 22007KT 9999 BKN009 18/16 Q1014=
METAR LPPT 090130Z 21007KT 9999 BKN009 18/16 Q1014=
METAR LPPT 090200Z 20009KT 170V230 9999 BKN008 18/16 Q1014=
METAR LPPT 090230Z 22007KT 9999 BKN008 18/16 Q1014=
METAR LPPT 090300Z 21008KT 9999 BKN009 18/16 Q1014=
METAR LPPT 090330Z 19008KT 9999 FEW009 BKN011 18/16 Q1014=
METAR LPPT 090400Z 19007KT 9999 BKN010 18/15 Q1014=
METAR LPPT 090430Z 20007KT 170V230 9999 FEW011 18/16 Q1014=
METAR LPPT 090500Z 20008KT 9999 FEW012 18/15 Q1015=
METAR LPPT 090530Z 19008KT 140V230 9999 BKN012 18/15 Q1015=
METAR LPPT 090600Z 21009KT 9999 BKN012 18/15 Q1015=
METAR LPPT 090630Z 19010KT 150V220 9999 BKN012 18/15 Q1015=
METAR LPPT 090700Z 20009KT 160V220 9999 BKN012 18/15 Q1015=
METAR LPPT 090730Z 18010KT 9999 BKN012 18/15 Q1016=
METAR LPPT 090800Z 19007KT 130V230 9999 BKN012 19/15 Q1016=
METAR LPPT 090830Z 17007KT 120V210 9999 BKN012 19/16 Q1016=
METAR LPPT 090900Z 21006KT 160V240 9999 BKN014 19/16 Q1016=
METAR LPPT 090930Z 22008KT 9999 BKN014 20/16 Q1016=
METAR LPPT 091000Z 21007KT 9999 BKN016 20/16 Q1017=
METAR LPPT 091030Z 21008KT 9999 BKN016 20/16 Q1017=
METAR LPPT 091100Z 21008KT 140V260 9999 BKN018 20/16 Q1017=
METAR LPPT 091130Z 22010KT 170V260 9999 BKN018 22/16 Q1017=
METAR LPPT 091200Z 20009KT 170V230 9999 SCT018 22/16 Q1017=
METAR LPPT 091230Z 22010KT 140V250 9999 FEW020 22/16 Q1017=
METAR LPPT 091300Z 21010KT 170V230 9999 FEW022 23/16 Q1017=
METAR LPPT 091330Z 22012KT 200V260 9999 FEW025 23/16 Q1017=
METAR LPPT 091400Z 22012KT 9999 FEW030 23/16 Q1017=
METAR LPPT 091430Z 24013KT 9999 FEW030 23/15 Q1017=
METAR LPPT 091500Z 23012KT 9999 FEW030 23/16 Q1017=
METAR LPPT 091530Z 23014KT 9999 FEW030 23/16 Q1017=
METAR LPPT 091600Z 23011KT 9999 FEW030 23/16 Q1017=
METAR LPPT 091630Z 23011KT 180V260 9999 FEW030 24/16 Q1017=
METAR LPPT 091700Z 25011KT 220V290 9999 FEW030 24/16 Q1016=
METAR LPPT 091730Z 25012KT 220V290 9999 FEW030 23/16 Q1016=
METAR LPPT 091800Z 23011KT 9999 FEW025 23/16 Q1016=
METAR LPPT 091830Z 25010KT 220V280 9999 FEW025 23/16 Q1016=
METAR LPPT 091900Z 26008KT 220V290 9999 FEW025 22/16 Q1016=
METAR LPPT 091930Z 25010KT 9999 FEW020 21/15 Q1017=
METAR LPPT 092000Z 24007KT 9999 FEW020 20/15 Q1017=
METAR LPPT 092030Z 24008KT 9999 FEW020 20/15 Q1017=
METAR LPPT 092100Z 27007KT 9999 FEW020 19/15 Q1017=
METAR LPPT 092130Z 26007KT 9999 FEW020 19/15 Q1018=
METAR LPPT 092200Z 27006KT 240V320 9999 FEW018 19/15 Q1018=
METAR LPPT 092230Z 26006KT 230V290 9999 BKN016 19/15 Q1018=
METAR LPPT 092300Z 26007KT 230V290 9999 BKN018 19/15 Q1018=
METAR LPPT 092330Z 27007KT 230V300 9999 BKN018 19/15 Q1018=
METAR LPPT 100000Z 25007KT 9999 BKN018 19/15 Q1018=
METAR LPPT 100030Z 27006KT 240V300 9999 BKN018 19/15 Q1018=
METAR LPPT 100100Z 29005KT 9999 BKN020 19/15 Q1018=
METAR LPPT 100130Z 25007KT 230V290 9999 BKN020 19/15 Q1018=
METAR LPPT 100200Z 28004KT 240V310 9999 BKN020 19/15 Q1017=
METAR LPPT 100230Z 27005KT 230V320 9999 BKN020 19/15 Q1017=
METAR LPPT 100300Z 25006KT 220V290 9999 BKN020 19/15 Q1017=
METAR LPPT 100330Z 25005KT 210V290 9999 BKN020 19/15 Q1017=
METAR LPPT 100400Z 25004KT 220V290 9999 BKN021 19/15 Q1017=
METAR LPPT 100430Z 28003KT 230V330 9999 BKN022 19/15 Q1017=
METAR LPPT 100500Z 25005KT 230V290 9999 FEW020 BKN022 19/15 Q1017=
METAR LPPT 100530Z 23006KT 9999 FEW020 BKN022 19/15 Q1017=
METAR LPPT 100600Z 25003KT 9999 BKN022 19/15 Q1017=
METAR LPPT 100630Z 26004KT 220V310 9999 BKN022 19/15 Q1018=
METAR LPPT 100700Z 25006KT 220V280 9999 BKN020 20/14 Q1018=
METAR LPPT 100730Z 25006KT 220V280 9999 BKN022 20/15 Q1018=
METAR LPPT 100800Z 28004KT 210V330 9999 BKN024 20/14 Q1018=
METAR LPPT 100830Z 23005KT 190V280 9999 BKN026 21/14 Q1019=
METAR LPPT 100900Z 23006KT 9999 BKN025 21/15 Q1019=
METAR LPPT 100930Z 24007KT 210V270 9999 BKN024 21/15 Q1019=
METAR LPPT 101000Z 23005KT 190V270 9999 FEW024 BKN030 21/15 Q1019=
METAR LPPT 101030Z 26006KT 220V290 9999 FEW022 BKN028 21/15 Q1019=
METAR LPPT 101100Z 28007KT 240V310 9999 FEW024 BKN028 21/15 Q1019=
METAR LPPT 101130Z 29004KT 220V320 9999 FEW022 BKN028 22/15 Q1019=
METAR LPPT 101200Z 23006KT 200V270 9999 FEW024 BKN032 22/15 Q1019=
METAR LPPT 101230Z 23006KT 170V280 9999 FEW024 BKN032 23/15 Q1019=
METAR LPPT 101300Z 26006KT 210V330 9999 FEW025 BKN034 23/15 Q1019=
METAR LPPT 101330Z 22010KT 200V260 9999 FEW025 BKN036 24/15 Q1019=
METAR LPPT 101400Z 23011KT 9999 FEW028 BKN034 23/16 Q1018=
METAR LPPT 101430Z 24013KT 9999 FEW025 SCT028 BKN035 23/15 Q1019=
METAR LPPT 101500Z 23009KT 210V270 9999 FEW028 BKN033 23/15 Q1018=
METAR LPPT 101530Z 23009KT 200V290 9999 FEW028 BKN033 24/15 Q1018=
METAR LPPT 101600Z 25009KT 220V290 9999 FEW028 SCT035 23/15 Q1018=
METAR LPPT 101630Z 25010KT 220V300 9999 FEW028 24/13 Q1018=
METAR LPPT 101700Z 26010KT 9999 FEW040 24/13 Q1018=
METAR LPPT 101730Z 26010KT 230V300 9999 FEW028 23/13 Q1018=
METAR LPPT 101800Z 29008KT 240V320 9999 FEW028 22/13 Q1018=
METAR LPPT 101830Z 28008KT 250V330 9999 FEW025 SCT035 22/13 Q1018=
METAR LPPT 101900Z 29008KT 250V320 9999 FEW025 SCT033 21/13 Q1018=
METAR LPPT 101930Z 28009KT 240V310 9999 FEW022 BKN033 21/14 Q1018=
METAR LPPT 102000Z 26009KT 230V310 9999 FEW022 BKN033 21/15 Q1018=
METAR LPPT 102030Z 28008KT 250V310 9999 FEW022 BKN030 20/15 Q1018=
METAR LPPT 102100Z 28007KT 250V310 9999 FEW022 BKN033 20/15 Q1018=
METAR LPPT 102130Z 28007KT 240V320 9999 FEW018 BKN030 20/15 Q1018=
METAR LPPT 102200Z 26008KT 9999 FEW018 BKN032 20/16 Q1018=
METAR LPPT 102230Z 27006KT 230V300 9999 SCT016 BKN028 20/16 Q1018=
METAR LPPT 102300Z 26008KT 230V290 9999 SCT016 BKN030 19/16 Q1018=
METAR LPPT 102330Z 27008KT 230V300 9999 FEW016 OVC026 19/16 Q1018=
METAR LPPT 110000Z 27007KT 9999 FEW016 OVC026 20/16 Q1018=
METAR LPPT 110030Z 26007KT 9999 FEW014 OVC026 20/16 Q1017=
METAR LPPT 110100Z 27007KT 230V300 9999 FEW012 OVC028 20/16 Q1017=
METAR LPPT 110130Z 29006KT 250V330 9999 FEW012 OVC020 19/16 Q1017=
METAR LPPT 110200Z 28004KT 240V300 9999 FEW016 OVC030 19/16 Q1017=
METAR LPPT 110230Z 24008KT 9999 FEW016 OVC030 20/14 Q1016=
METAR LPPT 110300Z 22008KT 9999 FEW016 OVC030 20/14 Q1016=
METAR LPPT 110330Z 24008KT 220V280 9999 FEW020 OVC030 20/15 Q1016=
METAR LPPT 110400Z 24007KT 9999 SCT018 BKN028 20/15 Q1016=
METAR LPPT 110430Z 24008KT 9999 SCT018 BKN026 19/15 Q1016=
METAR LPPT 110500Z 24007KT 210V270 9999 SCT018 BKN035 19/15 Q1016=
METAR LPPT 110530Z 23007KT 9999 SCT014 BKN030 19/16 Q1016=
METAR LPPT 110600Z 26007KT 9999 -RA FEW008 SCT012 BKN028 19/16 Q1016=
METAR LPPT 110630Z 24006KT 9999 FEW005 SCT014 BKN030 19/16 Q1016=
METAR LPPT 110700Z 23007KT 9999 FEW008 SCT012 BKN030 19/16 Q1016=
METAR LPPT 110730Z 23008KT 9999 FEW012 BKN035 20/16 Q1016=
METAR LPPT 110800Z 23008KT 9999 FEW010 SCT015 BKN035 20/16 Q1017=
METAR LPPT 110830Z 23009KT 9999 FEW010 SCT014 BKN036 20/16 Q1016=
METAR LPPT 110900Z 21012KT 9999 FEW012 SCT016 BKN025 20/16 Q1017=
METAR LPPT 110930Z 22008KT 190V270 8000 -RADZ FEW010 SCT012 BKN024 19/17 Q1017=
METAR LPPT 111000Z 22009KT 3000 -DZ BR FEW008 SCT012 BKN018 18/17 Q1017=
METAR LPPT 111030Z 20007KT 2500 -DZ BR FEW002 SCT005 BKN008 19/18 Q1017=
METAR LPPT 111100Z 24008KT 3000 RA BR SCT004 BKN008 18/18 Q1017=
METAR LPPT 111130Z 21008KT 4000 VCSH BR FEW005 BKN024 19/19 Q1017 RERA=
METAR LPPT 111200Z 22007KT 9999 SCT005 BKN030 20/18 Q1017=
METAR LPPT 111230Z 23007KT 180V260 9999 SCT011 BKN024 20/18 Q1017=
METAR LPPT 111300Z 23011KT 9999 SCT012 BKN018 20/17 Q1016=
METAR LPPT 111330Z 21011KT 9999 FEW010 SCT012 BKN026 21/18 Q1016=
METAR LPPT 111400Z 22010KT 9999 FEW012 BKN016 21/17 Q1016=
METAR LPPT 111430Z 24010KT 210V270 9999 FEW014 BKN022 22/16 Q1016=
METAR LPPT 111500Z 24008KT 210V280 9999 FEW014 BKN024 22/17 Q1016=
METAR LPPT 111530Z 21011KT 9999 FEW014 BKN022 21/17 Q1016=
METAR LPPT 111600Z 22011KT 9999 SCT012 BKN022 21/17 Q1016=
METAR LPPT 111630Z 23010KT 8000 -RADZ FEW009 SCT012 BKN022 20/18 Q1016=
METAR LPPT 111700Z 25008KT 9999 FEW009 SCT012 BKN026 19/17 Q1015=
METAR LPPT 111730Z 25008KT 220V280 9999 FEW014 SCT020 BKN028 21/17 Q1015=
METAR LPPT 111800Z 24008KT 9999 SCT013 BKN020 21/17 Q1015=
METAR LPPT 111830Z 24008KT 220V280 9999 SCT014 BKN020 20/16 Q1015=
METAR LPPT 111900Z 24007KT 210V280 9999 FEW014 SCT020 BKN045 20/16 Q1015=
METAR LPPT 111930Z 25006KT 220V280 9999 FEW015 SCT020 BKN046 20/16 Q1015=
METAR LPPT 112000Z 27007KT 9999 SCT020 BKN042 20/16 Q1015=
METAR LPPT 112030Z 26007KT 9999 FEW018 BKN040 20/16 Q1015=
METAR LPPT 112100Z 29005KT 9999 FEW015 BKN038 19/16 Q1015=
METAR LPPT 112130Z 26005KT 9999 FEW010 BKN038 19/16 Q1015=
METAR LPPT 112200Z 27004KT 240V300 9999 FEW014 BKN040 19/16 Q1015=
METAR LPPT 112230Z 34003KT 290V010 9999 FEW015 BKN045 19/16 Q1015=
METAR LPPT 112300Z 29003KT 250V330 9999 FEW015 BKN045 19/16 Q1015=
METAR LPPT 112330Z 26005KT 230V320 9999 FEW012 BKN042 19/16 Q1015=
METAR LPPT 120000Z 26003KT 220V300 9999 FEW012 BKN045 19/16 Q1015=
METAR LPPT 120030Z VRB02KT 9999 FEW012 BKN046 19/17 Q1015=
METAR LPPT 120100Z 27004KT 9999 FEW012 BKN046 19/17 Q1015=
METAR LPPT 120130Z 30004KT 9999 FEW012 BKN045 19/17 Q1015=
METAR LPPT 120200Z 30006KT 280V340 9999 FEW012 BKN046 19/16 Q1015=
METAR LPPT 120230Z 30006KT 9999 FEW012 BKN046 19/16 Q1015=
METAR LPPT 120300Z 31005KT 280V340 9999 FEW012 BKN046 19/17 Q1014=
METAR LPPT 120330Z 31005KT 9999 FEW012 BKN045 19/17 Q1014=
METAR LPPT 120400Z 30005KT 9999 FEW012 BKN044 19/17 Q1014=
METAR LPPT 120430Z 29004KT 9999 FEW012 BKN046 19/16 Q1014=
METAR LPPT 120500Z 30005KT 9999 FEW012 BKN045 19/16 Q1014=
METAR LPPT 120530Z 30004KT 9999 FEW012 BKN045 19/17 Q1014=
METAR LPPT 120600Z 30005KT 270V330 9999 FEW012 BKN045 19/17 Q1014=
METAR LPPT 120630Z 30005KT 9999 FEW012 BKN045 19/17 Q1014=
METAR LPPT 120700Z 30006KT 270V330 9999 FEW012 BKN045 19/16 Q1015=
METAR LPPT 120730Z 29007KT 9999 FEW014 BKN046 19/16 Q1015=
METAR LPPT 120800Z 31005KT 290V350 9999 FEW016 BKN046 20/16 Q1015=
METAR LPPT 120830Z 29006KT 9999 FEW018 BKN042 20/16 Q1015=
METAR LPPT 120900Z 32006KT 290V350 9999 FEW018 BKN042 20/16 Q1015=
METAR LPPT 120930Z 30006KT 260V340 9999 FEW018 SCT025 BKN036 20/16 Q1015=
METAR LPPT 121000Z 28005KT 240V320 9999 FEW018 BKN034 21/16 Q1015=
METAR LPPT 121030Z 24006KT 210V270 9999 FEW015 BKN042 21/17 Q1015=
METAR LPPT 121100Z 28006KT 250V330 9999 FEW020 BKN042 22/16 Q1015=
METAR LPPT 121130Z 29006KT 250V330 9999 FEW024 BKN040 23/16 Q1015=
METAR LPPT 121200Z 27009KT 230V320 9999 SCT025 BKN036 24/15 Q1015=
METAR LPPT 121230Z 28008KT 230V340 9999 FEW028 BKN044 24/15 Q1015=
METAR LPPT 121300Z 29008KT 250V340 9999 FEW030 BKN044 23/15 Q1015=
METAR LPPT 121330Z 30009KT 270V360 9999 FEW030 BKN044 23/15 Q1015=
METAR LPPT 121400Z 30010KT 260V340 9999 FEW032 BKN046 23/15 Q1015=
METAR LPPT 121430Z 31009KT 280V340 9999 FEW032 BKN048 23/15 Q1015=
METAR LPPT 121500Z 29009KT 260V340 9999 FEW032 SCT048 24/16 Q1015=
METAR LPPT 121530Z 31009KT 280V350 9999 FEW032 SCT048 24/15 Q1014=
METAR LPPT 121600Z 32010KT 9999 FEW032 24/15 Q1014=
METAR LPPT 121630Z 30008KT 260V340 9999 SCT032 23/15 Q1014=
METAR LPPT 121700Z 31010KT 270V340 9999 SCT032 23/15 Q1014=
METAR LPPT 121730Z 30009KT 270V330 9999 FEW030 23/15 Q1014=
METAR LPPT 121800Z 30009KT 260V340 9999 FEW030 22/15 Q1015=
METAR LPPT 121830Z 31009KT 270V340 9999 FEW024 22/15 Q1015=
METAR LPPT 121900Z 30008KT 270V340 9999 FEW024 21/15 Q1015=
METAR LPPT 121930Z 32009KT 9999 FEW020 21/15 Q1015=
METAR LPPT 122000Z 30008KT 9999 FEW020 20/14 Q1015=
METAR LPPT 122030Z 30008KT 9999 FEW018 20/15 Q1015=
METAR LPPT 122100Z 30008KT 9999 FEW015 19/16 Q1016=
METAR LPPT 122130Z 30008KT 260V320 9999 FEW015 19/16 Q1015=
METAR LPPT 122200Z 30009KT 9999 FEW014 19/16 Q1016=
METAR LPPT 122230Z 30007KT 280V340 9999 FEW012 19/16 Q1016=
METAR LPPT 122300Z 30008KT 9999 SCT012 19/16 Q1016=
METAR LPPT 122330Z 30007KT 9999 SCT012 19/16 Q1016=
METAR LPPT 130000Z 30007KT 9999 FEW012 SCT018 19/16 Q1016=
METAR LPPT 130030Z 30007KT 9999 FEW012 SCT022 19/16 Q1016=
METAR LPPT 130100Z 30006KT 9999 FEW012 19/16 Q1016=
METAR LPPT 130130Z 30007KT 9999 FEW018 18/16 Q1016=
METAR LPPT 130200Z 30004KT 9999 FEW018 BKN026 19/16 Q1016=
METAR LPPT 130230Z 30003KT 240V340 9999 FEW014 BKN024 19/16 Q1016=
METAR LPPT 130300Z 29003KT 260V320 9999 FEW012 BKN025 19/16 Q1016=
METAR LPPT 130330Z 30003KT 9999 FEW012 BKN026 19/16 Q1016=
METAR LPPT 130400Z 30004KT 260V320 9999 FEW012 BKN028 18/16 Q1016=
METAR LPPT 130430Z VRB02KT 9999 FEW012 BKN028 18/16 Q1016=
METAR LPPT 130500Z 32003KT 250V360 9999 FEW012 BKN025 19/16 Q1016=
METAR LPPT 130530Z 30003KT 280V340 9999 FEW014 BKN026 19/16 Q1016=
METAR LPPT 130600Z VRB01KT 9999 FEW014 BKN028 19/16 Q1016=
METAR LPPT 130630Z 30003KT 260V340 9999 FEW014 SCT027 19/17 Q1016=
METAR LPPT 130700Z 36004KT 320V020 9999 FEW012 BKN017 20/17 Q1017=
METAR LPPT 130730Z 31005KT 270V340 9999 FEW014 BKN022 20/17 Q1017=
METAR LPPT 130800Z 33005KT 270V010 9999 FEW016 BKN022 21/17 Q1017=
METAR LPPT 130830Z 36006KT 320V040 9999 FEW020 BKN028 22/16 Q1017=
METAR LPPT 130900Z 33008KT 300V360 9999 FEW022 BKN030 22/16 Q1017=
METAR LPPT 130930Z 30005KT 230V020 9999 FEW022 BKN030 22/16 Q1017=
METAR LPPT 131000Z 31006KT 280V350 9999 FEW022 BKN032 22/17 Q1017=
METAR LPPT 131030Z 32008KT 290V360 9999 FEW026 BKN032 23/16 Q1017=
METAR LPPT 131100Z 34007KT 290V030 9999 FEW028 BKN034 24/16 Q1017=
METAR LPPT 131130Z 34008KT 300V030 9999 FEW032 BKN038 24/15 Q1017=
METAR LPPT 131200Z 35006KT 280V030 9999 SCT034 BKN040 25/16 Q1017=
METAR LPPT 131230Z 34006KT 280V060 9999 SCT031 BKN043 26/16 Q1017=
METAR LPPT 131300Z 33007KT 240V050 9999 FEW035 BKN043 26/16 Q1017=
METAR LPPT 131330Z 34008KT 300V010 9999 FEW037 BKN043 26/16 Q1017=
METAR LPPT 131400Z 36009KT 280V070 9999 FEW035 BKN042 26/16 Q1017=
METAR LPPT 131430Z 35011KT 310V030 9999 FEW035 BKN040 27/16 Q1017=
METAR LPPT 131500Z 34011KT 290V010 9999 FEW035 BKN039 26/17 Q1017=
METAR LPPT 131530Z 32010KT 270V350 9999 FEW033 BKN037 27/17 Q1017=
METAR LPPT 131600Z 32011KT 290V350 9999 FEW032 SCT035 26/16 Q1017=
METAR LPPT 131630Z 32011KT 290V350 9999 FEW027 SCT032 25/17 Q1017=
METAR LPPT 131700Z 32011KT 290V020 9999 FEW027 25/17 Q1017=
METAR LPPT 131730Z 34014KT 9999 FEW026 24/17 Q1017=
METAR LPPT 131800Z 33015KT 9999 FEW021 23/17 Q1017=
METAR LPPT 131830Z 33013KT 300V360 9999 FEW019 23/17 Q1017=
METAR LPPT 131900Z 33015KT 9999 FEW019 22/17 Q1017=
METAR LPPT 131930Z 32012KT 9999 FEW019 22/18 Q1018=
METAR LPPT 132000Z 34015KT 9999 FEW016 21/18 Q1018=
METAR LPPT 132030Z 33011KT 9999 FEW014 21/18 Q1018=
METAR LPPT 132100Z 33010KT 9999 FEW012 20/17 Q1018=
METAR LPPT 132130Z 32013KT 9999 FEW012 20/17 Q1019=
METAR LPPT 132200Z 32010KT 9999 FEW012 20/17 Q1019=
METAR LPPT 132230Z 32011KT 9999 FEW012 19/16 Q1019=
METAR LPPT 132300Z 33011KT 300V360 9999 FEW012 19/15 Q1019=
METAR LPPT 132330Z 35011KT 9999 FEW012 19/15 Q1019=
METAR LPPT 140000Z 34012KT 9999 FEW012 19/15 Q1019=
METAR LPPT 140030Z 34007KT 300V010 9999 FEW012 18/15 Q1019=
METAR LPPT 140100Z 32013KT 9999 FEW012 18/16 Q1019=
METAR LPPT 140130Z 32013KT 9999 FEW012 18/15 Q1019=
METAR LPPT 140200Z 32013KT 9999 FEW012 18/15 Q1019=
METAR LPPT 140230Z 35008KT 310V020 9999 FEW012 18/15 Q1019=
METAR LPPT 140300Z 35004KT 320V040 9999 FEW012 18/15 Q1019=
METAR LPPT 140330Z 34007KT 310V010 9999 SCT013 18/16 Q1019=
METAR LPPT 140400Z 35010KT 320V020 9999 FEW013 18/15 Q1019=
METAR LPPT 140430Z 34009KT 310V010 9999 FEW013 17/15 Q1019=
METAR LPPT 140500Z 34008KT 9999 FEW013 17/14 Q1020=
METAR LPPT 140530Z 35011KT 9999 FEW013 17/14 Q1020=
METAR LPPT 140600Z 35009KT 320V020 9999 FEW013 17/14 Q1020=
METAR LPPT 140630Z 34011KT 310V010 9999 FEW015 18/14 Q1020=
METAR LPPT 140700Z 34010KT 9999 FEW015 18/14 Q1020=
METAR LPPT 140730Z 34011KT 9999 FEW015 19/14 Q1020=
METAR LPPT 140800Z 34013KT 9999 FEW015 20/14 Q1020=
METAR LPPT 140830Z 34015KT 9999 FEW020 20/14 Q1020=
METAR LPPT 140900Z 34015KT 9999 FEW020 22/14 Q1020=
METAR LPPT 140930Z 34013KT 9999 FEW020 23/13 Q1020=
METAR LPPT 141000Z 34010KT 300V010 9999 FEW025 24/14 Q1020=
METAR LPPT 141030Z 34010KT 310V010 9999 FEW025 24/13 Q1020=
METAR LPPT 141100Z 35009KT 310V040 9999 FEW030 26/14 Q1020=
METAR LPPT 141130Z 33009KT 290V010 9999 FEW030 25/13 Q1020=
METAR LPPT 141200Z 35009KT 280V050 CAVOK 27/14 Q1020=
METAR LPPT 141230Z 34013KT 290V010 CAVOK 27/14 Q1020=
METAR LPPT 141300Z 35011KT 270V020 CAVOK 27/14 Q1020=
METAR LPPT 141330Z 35012KT 300V020 CAVOK 27/13 Q1020=
METAR LPPT 141400Z 33012KT 290V360 CAVOK 27/14 Q1020=
METAR LPPT 141430Z 33012KT 290V010 CAVOK 27/13 Q1020=
METAR LPPT 141500Z 32011KT 280V350 CAVOK 27/13 Q1020=
METAR LPPT 141530Z 34014KT 280V360 CAVOK 27/13 Q1020=
METAR LPPT 141600Z 34014KT CAVOK 27/12 Q1020=
METAR LPPT 141630Z 35012KT 310V020 CAVOK 27/11 Q1020=
METAR LPPT 141700Z 33014KT 300V360 CAVOK 26/11 Q1020=
METAR LPPT 141730Z 32010KT 280V360 CAVOK 26/13 Q1020=
METAR LPPT 141800Z 32013KT 290V350 CAVOK 24/13 Q1020=
METAR LPPT 141830Z 32012KT 9999 FEW015 24/12 Q1020=
METAR LPPT 141900Z 33010KT 300V360 9999 FEW015 23/11 Q1020=
METAR LPPT 141930Z 35012KT 310V020 9999 FEW015 22/11 Q1020=
METAR LPPT 142000Z 34010KT 9999 FEW015 21/13 Q1021=
METAR LPPT 142030Z 34009KT 300V010 9999 FEW015 20/14 Q1021=
METAR LPPT 142100Z 33009KT 300V020 9999 FEW015 20/14 Q1021=
METAR LPPT 142130Z 33008KT 290V010 9999 FEW015 19/14 Q1022=
METAR LPPT 142200Z 33009KT 300V360 CAVOK 19/15 Q1022=
METAR LPPT 142230Z 34014KT CAVOK 19/15 Q1022=
METAR LPPT 142300Z 34009KT CAVOK 19/14 Q1021=
METAR LPPT 142330Z 33009KT 290V010 CAVOK 19/14 Q1022=
METAR LPPT 150000Z 32013KT CAVOK 19/13 Q1021=
METAR LPPT 150030Z 34017KT CAVOK 19/14 Q1021=
METAR LPPT 150100Z 33013KT 300V360 CAVOK 19/14 Q1021=
METAR LPPT 150130Z 33012G22KT CAVOK 19/14 Q1021=
METAR LPPT 150200Z 34011KT CAVOK 19/14 Q1020=
METAR LPPT 150230Z 35004KT 280V060 CAVOK 18/14 Q1020=
METAR LPPT 150300Z 33009KT CAVOK 18/14 Q1020=
METAR LPPT 150330Z 34010KT CAVOK 18/15 Q1020=
METAR LPPT 150400Z 35007KT CAVOK 18/15 Q1020=
METAR LPPT 150430Z 34008KT CAVOK 18/15 Q1020=
METAR LPPT 150500Z 33007KT CAVOK 18/14 Q1020=
METAR LPPT 150530Z 33006KT CAVOK 18/15 Q1020=
METAR LPPT 150600Z 33007KT CAVOK 19/15 Q1020=
METAR LPPT 150630Z 33006KT CAVOK 19/15 Q1020=
METAR LPPT 150700Z 33006KT CAVOK 20/15 Q1020=
METAR LPPT 150730Z 35006KT 310V010 CAVOK 21/15 Q1020=
METAR LPPT 150800Z 36006KT CAVOK 22/15 Q1020=
METAR LPPT 150830Z 02005KT 330V110 CAVOK 23/16 Q1020=
METAR LPPT 150900Z 06005KT 360V110 CAVOK 24/16 Q1020=
METAR LPPT 150930Z 09004KT 040V150 CAVOK 25/17 Q1020=
METAR LPPT 151000Z VRB05G15KT CAVOK 26/17 Q1020=
METAR LPPT 151030Z 10006KT 060V120 CAVOK 27/17 Q1020=
METAR LPPT 151100Z 09006G17KT 050V120 CAVOK 28/17 Q1020=
METAR LPPT 151130Z VRB07G21KT CAVOK 29/16 Q1020=
METAR LPPT 151200Z VRB06KT CAVOK 30/16 Q1020=
METAR LPPT 151230Z 09007KT 040V130 CAVOK 31/16 Q1020=
METAR LPPT 151300Z VRB06G19KT CAVOK 32/16 Q1019=
METAR LPPT 151330Z VRB05KT CAVOK 33/15 Q1019=
METAR LPPT 151400Z VRB06G18KT CAVOK 33/15 Q1019=
METAR LPPT 151430Z 12006KT 080V200 CAVOK 34/14 Q1019=
METAR LPPT 151500Z 18006KT 100V260 CAVOK 34/16 Q1018=
METAR LPPT 151530Z 21007KT 170V250 CAVOK 34/17 Q1018=
METAR LPPT 151600Z 35009KT 310V030 CAVOK 34/15 Q1018=
METAR LPPT 151630Z 30007KT CAVOK 33/15 Q1018=
METAR LPPT 151700Z 31009KT 280V340 CAVOK 33/14 Q1018=
METAR LPPT 151730Z 33010KT 290V350 CAVOK 32/14 Q1018=
METAR LPPT 151800Z 32012KT CAVOK 31/15 Q1018=
METAR LPPT 151830Z 32011KT CAVOK 29/15 Q1018=
METAR LPPT 151900Z 32012KT CAVOK 28/14 Q1018=
METAR LPPT 151930Z 32012KT CAVOK 27/13 Q1018=
METAR LPPT 152000Z 31012KT CAVOK 26/13 Q1018=
METAR LPPT 152030Z 31012KT CAVOK 25/12 Q1018=
METAR LPPT 152100Z 32011KT CAVOK 24/11 Q1018=
METAR LPPT 152130Z 32010KT 290V350 CAVOK 23/11 Q1019=
METAR LPPT 152200Z 32011KT CAVOK 23/11 Q1019=
METAR LPPT 152230Z 31012KT CAVOK 22/12 Q1019=
METAR LPPT 152300Z 33009KT 300V360 CAVOK 21/13 Q1019=
METAR LPPT 152330Z 32004KT 220V020 CAVOK 20/13 Q1019=
METAR LPPT 160000Z 31009KT CAVOK 20/14 Q1019=
METAR LPPT 160030Z 31010KT CAVOK 20/14 Q1019=
METAR LPPT 160100Z 31010KT CAVOK 20/13 Q1018=
METAR LPPT 160130Z 31009KT CAVOK 20/13 Q1018=
METAR LPPT 160200Z 31011KT CAVOK 19/14 Q1018=
METAR LPPT 160230Z 31010KT CAVOK 18/14 Q1018=
METAR LPPT 160300Z 31011KT CAVOK 18/14 Q1018=
METAR LPPT 160330Z 31012KT CAVOK 18/14 Q1018=
METAR LPPT 160400Z 31012KT CAVOK 18/15 Q1018=
METAR LPPT 160430Z 31012KT CAVOK 18/15 Q1018=
METAR LPPT 160500Z 32011KT CAVOK 18/15 Q1018=
METAR LPPT 160530Z 32010KT CAVOK 18/15 Q1018=
METAR LPPT 160600Z 33008KT CAVOK 18/15 Q1018=
METAR LPPT 160630Z 34009KT CAVOK 19/15 Q1018=
METAR LPPT 160700Z 35006KT 310V020 CAVOK 20/16 Q1018=
METAR LPPT 160730Z 35006KT CAVOK 20/16 Q1019=
METAR LPPT 160800Z 35006KT 320V020 CAVOK 22/16 Q1019=
METAR LPPT 160830Z 34005KT 300V030 CAVOK 23/16 Q1019=
METAR LPPT 160900Z VRB04KT CAVOK 24/17 Q1019=
METAR LPPT 160930Z 09004KT 010V170 CAVOK 25/17 Q1019=
METAR LPPT 161000Z 34005KT 290V020 CAVOK 27/17 Q1019=
METAR LPPT 161030Z 35006KT 280V030 CAVOK 29/17 Q1019=
METAR LPPT 161100Z VRB05KT CAVOK 30/17 Q1019=
METAR LPPT 161130Z VRB04KT CAVOK 31/17 Q1019=
METAR LPPT 161200Z 33007KT 230V040 CAVOK 31/15 Q1019=
METAR LPPT 161230Z 32008KT 280V010 CAVOK 31/15 Q1019=
METAR LPPT 161300Z 30008KT 270V350 CAVOK 31/14 Q1019=
METAR LPPT 161330Z 31010KT 280V360 CAVOK 31/13 Q1019=
METAR LPPT 161400Z 31009KT 280V350 CAVOK 31/13 Q1019=
METAR LPPT 161430Z 31010KT 280V350 CAVOK 30/14 Q1019=
METAR LPPT 161500Z 33011KT 290V360 CAVOK 30/13 Q1019=
METAR LPPT 161530Z 33013KT 290V360 CAVOK 30/12 Q1019=
METAR LPPT 161600Z 33013KT CAVOK 29/11 Q1019=
METAR LPPT 161630Z 32011KT 280V340 CAVOK 28/13 Q1019=
METAR LPPT 161700Z 31011KT 280V340 CAVOK 27/14 Q1019=
METAR LPPT 161730Z 33013KT CAVOK 26/14 Q1018=
METAR LPPT 161800Z 32015KT CAVOK 25/15 Q1019=
METAR LPPT 161830Z 32013KT CAVOK 24/15 Q1018=
METAR LPPT 161900Z 31014KT 290V350 CAVOK 24/15 Q1019=
METAR LPPT 161930Z 31012KT CAVOK 23/14 Q1019=
METAR LPPT 162000Z 35006KT 300V020 CAVOK 21/15 Q1019=
METAR LPPT 162030Z 35008KT 310V030 CAVOK 21/15 Q1019=
METAR LPPT 162100Z 34009KT 300V030 CAVOK 20/14 Q1020=
METAR LPPT 162130Z 34006KT 290V050 CAVOK 20/13 Q1020=
METAR LPPT 162200Z 02006KT 330V070 CAVOK 20/13 Q1020=
METAR LPPT 162230Z VRB05KT CAVOK 20/13 Q1020=
METAR LPPT 162300Z 35005KT 310V040 CAVOK 20/13 Q1020=
METAR LPPT 162330Z 36006KT 320V030 CAVOK 19/14 Q1020=
METAR LPPT 170000Z 33010KT CAVOK 19/14 Q1019=
METAR LPPT 170030Z 33011KT CAVOK 18/15 Q1019=
METAR LPPT 170100Z 35010KT CAVOK 18/15 Q1019=
METAR LPPT 170130Z 33011KT CAVOK 18/15 Q1019=
METAR LPPT 170200Z 33005KT 280V010 CAVOK 18/15 Q1019=
METAR LPPT 170230Z 01008KT 340V040 CAVOK 18/15 Q1019=
METAR LPPT 170300Z 01007KT 320V070 CAVOK 18/14 Q1019=
METAR LPPT 170330Z 34010KT 310V030 9999 FEW012 18/15 Q1019=
METAR LPPT 170400Z 01006KT 330V080 9999 FEW010 18/14 Q1018=
METAR LPPT 170430Z 33005KT 270V030 9999 FEW010 18/14 Q1018=
METAR LPPT 170500Z 33009KT CAVOK 18/15 Q1018=
METAR LPPT 170530Z 34008KT CAVOK 18/15 Q1018=
METAR LPPT 170600Z 34008KT 300V020 CAVOK 18/15 Q1018=
METAR LPPT 170630Z 34008KT 300V010 CAVOK 18/15 Q1019=
METAR LPPT 170700Z 34007KT 290V020 9999 FEW012 19/15 Q1019=
METAR LPPT 170730Z 34013KT 9999 FEW012 19/15 Q1019=
METAR LPPT 170800Z 34011KT 9999 FEW015 20/15 Q1019=
METAR LPPT 170830Z 34012KT 9999 FEW015 21/15 Q1019=
METAR LPPT 170900Z 32009KT 290V350 CAVOK 22/15 Q1020=
METAR LPPT 170930Z 31010KT 280V340 CAVOK 23/15 Q1020=
METAR LPPT 171000Z 34011KT CAVOK 24/15 Q1020=
METAR LPPT 171030Z 33011KT 300V360 CAVOK 25/14 Q1020=
METAR LPPT 171100Z 33011KT 300V020 CAVOK 25/14 Q1020=
METAR LPPT 171130Z 33010KT 290V010 CAVOK 25/14 Q1020=
METAR LPPT 171200Z 33010KT 280V360 CAVOK 26/13 Q1019=
METAR LPPT 171230Z 33011KT 290V360 CAVOK 27/11 Q1019=
METAR LPPT 171300Z 32011KT 290V350 CAVOK 28/10 Q1019=
METAR LPPT 171330Z 33014KT CAVOK 26/11 Q1019=
METAR LPPT 171400Z 32010G21KT 290V360 CAVOK 27/11 Q1019=
METAR LPPT 171430Z 35013KT CAVOK 28/11 Q1019=
METAR LPPT 171500Z 34011KT 300V010 CAVOK 29/11 Q1018=
METAR LPPT 171530Z 32013KT 300V360 CAVOK 28/12 Q1018=
METAR LPPT 171600Z 33009KT 290V010 CAVOK 28/11 Q1018=
METAR LPPT 171630Z 31010KT 270V340 CAVOK 28/09 Q1018=
METAR LPPT 171700Z 33012KT 290V350 9999 FEW020 28/09 Q1018=
METAR LPPT 171730Z 34015KT 9999 FEW020 25/10 Q1018=
METAR LPPT 171800Z 32012KT 290V350 9999 FEW018 25/12 Q1018=
METAR LPPT 171830Z 33016KT 9999 FEW018 23/14 Q1018=
METAR LPPT 171900Z 33014KT 9999 FEW018 22/15 Q1018=
METAR LPPT 171930Z 33015KT 9999 FEW018 21/16 Q1018=
METAR LPPT 172000Z 34016KT 9999 FEW015 20/15 Q1018=
METAR LPPT 172030Z 35011KT 320V020 9999 FEW015 20/15 Q1018=
METAR LPPT 172100Z 35011KT 9999 FEW015 19/15 Q1019=
METAR LPPT 172130Z 35009KT CAVOK 19/15 Q1019=
METAR LPPT 172200Z 34009KT 310V010 9999 FEW015 19/15 Q1019=
METAR LPPT 172230Z 34008KT 9999 FEW015 18/15 Q1019=
METAR LPPT 172300Z 34011KT 9999 FEW015 18/15 Q1019=
METAR LPPT 172330Z 34012KT 9999 FEW015 18/16 Q1019=
METAR LPPT 180000Z 34010KT 310V010 9999 FEW014 18/16 Q1018=
METAR LPPT 180030Z 33010KT 300V360 9999 SCT013 18/16 Q1018=
METAR LPPT 180100Z 34008KT 9999 FEW013 18/16 Q1018=
METAR LPPT 180130Z 33008KT 290V350 9999 FEW013 18/15 Q1018=
METAR LPPT 180200Z 34010KT 9999 SCT013 18/15 Q1017=
METAR LPPT 180230Z 34006KT 290V020 9999 BKN014 18/15 Q1017=
METAR LPPT 180300Z 34006KT 310V020 9999 SCT014 18/15 Q1017=
METAR LPPT 180330Z 33006KT 290V360 9999 SCT014 18/15 Q1017=
METAR LPPT 180400Z 34007KT 320V030 9999 SCT014 18/15 Q1017=
METAR LPPT 180430Z 35006KT 300V020 9999 FEW014 17/15 Q1017=
METAR LPPT 180500Z 34006KT 9999 FEW014 17/15 Q1017=
METAR LPPT 180530Z 34006KT 9999 BKN013 17/15 Q1017=
METAR LPPT 180600Z 34007KT 9999 SCT013 18/15 Q1017=
METAR LPPT 180630Z 34005KT 310V010 9999 FEW013 18/16 Q1017=
METAR LPPT 180700Z 34009KT 9999 BKN012 19/16 Q1017=
METAR LPPT 180730Z 33009KT 290V350 9999 BKN014 20/17 Q1017=
METAR LPPT 180800Z 33012KT 9999 FEW015 BKN018 20/16 Q1017=
METAR LPPT 180830Z 33013KT 9999 FEW016 BKN018 21/17 Q1017=
METAR LPPT 180900Z 33012KT 300V360 9999 FEW016 BKN020 21/17 Q1017=
METAR LPPT 180930Z 34013KT 9999 FEW020 BKN024 22/16 Q1017=
METAR LPPT 181000Z 33012KT 290V010 9999 FEW022 BKN026 23/16 Q1017=
METAR LPPT 181030Z 33012KT 290V360 9999 FEW024 BKN028 23/16 Q1018=
METAR LPPT 181100Z 34015KT 9999 FEW028 BKN032 24/16 Q1017=
METAR LPPT 181130Z 31010KT 270V340 9999 BKN030 24/16 Q1017=
METAR LPPT 181200Z 32010KT 270V010 9999 FEW028 BKN030 24/16 Q1017=
METAR LPPT 181230Z 30010KT 280V340 9999 BKN028 24/16 Q1017=
METAR LPPT 181300Z 32010KT 290V350 9999 BKN030 24/16 Q1017=
METAR LPPT 181330Z 30009KT 270V340 9999 BKN030 24/16 Q1017=
METAR LPPT 181400Z 31010KT 280V340 9999 BKN030 25/16 Q1017=
METAR LPPT 181430Z 31012G22KT 280V350 9999 BKN032 26/16 Q1017=
METAR LPPT 181500Z 30012KT 270V350 9999 SCT028 25/16 Q1017=
METAR LPPT 181530Z 31015KT 270V350 9999 SCT026 25/17 Q1017=
METAR LPPT 181600Z 32014KT 280V360 9999 SCT026 25/16 Q1017=
METAR LPPT 181630Z 33015KT 290V350 9999 SCT026 24/17 Q1017=
METAR LPPT 181700Z 31013KT 280V350 9999 BKN024 24/17 Q1016=
METAR LPPT 181730Z 32013KT 290V350 9999 SCT022 24/17 Q1016=
METAR LPPT 181800Z 31012KT 280V340 9999 SCT025 23/16 Q1017=
METAR LPPT 181830Z 31013KT 9999 SCT022 23/16 Q1017=
METAR LPPT 181900Z 31009KT 9999 BKN022 22/17 Q1017=
METAR LPPT 181930Z 33011KT 9999 BKN020 21/17 Q1017=
METAR LPPT 182000Z 33008KT 290V350 9999 BKN018 21/17 Q1017=
METAR LPPT 182030Z 33012KT 290V360 9999 FEW016 BKN018 21/17 Q1017=
METAR LPPT 182100Z 34009KT 300V360 9999 FEW014 BKN018 21/17 Q1018=
METAR LPPT 182130Z 34008KT 9999 FEW016 BKN018 20/17 Q1018=
METAR LPPT 182200Z 33010KT 290V350 9999 FEW014 BKN018 20/17 Q1018=
METAR LPPT 182230Z 33009KT 9999 FEW016 BKN020 20/16 Q1018=
METAR LPPT 182300Z 32007KT 280V350 9999 FEW016 20/16 Q1018=
METAR LPPT 182330Z 34009KT 9999 FEW017 19/16 Q1018=
METAR LPPT 190000Z 33009KT 300V360 9999 FEW016 19/16 Q1018=
METAR LPPT 190030Z 33010KT 9999 FEW015 19/16 Q1018=
METAR LPPT 190100Z 33011KT 9999 FEW018 18/15 Q1017=
METAR LPPT 190130Z 33010KT 9999 FEW015 18/15 Q1017=
METAR LPPT 190200Z 33009KT 290V350 9999 FEW015 18/15 Q1017=
METAR LPPT 190230Z 32008KT CAVOK 18/15 Q1017=
METAR LPPT 190300Z 31008KT CAVOK 18/15 Q1017=
METAR LPPT 190330Z 32006KT 270V340 CAVOK 18/15 Q1017=
METAR LPPT 190400Z 33007KT CAVOK 17/15 Q1017=
METAR LPPT 190430Z 34004KT 310V030 CAVOK 17/15 Q1017=
METAR LPPT 190500Z 01005KT 9999 FEW012 17/15 Q1017=
METAR LPPT 190530Z 34005KT 9999 FEW012 17/15 Q1017=
METAR LPPT 190600Z 32004KT 270V350 9999 FEW012 17/15 Q1017=
METAR LPPT 190630Z 33006KT 9999 FEW012 18/15 Q1018=
METAR LPPT 190700Z 32005KT 280V350 9999 FEW012 18/15 Q1018=
METAR LPPT 190730Z 34009KT 9999 FEW012 19/15 Q1018=
METAR LPPT 190800Z 34010KT 300V010 9999 FEW015 20/15 Q1018=
METAR LPPT 190830Z 34010KT 320V020 9999 FEW018 21/14 Q1018=
METAR LPPT 190900Z 35011KT 310V020 9999 FEW025 21/14 Q1018=
METAR LPPT 190930Z 33010KT 290V350 9999 FEW028 22/13 Q1018=
METAR LPPT 191000Z 33012KT 300V360 9999 FEW032 22/13 Q1018=
METAR LPPT 191030Z 35011KT 320V020 9999 FEW034 23/13 Q1018=
METAR LPPT 191100Z 33008KT 280V020 9999 FEW035 24/13 Q1018=
METAR LPPT 191130Z 31009KT 280V340 9999 FEW035 24/13 Q1018=
METAR LPPT 191200Z 32010KT 270V360 9999 FEW035 24/13 Q1017=
METAR LPPT 191230Z 33010KT 290V020 9999 FEW035 24/13 Q1017=
METAR LPPT 191300Z 31009KT 280V350 9999 FEW035 25/14 Q1017=
METAR LPPT 191330Z 31009KT 270V350 9999 FEW035 25/13 Q1017=
METAR LPPT 191400Z 34012KT 9999 FEW035 25/13 Q1017=
METAR LPPT 191430Z 32010KT 280V360 9999 FEW035 25/13 Q1016=
METAR LPPT 191500Z 30011KT 270V340 9999 FEW040 24/14 Q1016=
METAR LPPT 191530Z 32010KT 290V350 9999 FEW040 25/13 Q1016=
METAR LPPT 191600Z 29010KT 250V340 9999 FEW042 25/14 Q1016=
METAR LPPT 191630Z 31012KT 9999 FEW042 23/14 Q1016=
METAR LPPT 191700Z 32010KT 280V350 9999 FEW028 23/15 Q1016=
METAR LPPT 191730Z 30009KT 270V330 9999 FEW028 22/15 Q1016=
METAR LPPT 191800Z 32009KT 280V350 9999 FEW028 22/14 Q1016=
METAR LPPT 191830Z 31009KT 270V350 9999 FEW025 21/15 Q1016=
METAR LPPT 191900Z 30007KT 280V340 9999 FEW024 21/15 Q1016=
METAR LPPT 191930Z 30009KT 270V330 9999 FEW024 21/15 Q1016=
METAR LPPT 192000Z 29007KT 9999 FEW020 20/15 Q1016=
METAR LPPT 192030Z 30007KT 9999 FEW020 20/15 Q1016=
METAR LPPT 192100Z 30007KT 260V330 9999 FEW020 19/16 Q1016=
METAR LPPT 192130Z 30006KT 9999 FEW012 19/16 Q1016=
METAR LPPT 192200Z 28006KT 9999 FEW012 19/16 Q1016=
METAR LPPT 192230Z 28006KT 240V310 9999 FEW015 19/16 Q1016=
METAR LPPT 192300Z 28005KT 230V300 9999 FEW015 19/16 Q1016=
METAR LPPT 192330Z 28005KT 230V300 9999 FEW015 BKN030 19/16 Q1016=
METAR LPPT 200000Z 28005KT 230V300 9999 FEW015 BKN030 20/16 Q1016=
METAR LPPT 200030Z 28005KT 240V310 9999 FEW012 BKN028 20/17 Q1016=
METAR LPPT 200100Z 27006KT 9999 FEW012 BKN028 20/17 Q1016=
METAR LPPT 200130Z 28006KT 240V300 9999 SCT012 BKN028 19/17 Q1015=
METAR LPPT 200200Z 27006KT 240V320 9999 FEW010 SCT018 BKN028 19/17 Q1015=
METAR LPPT 200230Z 27005KT 9999 FEW010 SCT015 19/17 Q1015=
METAR LPPT 200300Z 24005KT 9999 FEW008 BKN040 19/17 Q1014=
METAR LPPT 200330Z 25006KT 220V280 9999 FEW012 BKN017 19/18 Q1014=
METAR LPPT 200400Z 27007KT 230V290 9999 FEW008 BKN013 20/17 Q1014=
METAR LPPT 200430Z 26007KT 230V290 9999 FEW008 BKN014 20/17 Q1014=
METAR LPPT 200500Z 26007KT 9999 FEW008 SCT010 BKN012 20/18 Q1014=
METAR LPPT 200530Z 25007KT 9999 FEW008 BKN010 19/18 Q1014=
METAR LPPT 200600Z 24005KT 9000 -DZ FEW003 BKN006 19/19 Q1014=
METAR LPPT 200630Z 23006KT 4000 -DZ BR FEW003 BKN006 20/19 Q1014=
METAR LPPT 200700Z 25008KT 7000 -DZ FEW003 BKN006 20/20 Q1014=
METAR LPPT 200730Z 26008KT 230V300 7000 -DZ FEW003 SCT006 BKN010 21/20 Q1014=
METAR LPPT 200800Z 26008KT 230V290 8000 FEW002 SCT008 BKN012 21/20 Q1014=
METAR LPPT 200830Z 27007KT 240V300 6000 2500SW -DZ FEW002 SCT006 BKN010 21/20 Q1014=
METAR LPPT 200900Z 30007KT 9999 SCT010 BKN013 21/19 Q1014=
METAR LPPT 200930Z 32009KT 290V360 9999 FEW012 BKN030 22/18 Q1014=
METAR LPPT 201000Z 32007KT 270V360 9999 FEW018 BKN036 24/17 Q1014=
METAR LPPT 201030Z 33009KT 290V350 9999 FEW022 SCT028 24/16 Q1014=
METAR LPPT 201100Z 33010KT 280V360 9999 FEW031 BKN046 25/15 Q1014=
METAR LPPT 201130Z 32011KT 290V350 9999 FEW038 BKN044 25/14 Q1014=
METAR LPPT 201200Z 30008KT 260V350 9999 FEW036 BKN042 25/14 Q1014=
METAR LPPT 201230Z 27009KT 9999 FEW038 BKN042 25/14 Q1014=
METAR LPPT 201300Z 31010KT 270V340 9999 FEW038 BKN042 24/14 Q1014 WS R02=
METAR LPPT 201330Z 29010KT 260V340 9999 FEW038 BKN042 25/14 Q1014 WS R02=
METAR LPPT 201400Z 32009KT 250V020 9999 FEW038 BKN042 25/14 Q1014 WS R02=
METAR LPPT 201430Z 30011KT 260V350 9999 FEW038 BKN040 24/14 Q1014=
METAR LPPT 201500Z 30010KT 260V340 9999 FEW038 24/13 Q1014=
METAR LPPT 201530Z 30009KT 260V330 9999 FEW040 24/12 Q1014=
METAR LPPT 201600Z 32010G21KT 270V010 9999 FEW035 24/12 Q1014=
METAR LPPT 201630Z 33012KT 280V360 9999 FEW035 24/12 Q1014=
METAR LPPT 201700Z 32012KT 280V340 9999 FEW035 23/13 Q1014=
METAR LPPT 201730Z 33013KT 290V350 9999 FEW036 23/12 Q1014=
METAR LPPT 201800Z 33013KT 9999 FEW035 22/13 Q1014=
METAR LPPT 201830Z 31010KT 280V340 9999 FEW035 22/12 Q1014=
METAR LPPT 201900Z 33012KT 290V350 9999 FEW035 22/13 Q1015=
METAR LPPT 201930Z 33009KT 280V350 9999 FEW035 21/12 Q1015=
METAR LPPT 202000Z 34011KT CAVOK 20/12 Q1015=
METAR LPPT 202030Z 33008KT CAVOK 19/13 Q1015=
METAR LPPT 202100Z 33009KT CAVOK 19/13 Q1015=
METAR LPPT 202130Z 33005KT 290V020 CAVOK 18/13 Q1016=
METAR LPPT 202200Z 34005KT 310V010 CAVOK 18/14 Q1016=
METAR LPPT 202230Z 33007KT CAVOK 18/14 Q1016=
METAR LPPT 202300Z 33008KT CAVOK 18/14 Q1016=
METAR LPPT 202330Z 34006KT 9999 FEW012 17/14 Q1016=
METAR LPPT 210000Z 36005KT 9999 FEW020 17/14 Q1016=
METAR LPPT 210030Z 34003KT 9999 FEW020 17/14 Q1016=
METAR LPPT 210100Z 35003KT 320V020 9999 FEW020 17/14 Q1016=
METAR LPPT 210130Z 34004KT 9999 FEW015 17/14 Q1016=
METAR LPPT 210200Z 33004KT 290V350 9999 FEW015 17/14 Q1016=
METAR LPPT 210230Z 33005KT 290V350 9999 FEW012 17/14 Q1016=
METAR LPPT 210300Z 32004KT 280V360 9999 FEW012 17/14 Q1015=
METAR LPPT 210330Z 32004KT 290V350 9999 FEW012 17/14 Q1015=
METAR LPPT 210400Z 33004KT 290V010 9999 FEW015 17/14 Q1015=
METAR LPPT 210430Z 33005KT 9999 FEW016 16/14 Q1016=
METAR LPPT 210500Z 33007KT 9999 FEW016 17/14 Q1016=
METAR LPPT 210530Z 34007KT 9999 FEW016 16/14 Q1016=
METAR LPPT 210600Z 34006KT 9999 FEW016 16/14 Q1016=
METAR LPPT 210630Z 34005KT 9999 FEW018 17/14 Q1016=
METAR LPPT 210700Z 32005KT 280V350 9999 FEW015 17/14 Q1016=
METAR LPPT 210730Z 34006KT 290V020 9999 FEW015 18/15 Q1016=
METAR LPPT 210800Z 02009KT 340V040 9999 FEW018 19/14 Q1017=
METAR LPPT 210830Z 35014KT 320V020 9999 FEW025 20/12 Q1017=
METAR LPPT 210900Z 36015KT 9999 FEW030 20/12 Q1017=
METAR LPPT 210930Z 36013KT 9999 SCT030 21/12 Q1017=
METAR LPPT 211000Z 36014KT 9999 FEW033 22/12 Q1016=
METAR LPPT 211030Z 36015KT 330V030 9999 FEW035 23/12 Q1016=
METAR LPPT 211100Z 33013KT 300V020 9999 FEW040 23/11 Q1016=
METAR LPPT 211130Z 34012KT 310V020 9999 FEW040 24/11 Q1016=
METAR LPPT 211200Z 34012KT 310V010 9999 FEW040 24/12 Q1016=
METAR LPPT 211230Z 34011KT 300V020 9999 FEW040 24/12 Q1016=
METAR LPPT 211300Z 36013KT 320V020 9999 FEW040 25/12 Q1016=
METAR LPPT 211330Z 34013KT 9999 FEW045 25/11 Q1016=
METAR LPPT 211400Z 36012KT 320V040 9999 FEW045 25/11 Q1016=
METAR LPPT 211430Z 34012KT 300V010 CAVOK 25/10 Q1016=
METAR LPPT 211500Z 34012G22KT 300V010 CAVOK 26/10 Q1016=
METAR LPPT 211530Z 35014KT 310V020 9999 FEW045 25/11 Q1016=
METAR LPPT 211600Z 32012KT 290V350 9999 FEW045 24/12 Q1016=
METAR LPPT 211630Z 33016KT 9999 FEW045 24/11 Q1016=
METAR LPPT 211700Z 33014KT 290V350 9999 FEW045 23/11 Q1016=
METAR LPPT 211730Z 33016G26KT 290V360 9999 FEW045 23/11 Q1016=
METAR LPPT 211800Z 33015KT 290V350 9999 FEW045 23/12 Q1016=
METAR LPPT 211830Z 32014KT 280V340 9999 FEW040 22/12 Q1016=
METAR LPPT 211900Z 32013KT 9999 FEW038 21/12 Q1016=
METAR LPPT 211930Z 33015KT 9999 FEW038 20/12 Q1016=
METAR LPPT 212000Z 33010KT 290V360 9999 FEW035 20/12 Q1017=
METAR LPPT 212030Z 33013KT 9999 FEW020 19/13 Q1017 WS R02=
METAR LPPT 212100Z 33017KT 9999 FEW020 19/13 Q1017=
METAR LPPT 212130Z 33015KT CAVOK 18/14 Q1017 WS R02=
METAR LPPT 212200Z 34013KT CAVOK 18/13 Q1017 WS R02=
METAR LPPT 212230Z 35010KT 320V020 CAVOK 18/13 Q1017 WS R02=
METAR LPPT 212300Z 34011KT 310V010 CAVOK 18/13 Q1017 WS R02=
METAR LPPT 212330Z 34013KT 9999 FEW020 18/13 Q1017 WS R02=
METAR LPPT 220000Z 34013KT 9999 FEW020 18/14 Q1017=
METAR LPPT 220030Z 34012KT 9999 FEW020 18/14 Q1017=
METAR LPPT 220100Z 34011KT CAVOK 18/14 Q1017=
METAR LPPT 220130Z 34013KT 9999 FEW020 18/14 Q1017=
METAR LPPT 220200Z 34014KT 9999 FEW020 18/14 Q1017=
METAR LPPT 220230Z 35009KT 9999 FEW020 18/14 Q1017=
METAR LPPT 220300Z 34014KT 9999 FEW020 18/14 Q1017=
METAR LPPT 220330Z 34014KT 9999 FEW015 18/15 Q1016=
METAR LPPT 220400Z 34012KT 9999 FEW015 18/15 Q1017=
METAR LPPT 220430Z 34011KT 9999 FEW015 18/15 Q1017=
METAR LPPT 220500Z 34009KT 300V010 9999 FEW014 18/15 Q1017=
METAR LPPT 220530Z 34012KT 9999 FEW012 18/15 Q1017=
METAR LPPT 220600Z 34009KT 310V010 9999 SCT011 18/16 Q1017=
METAR LPPT 220630Z 34010KT 310V010 9999 SCT011 18/16 Q1017=
METAR LPPT 220700Z 35006KT 280V040 9999 SCT012 19/16 Q1017=
METAR LPPT 220730Z 34008KT 300V010 9999 SCT012 20/16 Q1018=
METAR LPPT 220800Z 33007KT 290V010 9999 FEW013 20/16 Q1018=
METAR LPPT 220830Z 33010KT 290V350 9999 FEW015 21/17 Q1018=
METAR LPPT 220900Z 32008KT 290V360 9999 FEW018 22/16 Q1018=
METAR LPPT 220930Z 32008KT 290V020 9999 FEW020 23/17 Q1018=
METAR LPPT 221000Z 35011KT 320V020 9999 FEW022 24/17 Q1018=
METAR LPPT 221030Z 34011KT 300V020 9999 FEW025 25/17 Q1018=
METAR LPPT 221100Z 33011KT 280V360 9999 FEW028 25/17 Q1018=
METAR LPPT 221130Z 33011KT 290V010 9999 FEW028 26/17 Q1018=
METAR LPPT 221200Z 33012KT 290V010 9999 FEW030 26/17 Q1018=
METAR LPPT 221230Z 34012KT 300V360 9999 FEW030 27/17 Q1018=
METAR LPPT 221300Z 30011KT 280V350 9999 FEW028 26/17 Q1018=
METAR LPPT 221330Z 33012KT 280V010 9999 FEW028 27/17 Q1018=
METAR LPPT 221400Z 31012KT 280V340 9999 FEW028 27/17 Q1018=
METAR LPPT 221430Z 32012KT 290V350 9999 FEW025 26/17 Q1018=
METAR LPPT 221500Z 32013KT 280V350 9999 FEW025 26/17 Q1017=
METAR LPPT 221530Z 31011KT 270V360 9999 FEW025 26/17 Q1017 WS R02=
METAR LPPT 221600Z 32017KT 9999 FEW025 25/18 Q1017=
METAR LPPT 221630Z 32016KT 9999 FEW022 25/18 Q1017=
METAR LPPT 221700Z 32018KT 9999 FEW022 24/18 Q1017=
METAR LPPT 221730Z 32018KT 9999 FEW022 23/17 Q1017=
METAR LPPT 221800Z 33016KT 9999 FEW018 23/17 Q1018=
METAR LPPT 221830Z 33017KT 9999 FEW018 22/17 Q1018=
METAR LPPT 221900Z 33016KT 9999 SCT016 21/17 Q1018=
METAR LPPT 221930Z 34015KT 9999 SCT015 20/17 Q1018=
METAR LPPT 222000Z 34014KT 9999 SCT014 20/17 Q1018=
METAR LPPT 222030Z 34016KT 9999 SCT014 20/16 Q1019=
METAR LPPT 222100Z 33014KT 300V360 9999 SCT016 19/16 Q1019=
METAR LPPT 222130Z 34011KT 9999 SCT016 19/16 Q1019=
METAR LPPT 222200Z 34014KT 9999 FEW016 19/15 Q1019=
METAR LPPT 222230Z 34012KT 9999 FEW016 19/15 Q1019=
METAR LPPT 222300Z 34011KT 9999 FEW018 18/15 Q1019=
METAR LPPT 222330Z 33010KT 300V010 9999 FEW018 18/15 Q1019=
METAR LPPT 230000Z 33012KT 300V360 9999 FEW016 18/15 Q1019=
METAR LPPT 230030Z 34009KT 300V010 9999 FEW016 18/15 Q1019=
METAR LPPT 230100Z 34006KT 250V030 9999 FEW015 18/15 Q1019=
METAR LPPT 230130Z 33009KT 300V010 9999 FEW014 18/15 Q1019=
METAR LPPT 230200Z 34009KT 290V020 9999 SCT014 18/15 Q1019=
METAR LPPT 230230Z 34010KT 9999 BKN015 18/15 Q1018=
METAR LPPT 230300Z 33014KT 9999 BKN015 18/15 Q1018=
METAR LPPT 230330Z 33014KT 290V360 9999 BKN014 18/15 Q1018=
METAR LPPT 230400Z 35011KT 9999 FEW014 18/15 Q1018=
METAR LPPT 230430Z 34012KT 9999 FEW017 18/15 Q1018=
METAR LPPT 230500Z 34015KT 9999 FEW017 18/14 Q1018=
METAR LPPT 230530Z 34012KT 9999 FEW018 18/14 Q1018=
METAR LPPT 230600Z 34011KT 9999 SCT018 18/14 Q1018=
METAR LPPT 230630Z 35011KT 9999 FEW018 18/14 Q1018=
METAR LPPT 230700Z 34010KT 310V010 9999 FEW018 18/14 Q1019=
METAR LPPT 230730Z 34014KT 9999 FEW018 18/14 Q1018=
METAR LPPT 230800Z 33017KT 9999 FEW016 18/14 Q1018=
METAR LPPT 230830Z 34016KT 9999 FEW020 19/14 Q1019=
METAR LPPT 230900Z 34017KT 9999 FEW020 20/14 Q1019=
METAR LPPT 230930Z 35019KT 9999 FEW022 20/14 Q1019=
METAR LPPT 231000Z 34014KT 310V010 9999 FEW024 20/14 Q1019=
METAR LPPT 231030Z 34015KT 9999 FEW026 21/14 Q1019=
METAR LPPT 231100Z 35015KT 320V020 9999 FEW026 21/13 Q1019=
METAR LPPT 231130Z 35016KT 9999 FEW028 21/13 Q1018=
METAR LPPT 231200Z 34014KT 9999 FEW030 22/13 Q1018=
METAR LPPT 231230Z 35015KT 9999 FEW030 22/13 Q1018=
METAR LPPT 231300Z 35013KT 310V010 9999 FEW030 23/13 Q1017=
METAR LPPT 231330Z 32012KT 290V360 9999 FEW030 23/13 Q1017=
METAR LPPT 231400Z 33015KT 290V360 9999 FEW030 23/12 Q1017=
METAR LPPT 231430Z 33018KT 290V350 9999 FEW030 23/13 Q1017=
METAR LPPT 231500Z 33019G29KT 9999 FEW030 24/12 Q1016=
METAR LPPT 231530Z 34018KT 300V360 9999 FEW032 24/11 Q1016=
METAR LPPT 231600Z 33016KT 300V360 9999 FEW032 24/12 Q1016=
METAR LPPT 231630Z 33020KT 9999 FEW032 23/13 Q1016=
METAR LPPT 231700Z 34022KT 9999 FEW032 23/13 Q1016=
METAR LPPT 231730Z 34024KT 9999 FEW030 22/13 Q1015=
METAR LPPT 231800Z 34025KT 9999 FEW028 22/14 Q1015=
METAR LPPT 231830Z 33025G39KT 300V360 9999 FEW025 21/14 Q1015 WS R02=
METAR LPPT 231900Z 33021KT 290V350 9999 FEW022 20/15 Q1015 WS R02=
METAR LPPT 231930Z 33023KT 9999 FEW020 20/15 Q1015 WS R02=
METAR LPPT 232000Z 33019G37KT 9999 FEW018 19/15 Q1015 WS R02=
METAR LPPT 232030Z 33021G35KT 9999 FEW016 19/15 Q1015 WS R02=
METAR LPPT 232100Z 34020G32KT 300V020 9999 FEW016 19/15 Q1016 WS R02=
METAR LPPT 232130Z 34018G29KT 9999 FEW015 19/15 Q1016 WS R02=
METAR LPPT 232200Z 35016G31KT 9999 FEW015 19/15 Q1016 WS R02=
METAR LPPT 232230Z 34019G29KT 9999 FEW015 19/15 Q1016 WS R02=
METAR LPPT 232300Z 34021G39KT 9999 FEW015 19/15 Q1015 WS R02=
METAR LPPT 232330Z 35021G32KT 9999 FEW015 18/14 Q1015 WS R02=
METAR LPPT 240000Z 34021G31KT 9999 FEW015 18/14 Q1015 WS R02=
METAR LPPT 240030Z 34023G34KT 9999 FEW015 18/14 Q1015 WS R02=
METAR LPPT 240100Z 33021G34KT 9999 FEW015 18/14 Q1014 WS R02=
METAR LPPT 240130Z 33022G33KT 9999 FEW015 18/14 Q1014 WS R02=
METAR LPPT 240200Z 33021KT 9999 FEW015 18/14 Q1014 WS R02=
METAR LPPT 240230Z 32015KT CAVOK 18/14 Q1013 WS R02=
METAR LPPT 240300Z 31014KT CAVOK 18/15 Q1013 WS R02=
METAR LPPT 240330Z 32014G26KT 9999 FEW015 18/14 Q1013 WS R02=
METAR LPPT 240400Z 33019KT 9999 FEW015 18/14 Q1012 WS R02=
METAR LPPT 240430Z 32017G27KT CAVOK 18/14 Q1012 WS R02=
METAR LPPT 240500Z 33018KT CAVOK 17/14 Q1012 WS R02=
METAR LPPT 240530Z 33018G28KT CAVOK 17/14 Q1013 WS R02=
METAR LPPT 240600Z 32013KT 280V350 CAVOK 17/14 Q1013 WS R02=
METAR LPPT 240630Z 32009G20KT 280V360 9999 FEW012 17/14 Q1013 WS R02=
METAR LPPT 240700Z 32012KT 290V350 9999 FEW012 18/14 Q1013 WS R02=
METAR LPPT 240730Z 32012KT 9999 FEW012 18/14 Q1013=
METAR LPPT 240800Z 33015KT 9999 FEW012 20/14 Q1013=
METAR LPPT 240830Z 33017KT 9999 FEW015 20/14 Q1013=
METAR LPPT 240900Z 33017KT 9999 FEW015 21/14 Q1013=
METAR LPPT 240930Z 34016KT CAVOK 23/14 Q1013=
METAR LPPT 241000Z 33012KT 300V360 CAVOK 24/14 Q1013=
METAR LPPT 241030Z 35014KT CAVOK 26/13 Q1013=
METAR LPPT 241100Z 35013KT CAVOK 27/13 Q1013=
METAR LPPT 241130Z 35012KT 310V020 CAVOK 28/12 Q1012=
METAR LPPT 241200Z 34011KT CAVOK 29/13 Q1012=
METAR LPPT 241230Z 34011KT 310V010 CAVOK 31/13 Q1012=
METAR LPPT 241300Z 35011KT 320V020 CAVOK 31/12 Q1012=
METAR LPPT 241330Z 34014KT CAVOK 31/13 Q1012=
METAR LPPT 241400Z 33012KT 280V010 CAVOK 31/13 Q1011=
METAR LPPT 241430Z 33015KT CAVOK 30/13 Q1011=
METAR LPPT 241500Z 34014KT 310V010 CAVOK 31/12 Q1011=
METAR LPPT 241530Z 33014KT CAVOK 31/12 Q1011=
METAR LPPT 241600Z 32013KT CAVOK 30/12 Q1011=
METAR LPPT 241630Z 34017KT CAVOK 30/11 Q1010=
METAR LPPT 241700Z 34017KT CAVOK 29/12 Q1010=
METAR LPPT 241730Z 32019KT CAVOK 27/11 Q1010=
METAR LPPT 241800Z 32017KT CAVOK 26/12 Q1011=
METAR LPPT 241830Z 33015G25KT 300V360 CAVOK 26/11 Q1011=
METAR LPPT 241900Z 33017KT CAVOK 25/12 Q1011=
METAR LPPT 241930Z 33016KT 300V360 CAVOK 24/11 Q1011=
METAR LPPT 242000Z 32012KT CAVOK 24/12 Q1011=
METAR LPPT 242030Z 32012KT CAVOK 24/12 Q1011=
METAR LPPT 242100Z 34018KT CAVOK 23/12 Q1012=
METAR LPPT 242130Z 33018KT CAVOK 23/12 Q1012=
METAR LPPT 242200Z 34019KT CAVOK 24/12 Q1012=
METAR LPPT 242230Z 34018KT CAVOK 24/11 Q1012=
METAR LPPT 242300Z 35017KT CAVOK 24/11 Q1012=
METAR LPPT 242330Z 35012KT CAVOK 24/11 Q1012=
METAR LPPT 250000Z 34010KT CAVOK 24/11 Q1012=
METAR LPPT 250030Z 35010KT CAVOK 24/10 Q1013=
METAR LPPT 250100Z 36008KT CAVOK 24/10 Q1012=
METAR LPPT 250130Z 36007KT CAVOK 24/09 Q1012=
METAR LPPT 250200Z 36006KT CAVOK 24/08 Q1012=
METAR LPPT 250230Z 02011KT CAVOK 25/06 Q1012=
METAR LPPT 250300Z 02011KT CAVOK 25/06 Q1012=
METAR LPPT 250330Z 03014KT CAVOK 25/06 Q1012=
METAR LPPT 250400Z 03012KT CAVOK 25/06 Q1012=
METAR LPPT 250430Z 03015KT CAVOK 25/07 Q1012=
METAR LPPT 250500Z 03013KT CAVOK 24/07 Q1012=
METAR LPPT 250530Z 03015KT CAVOK 24/07 Q1012=
METAR LPPT 250600Z 03017KT CAVOK 24/07 Q1013=
METAR LPPT 250630Z 04018KT CAVOK 24/07 Q1013=
METAR LPPT 250700Z 04018KT CAVOK 24/07 Q1013=
METAR LPPT 250730Z 04017KT CAVOK 24/08 Q1014=
METAR LPPT 250800Z 04015KT CAVOK 25/08 Q1014=
METAR LPPT 250830Z 05014G24KT 360V080 CAVOK 25/08 Q1014=
METAR LPPT 250900Z 05017KT CAVOK 26/09 Q1014=
METAR LPPT 250930Z 04014G24KT 010V070 CAVOK 27/10 Q1014=
METAR LPPT 251000Z 04013KT CAVOK 28/10 Q1014=
METAR LPPT 251030Z 05012KT 020V080 CAVOK 29/10 Q1014=
METAR LPPT 251100Z 05013KT CAVOK 29/10 Q1015=
METAR LPPT 251130Z 05012KT 030V100 CAVOK 31/10 Q1014=
METAR LPPT 251200Z 04011KT 010V080 CAVOK 31/10 Q1014=
METAR LPPT 251230Z 04012KT 010V070 CAVOK 32/10 Q1014=
METAR LPPT 251300Z 04012KT CAVOK 32/09 Q1014=
METAR LPPT 251330Z 05014KT 010V070 CAVOK 33/07 Q1014=
METAR LPPT 251400Z 05013KT 350V080 CAVOK 34/06 Q1014=
METAR LPPT 251430Z 04013KT CAVOK 34/06 Q1014=
METAR LPPT 251500Z 02011KT CAVOK 34/06 Q1014=
METAR LPPT 251530Z 04009KT 350V070 CAVOK 34/07 Q1013=
METAR LPPT 251600Z 05012KT CAVOK 34/07 Q1013=
METAR LPPT 251630Z 01012KT 330V040 CAVOK 34/09 Q1013=
METAR LPPT 251700Z 34014KT CAVOK 33/09 Q1013=
METAR LPPT 251730Z 34013KT CAVOK 32/10 Q1013=
METAR LPPT 251800Z 34012KT CAVOK 31/10 Q1013=
METAR LPPT 251830Z 33012KT CAVOK 30/11 Q1014=
METAR LPPT 251900Z 33011KT CAVOK 29/10 Q1014=
METAR LPPT 251930Z 33011KT CAVOK 27/10 Q1014=
METAR LPPT 252000Z 32009KT 290V350 CAVOK 26/09 Q1014=
METAR LPPT 252030Z 33012KT CAVOK 25/09 Q1015=
METAR LPPT 252100Z 33009KT CAVOK 25/09 Q1015=
METAR LPPT 252130Z 34010KT CAVOK 25/09 Q1015=
METAR LPPT 252200Z 34011KT CAVOK 26/09 Q1015=
METAR LPPT 252230Z 34009KT CAVOK 25/09 Q1015=
METAR LPPT 252300Z 32009KT CAVOK 25/09 Q1015=
METAR LPPT 252330Z 34006KT CAVOK 24/09 Q1015=
METAR LPPT 260000Z 34005KT 310V010 CAVOK 24/09 Q1015=
METAR LPPT 260030Z 34005KT CAVOK 23/09 Q1015=
METAR LPPT 260100Z 32004KT 300V360 CAVOK 24/09 Q1015=
METAR LPPT 260130Z 32003KT 290V360 CAVOK 23/09 Q1015=
METAR LPPT 260200Z 32005KT CAVOK 24/10 Q1015=
METAR LPPT 260230Z 32003KT 290V360 CAVOK 23/10 Q1015=
METAR LPPT 260300Z 32005KT CAVOK 24/10 Q1015=
METAR LPPT 260330Z 32004KT CAVOK 24/10 Q1015=
METAR LPPT 260400Z 35006KT 310V080 CAVOK 23/10 Q1015=
METAR LPPT 260430Z 04003KT CAVOK 21/11 Q1015=
METAR LPPT 260500Z 06003KT CAVOK 20/11 Q1015=
METAR LPPT 260530Z VRB01KT CAVOK 19/11 Q1015=
METAR LPPT 260600Z 00000KT CAVOK 19/13 Q1016=
METAR LPPT 260630Z 00000KT CAVOK 20/14 Q1016=
METAR LPPT 260700Z 04002KT CAVOK 23/14 Q1016=
METAR LPPT 260730Z 05004KT 360V090 CAVOK 24/13 Q1016=
METAR LPPT 260800Z 05004KT 010V070 CAVOK 25/13 Q1017=
METAR LPPT 260830Z 05006KT 010V080 CAVOK 26/12 Q1017=
METAR LPPT 260900Z 06006KT 010V090 CAVOK 27/11 Q1017=
METAR LPPT 260930Z 05007KT 350V090 CAVOK 27/10 Q1017=
METAR LPPT 261000Z 06006KT 350V100 CAVOK 28/10 Q1017=
METAR LPPT 261030Z VRB05G20KT CAVOK 29/11 Q1017=
METAR LPPT 261100Z 09005KT 040V130 CAVOK 30/09 Q1018=
METAR LPPT 261130Z 10004G18KT 010V170 CAVOK 31/09 Q1018=
METAR LPPT 261200Z VRB04KT CAVOK 32/08 Q1018=
METAR LPPT 261230Z 15004G15KT 050V210 CAVOK 33/09 Q1018=
METAR LPPT 261300Z VRB05KT CAVOK 34/09 Q1017=
METAR LPPT 261330Z 17006KT 120V210 CAVOK 34/09 Q1017=
METAR LPPT 261400Z 24007KT 160V280 CAVOK 35/10 Q1017=
METAR LPPT 261430Z 22011KT CAVOK 35/08 Q1017=
METAR LPPT 261500Z 23011KT 210V270 CAVOK 35/07 Q1017=
METAR LPPT 261530Z 28007KT 220V330 CAVOK 35/08 Q1017=
METAR LPPT 261600Z 30009KT 250V330 CAVOK 34/10 Q1017=
METAR LPPT 261630Z 31011KT 290V350 CAVOK 34/07 Q1017=
METAR LPPT 261700Z 32010KT 290V350 CAVOK 33/07 Q1017=
METAR LPPT 261730Z 33012KT CAVOK 33/07 Q1017=
METAR LPPT 261800Z 33012KT CAVOK 32/08 Q1016=
METAR LPPT 261830Z 32011KT CAVOK 31/09 Q1017=
METAR LPPT 261900Z 32011KT CAVOK 30/10 Q1017=
METAR LPPT 261930Z 32012KT CAVOK 29/09 Q1017=
METAR LPPT 262000Z 32011KT CAVOK 28/10 Q1017=
METAR LPPT 262030Z 32010KT CAVOK 27/10 Q1017=
METAR LPPT 262100Z 31012KT CAVOK 26/09 Q1018=
METAR LPPT 262130Z 32009KT CAVOK 26/09 Q1018=
METAR LPPT 262200Z 32009KT 290V350 CAVOK 25/09 Q1018=
METAR LPPT 262230Z 33009KT CAVOK 25/09 Q1018=
METAR LPPT 262300Z 33010KT CAVOK 24/08 Q1018=
METAR LPPT 262330Z 33011KT CAVOK 24/09 Q1018=
METAR LPPT 270000Z 32010KT CAVOK 24/09 Q1018=
METAR LPPT 270030Z 32007KT CAVOK 24/10 Q1018=
METAR LPPT 270100Z 35004KT 310V080 CAVOK 23/10 Q1018=
METAR LPPT 270130Z 33003KT 310V010 CAVOK 23/10 Q1018=
METAR LPPT 270200Z 33006KT CAVOK 24/09 Q1018=
METAR LPPT 270230Z 33007KT 300V360 CAVOK 23/11 Q1018=
METAR LPPT 270300Z 31008KT CAVOK 21/13 Q1018=
METAR LPPT 270330Z 32010KT CAVOK 20/14 Q1018=
METAR LPPT 270400Z 31012KT CAVOK 20/14 Q1018=
METAR LPPT 270430Z 31013KT CAVOK 21/14 Q1017=
METAR LPPT 270500Z 31011KT CAVOK 21/13 Q1018=
METAR LPPT 270530Z 31010KT 9999 FEW012 21/13 Q1018=
METAR LPPT 270600Z 31011KT 9999 FEW012 21/14 Q1018=
METAR LPPT 270630Z 32009KT 9999 FEW010 20/15 Q1018=
METAR LPPT 270700Z 33007KT 9999 FEW010 21/15 Q1018=
METAR LPPT 270730Z 32008KT 290V350 9999 FEW010 21/16 Q1019=
METAR LPPT 270800Z 33008KT 290V350 CAVOK 23/16 Q1019=
METAR LPPT 270830Z 34010KT CAVOK 25/15 Q1019=
METAR LPPT 270900Z 33008KT 300V360 CAVOK 26/15 Q1019=
METAR LPPT 270930Z 34009KT 310V020 CAVOK 28/14 Q1019=
METAR LPPT 271000Z 34009KT CAVOK 28/14 Q1019=
METAR LPPT 271030Z 34009KT 310V010 CAVOK 29/14 Q1019=
METAR LPPT 271100Z 32008KT 290V350 CAVOK 31/13 Q1019=
METAR LPPT 271130Z 35009KT 300V020 CAVOK 32/12 Q1019=
METAR LPPT 271200Z 35009KT 320V020 CAVOK 34/12 Q1019=
METAR LPPT 271230Z 32008KT 260V020 CAVOK 34/13 Q1019=
METAR LPPT 271300Z 32010KT 290V350 CAVOK 33/13 Q1019=
METAR LPPT 271330Z 31010KT CAVOK 33/12 Q1018=
METAR LPPT 271400Z 34015KT CAVOK 32/12 Q1018=
METAR LPPT 271430Z 32013KT CAVOK 32/12 Q1018=
METAR LPPT 271500Z 32013KT 280V350 CAVOK 31/13 Q1018=
METAR LPPT 271530Z 32016KT CAVOK 31/11 Q1018=
METAR LPPT 271600Z 32016KT CAVOK 30/12 Q1018=
METAR LPPT 271630Z 32015KT CAVOK 29/12 Q1018=
METAR LPPT 271700Z 32016KT CAVOK 28/12 Q1018=
METAR LPPT 271730Z 31015KT CAVOK 27/13 Q1018=
METAR LPPT 271800Z 32015G25KT CAVOK 26/14 Q1018=
METAR LPPT 271830Z 33016KT CAVOK 25/14 Q1018=
METAR LPPT 271900Z 32018KT CAVOK 24/15 Q1018=
METAR LPPT 271930Z 33018KT CAVOK 23/15 Q1018 WS R02=
METAR LPPT 272000Z 33018KT CAVOK 22/15 Q1019 WS R02=
METAR LPPT 272030Z 33017KT CAVOK 21/15 Q1019 WS R02=
METAR LPPT 272100Z 34014KT CAVOK 20/14 Q1019 WS R02=
METAR LPPT 272130Z 35011KT 320V020 CAVOK 20/14 Q1019=
METAR LPPT 272200Z 35015KT CAVOK 20/14 Q1019=
METAR LPPT 272230Z 34012KT CAVOK 20/14 Q1019=
METAR LPPT 272300Z 34012KT CAVOK 20/14 Q1019 WS R02=
METAR LPPT 272330Z 35013KT CAVOK 20/15 Q1019 WS R02=
METAR LPPT 280000Z 34014KT 9999 FEW018 20/16 Q1019 WS R02=
METAR LPPT 280030Z 34015KT 9999 FEW015 19/16 Q1019 WS R02=
METAR LPPT 280100Z 34019KT 9999 FEW013 19/16 Q1019 WS R02=
METAR LPPT 280130Z 34012KT 310V010 9999 FEW012 19/16 Q1018=
METAR LPPT 280200Z 35012KT 9999 FEW011 19/16 Q1018=
METAR LPPT 280230Z 34014KT 9999 FEW011 19/16 Q1018=
METAR LPPT 280300Z 34013KT 9999 FEW011 19/16 Q1017=
METAR LPPT 280330Z 34014KT 9999 FEW010 18/16 Q1017=
METAR LPPT 280400Z 34016G27KT 9999 FEW010 18/16 Q1017 WS R02=
METAR LPPT 280430Z 34018KT 9999 FEW010 18/16 Q1017 WS R02=
METAR LPPT 280500Z 34019KT 9999 FEW010 18/16 Q1017 WS R02=
METAR LPPT 280530Z 33019KT 9999 FEW010 18/16 Q1017 WS R02=
METAR LPPT 280600Z 32014KT 9999 FEW009 18/16 Q1017 WS R02=
METAR LPPT 280630Z 33015KT 9999 FEW009 18/16 Q1017 WS R02=
METAR LPPT 280700Z 32017KT 9999 FEW010 19/16 Q1017 WS R02=
METAR LPPT 280730Z 32017KT 9999 FEW012 19/16 Q1017 WS R02=
METAR LPPT 280800Z 32018KT 9999 FEW014 20/16 Q1018 WS R02=
METAR LPPT 280830Z 32018KT 9999 FEW016 21/16 Q1018 WS R02=
METAR LPPT 280900Z 32014KT 290V350 9999 FEW018 22/15 Q1017 WS R02=
METAR LPPT 280930Z 33013KT 290V350 9999 FEW020 23/15 Q1018 WS R02=
METAR LPPT 281000Z 33010KT 280V360 9999 FEW022 23/15 Q1018 WS R02=
METAR LPPT 281030Z 33011KT 290V360 9999 FEW025 25/14 Q1017 WS R02=
METAR LPPT 281100Z 32011KT 290V360 9999 FEW028 25/14 Q1017 WS R02=
METAR LPPT 281130Z 33015KT 9999 FEW028 26/15 Q1017=
METAR LPPT 281200Z 32012KT 290V350 9999 FEW028 27/15 Q1017=
METAR LPPT 281230Z 33013KT 9999 FEW030 28/14 Q1016=
METAR LPPT 281300Z 32013KT 280V340 CAVOK 28/14 Q1016=
METAR LPPT 281330Z 31011KT 280V350 CAVOK 28/15 Q1015=
METAR LPPT 281400Z 33014KT 290V350 9999 FEW032 29/15 Q1015=
METAR LPPT 281430Z 32016KT 290V350 9999 FEW033 28/15 Q1015=
METAR LPPT 281500Z 32016KT 9999 FEW038 28/14 Q1015=
METAR LPPT 281530Z 33017KT 9999 FEW045 29/14 Q1015=
METAR LPPT 281600Z 33019KT CAVOK 27/15 Q1015=
METAR LPPT 281630Z 32016G28KT CAVOK 27/15 Q1014=
METAR LPPT 281700Z 31014G24KT CAVOK 27/14 Q1014=
METAR LPPT 281730Z 31014KT CAVOK 27/14 Q1014=
METAR LPPT 281800Z 32015KT CAVOK 26/15 Q1014=
METAR LPPT 281830Z 31013KT 290V350 CAVOK 25/15 Q1014=
METAR LPPT 281900Z 32015KT CAVOK 24/15 Q1014=
METAR LPPT 281930Z 32013KT CAVOK 24/15 Q1014=
METAR LPPT 282000Z 31012KT CAVOK 24/15 Q1014=
METAR LPPT 282030Z 33013KT CAVOK 23/15 Q1014=
METAR LPPT 282100Z 32014KT CAVOK 24/15 Q1014=
METAR LPPT 282130Z 33012KT CAVOK 24/15 Q1014=
METAR LPPT 282200Z 33012KT CAVOK 24/15 Q1014=
METAR LPPT 282230Z 32012KT CAVOK 25/15 Q1014=
METAR LPPT 282300Z 33014KT CAVOK 26/15 Q1014=
METAR LPPT 282330Z 34014KT CAVOK 26/15 Q1014=
METAR LPPT 290000Z 34009KT CAVOK 26/15 Q1014=
METAR LPPT 290030Z 33008KT CAVOK 25/15 Q1014=
METAR LPPT 290100Z 33005KT CAVOK 24/15 Q1014=
METAR LPPT 290130Z 33005KT CAVOK 25/14 Q1014=
METAR LPPT 290200Z 33007KT CAVOK 25/14 Q1014=
METAR LPPT 290230Z 34006KT CAVOK 25/13 Q1014=
METAR LPPT 290300Z 35006KT CAVOK 25/12 Q1014=
METAR LPPT 290330Z 35006KT CAVOK 25/12 Q1014=
METAR LPPT 290400Z 01007KT CAVOK 25/11 Q1014=
METAR LPPT 290430Z 01006KT CAVOK 25/10 Q1014=
METAR LPPT 290500Z 02009KT CAVOK 26/10 Q1014=
METAR LPPT 290530Z 36007KT CAVOK 25/10 Q1014=
METAR LPPT 290600Z 02009KT CAVOK 26/10 Q1014=
METAR LPPT 290630Z 03011KT CAVOK 26/09 Q1014=
METAR LPPT 290700Z 03013KT CAVOK 27/09 Q1015=
METAR LPPT 290730Z 04013KT CAVOK 27/08 Q1015=
METAR LPPT 290800Z 05014KT 010V070 CAVOK 27/08 Q1015=
METAR LPPT 290830Z 04014KT CAVOK 27/08 Q1015=
METAR LPPT 290900Z 04015KT CAVOK 28/08 Q1015=
METAR LPPT 290930Z 05015KT CAVOK 28/09 Q1015=
METAR LPPT 291000Z 05015KT 360V070 CAVOK 29/09 Q1015=
METAR LPPT 291030Z 04013KT 020V080 CAVOK 31/10 Q1015=
METAR LPPT 291100Z 05013KT CAVOK 31/10 Q1015=
METAR LPPT 291130Z 06012KT 010V100 CAVOK 32/11 Q1015=
METAR LPPT 291200Z 06011KT 010V090 CAVOK 33/11 Q1015=
METAR LPPT 291230Z 05011KT 020V090 CAVOK 33/11 Q1015=
METAR LPPT 291300Z 06008KT 020V100 CAVOK 34/11 Q1015=
METAR LPPT 291330Z 02007KT 340V110 CAVOK 35/11 Q1014=
METAR LPPT 291400Z 01008KT 350V050 CAVOK 36/11 Q1014=
METAR LPPT 291430Z 03007KT 310V110 CAVOK 36/10 Q1014=
METAR LPPT 291500Z 05007KT 360V090 CAVOK 37/10 Q1014=
METAR LPPT 291530Z VRB05KT CAVOK 37/10 Q1013=
METAR LPPT 291600Z 20008KT 150V220 CAVOK 36/11 Q1013=
METAR LPPT 291630Z 20009KT 170V230 CAVOK 36/11 Q1013=
METAR LPPT 291700Z 24008KT 210V270 CAVOK 36/12 Q1013=
METAR LPPT 291730Z 29008KT 240V320 CAVOK 35/11 Q1013=
METAR LPPT 291800Z 32010KT CAVOK 34/10 Q1013=
METAR LPPT 291830Z 32011KT 290V350 CAVOK 32/10 Q1013=
METAR LPPT 291900Z 33013KT CAVOK 31/11 Q1014=
METAR LPPT 291930Z 34012KT CAVOK 30/10 Q1014=
METAR LPPT 292000Z 33010KT CAVOK 29/09 Q1014=
METAR LPPT 292030Z 33008KT 290V350 CAVOK 29/09 Q1014=
METAR LPPT 292100Z 32004KT 280V020 CAVOK 29/10 Q1014=
METAR LPPT 292130Z 34005KT 290V030 CAVOK 28/10 Q1015=
METAR LPPT 292200Z 34005KT CAVOK 28/10 Q1015=
METAR LPPT 292230Z 33005KT 290V350 CAVOK 28/10 Q1015=
METAR LPPT 292300Z 33005KT CAVOK 28/11 Q1015=
METAR LPPT 292330Z 33006KT CAVOK 28/11 Q1014=
METAR LPPT 300000Z 34006KT CAVOK 27/12 Q1014=
METAR LPPT 300030Z 36005KT CAVOK 26/12 Q1014=
METAR LPPT 300100Z 34006KT CAVOK 26/12 Q1014=
METAR LPPT 300130Z 34005KT CAVOK 26/12 Q1014=
METAR LPPT 300200Z 01004KT CAVOK 26/12 Q1014=
METAR LPPT 300230Z 05001KT CAVOK 24/12 Q1014=
METAR LPPT 300300Z 00000KT CAVOK 23/13 Q1014=
METAR LPPT 300330Z 01004KT CAVOK 25/12 Q1014=
METAR LPPT 300400Z 03004KT CAVOK 24/13 Q1014=
METAR LPPT 300430Z 02004KT CAVOK 24/14 Q1014=
METAR LPPT 300500Z 03003KT 350V060 CAVOK 22/15 Q1014=
METAR LPPT 300530Z 06003KT CAVOK 21/17 Q1015=
METAR LPPT 300600Z VRB03KT CAVOK 21/17 Q1015=
METAR LPPT 300630Z 03004KT CAVOK 21/17 Q1015=
METAR LPPT 300700Z 04004KT 340V060 CAVOK 22/16 Q1015=
METAR LPPT 300730Z 06005KT CAVOK 23/16 Q1015=
METAR LPPT 300800Z 05007KT 360V080 CAVOK 23/15 Q1016=
METAR LPPT 300830Z 05008KT 020V090 CAVOK 26/14 Q1016=
METAR LPPT 300900Z 04009KT CAVOK 27/11 Q1016=
METAR LPPT 300930Z 05009G20KT 010V080 CAVOK 28/10 Q1016=
METAR LPPT 301000Z 06008KT 300V090 CAVOK 29/11 Q1016=
METAR LPPT 301030Z 09008G22KT 030V110 CAVOK 29/12 Q1016=
METAR LPPT 301100Z VRB05KT CAVOK 30/13 Q1016=
METAR LPPT 301130Z VRB05G23KT CAVOK 31/13 Q1016=
METAR LPPT 301200Z VRB05KT CAVOK 32/13 Q1016=
METAR LPPT 301230Z VRB04G16KT CAVOK 33/13 Q1016=
METAR LPPT 301300Z 20004KT 110V270 CAVOK 34/12 Q1015=
METAR LPPT 301330Z 06005KT 350V150 CAVOK 34/11 Q1015=
METAR LPPT 301400Z 19007KT 130V230 CAVOK 34/13 Q1015=
METAR LPPT 301430Z 24008KT 210V270 CAVOK 34/13 Q1015=
METAR LPPT 301500Z 23010KT CAVOK 34/14 Q1015=
METAR LPPT 301530Z 23011KT CAVOK 33/13 Q1015=
METAR LPPT 301600Z 23011KT CAVOK 34/14 Q1015=
METAR LPPT 301630Z 24011KT CAVOK 34/13 Q1015=
METAR LPPT 301700Z 28008KT 240V330 CAVOK 34/11 Q1014=
METAR LPPT 301730Z 30008KT 260V340 CAVOK 33/12 Q1014=
METAR LPPT 301800Z 30009KT 270V340 CAVOK 33/11 Q1014=
METAR LPPT 301830Z 31009KT CAVOK 33/11 Q1014=
METAR LPPT 301900Z 32009KT 290V350 CAVOK 32/11 Q1014=
METAR LPPT 301930Z 31011KT CAVOK 31/11 Q1014=
METAR LPPT 302000Z 32012KT CAVOK 30/10 Q1014=
METAR LPPT 302030Z 32011KT CAVOK 29/11 Q1014=
METAR LPPT 302100Z 35007KT 300V020 CAVOK 28/10 Q1015=
METAR LPPT 302130Z 32008KT CAVOK 28/11 Q1015=
METAR LPPT 302200Z 32009KT CAVOK 28/11 Q1015=
METAR LPPT 302230Z 33008KT CAVOK 28/11 Q1015=
METAR LPPT 302300Z 33005KT 290V360 CAVOK 28/10 Q1015=
METAR LPPT 302330Z 30004KT 270V340 CAVOK 28/10 Q1015=
METAR LPPT 310000Z 31006KT CAVOK 28/10 Q1015=
METAR LPPT 310030Z VRB01KT CAVOK 27/11 Q1015=
METAR LPPT 310100Z 33007KT CAVOK 27/11 Q1015=
METAR LPPT 310130Z 34006KT CAVOK 27/11 Q1014=
METAR LPPT 310200Z 33006KT CAVOK 26/12 Q1014=
METAR LPPT 310230Z 33006KT CAVOK 26/12 Q1014=
METAR LPPT 310300Z 33005KT CAVOK 26/13 Q1014=
METAR LPPT 310330Z 32006KT CAVOK 27/13 Q1014=
METAR LPPT 310400Z 33008KT CAVOK 27/12 Q1014=
METAR LPPT 310430Z 31007KT CAVOK 27/13 Q1014=
METAR LPPT 310500Z 31008KT CAVOK 27/13 Q1014=
METAR LPPT 310530Z 07005KT 030V100 CAVOK 24/14 Q1014=
METAR LPPT 310600Z 08005KT 050V110 CAVOK 23/18 Q1014=
METAR LPPT 310630Z 10003KT 070V140 CAVOK 23/16 Q1015=
METAR LPPT 310700Z VRB03G16KT CAVOK 24/14 Q1015=
METAR LPPT 310730Z VRB03KT CAVOK 25/14 Q1015=
METAR LPPT 310800Z VRB03KT CAVOK 25/14 Q1015=
METAR LPPT 310830Z VRB01KT CAVOK 27/15 Q1015=
METAR LPPT 310900Z VRB03KT CAVOK 28/14 Q1015=
METAR LPPT 310930Z 09004G14KT 020V150 CAVOK 30/13 Q1015=
METAR LPPT 311000Z VRB05G16KT CAVOK 29/15 Q1015=
METAR LPPT 311030Z VRB04KT CAVOK 31/15 Q1015=
METAR LPPT 311100Z 21007KT 170V240 CAVOK 31/13 Q1016=
METAR LPPT 311130Z 23006KT 160V270 CAVOK 31/12 Q1015=
METAR LPPT 311200Z 22009KT 180V250 CAVOK 32/13 Q1015=
METAR LPPT 311230Z 19010KT CAVOK 32/12 Q1015=
METAR LPPT 311300Z 20010KT 160V230 CAVOK 32/12 Q1015=
METAR LPPT 311330Z 23007KT 210V270 CAVOK 32/12 Q1015=
METAR LPPT 311400Z 22008KT 190V270 CAVOK 33/12 Q1015=
METAR LPPT 311430Z 22008KT 180V250 CAVOK 33/12 Q1014=
METAR COR LPPT 311500Z 22008KT CAVOK 33/13 Q1014=
METAR LPPT 311530Z 22010KT 200V260 CAVOK 33/14 Q1014=
METAR LPPT 311600Z 23009KT 210V270 CAVOK 33/14 Q1014=
METAR LPPT 311630Z 26009KT 240V300 CAVOK 33/14 Q1014=
METAR LPPT 311700Z 29007KT 250V350 CAVOK 33/14 Q1014=
METAR LPPT 311730Z 32007KT 280V350 CAVOK 32/15 Q1014=
METAR LPPT 311800Z 31007KT 280V340 CAVOK 31/15 Q1014=
METAR LPPT 311830Z 30005KT 260V340 CAVOK 30/15 Q1014=
METAR LPPT 311900Z 30007KT 270V330 CAVOK 29/15 Q1014=
METAR LPPT 311930Z 30006KT 250V330 CAVOK 27/14 Q1014=
METAR LPPT 312000Z 30008KT 260V340 CAVOK 27/13 Q1014=
METAR LPPT 312030Z 30009KT CAVOK 25/14 Q1014=
METAR LPPT 312100Z 31011KT CAVOK 24/14 Q1014=
METAR LPPT 312130Z 33007KT 290V020 CAVOK 24/13 Q1014=
METAR LPPT 312200Z 36005KT 250V060 CAVOK 24/13 Q1014=
METAR LPPT 312230Z 36005KT 290V070 CAVOK 24/13 Q1014=
METAR LPPT 312300Z 33007KT CAVOK 24/13 Q1014=
METAR LPPT 312330Z 02003KT 340V060 CAVOK 22/14 Q1014=
