METAR LPPT 010000Z 36003KT 9999 FEW013 15/13 Q1015=
METAR LPPT 010030Z 34004KT 9999 FEW013 15/14 Q1014=
METAR LPPT 010100Z 33004KT 9999 FEW013 16/14 Q1014=
METAR LPPT 010130Z 30004KT 270V330 9999 FEW013 16/14 Q1014=
METAR LPPT 010200Z 30004KT CAVOK 16/14 Q1013=
METAR LPPT 010230Z 31005KT CAVOK 15/14 Q1013=
METAR LPPT 010300Z 32004KT 280V350 CAVOK 15/14 Q1013=
METAR LPPT 010330Z 32006KT CAVOK 15/13 Q1012=
METAR LPPT 010400Z 31005KT CAVOK 15/13 Q1012=
METAR LPPT 010430Z 32005KT 9999 FEW015 15/13 Q1012=
METAR LPPT 010500Z 34005KT 9999 FEW015 14/13 Q1013=
METAR LPPT 010530Z 33004KT 9999 FEW015 14/13 Q1013=
METAR LPPT 010600Z 30004KT 9999 FEW010 15/14 Q1013=
METAR LPPT 010630Z 30004KT 9999 FEW010 15/14 Q1013=
METAR LPPT 010700Z VRB02KT 9999 FEW010 17/14 Q1013=
METAR LPPT 010730Z 28003KT 260V320 9999 FEW010 18/14 Q1014=
METAR LPPT 010800Z VRB04KT 9999 FEW015 19/14 Q1013=
METAR LPPT 010830Z 34003KT 250V030 9999 FEW020 19/13 Q1013=
METAR LPPT 010900Z VRB04G16KT 9999 FEW025 20/13 Q1013=
METAR LPPT 010930Z VRB05G15KT 9999 FEW030 22/13 Q1013=
METAR LPPT 011000Z 07004G15KT 020V140 9999 FEW030 23/13 Q1013=
METAR LPPT 011030Z VRB06KT 9999 FEW030 23/13 Q1013=
METAR LPPT 011100Z VRB02KT 9999 FEW035 24/13 Q1012=
METAR LPPT 011130Z VRB05KT 9999 FEW035 25/13 Q1012=
METAR LPPT 011200Z VRB04KT 9999 FEW035 26/08 Q1012=
METAR LPPT 011230Z VRB08G21KT 9999 FEW035 25/10 Q1012=
METAR LPPT 011300Z 15007G20KT 100V210 9999 FEW035 26/11 Q1011=
METAR LPPT 011330Z 16008KT 100V200 9999 FEW035 FEW040TCU 27/11 Q1011=
METAR LPPT 011400Z 32008KT 270V350 9999 FEW035 FEW040TCU 24/12 Q1011=
METAR LPPT 011430Z 32010KT 9999 VCSH FEW035 FEW040CB 22/16 Q1011=
METAR LPPT 011500Z 31009KT 9999 FEW022 FEW030TCU 22/15 Q1011=
METAR LPPT 011530Z 31006KT 9999 FEW028 23/15 Q1010=
METAR LPPT 011600Z 32008KT 290V350 9999 FEW028 23/13 Q1010=
METAR LPPT 011630Z 32010KT 9999 FEW030 FEW035CB 24/13 Q1010=
METAR LPPT 011700Z 31011KT 9999 FEW030 FEW035CB 23/13 Q1010=
METAR LPPT 011730Z 31012KT 9999 FEW030 FEW035CB 22/14 Q1010=
METAR LPPT 011800Z 31013KT 9999 FEW030 FEW035CB 22/13 Q1010=
METAR LPPT 011830Z 33013KT 9999 FEW028 21/14 Q1010=
METAR LPPT 011900Z 32011KT 9999 FEW025 20/15 Q1010=
METAR LPPT 011930Z 36008KT 330V040 9999 FEW020 19/14 Q1011=
METAR LPPT 012000Z 36007KT 340V040 9999 FEW020 19/14 Q1011=
METAR LPPT 012030Z 34010KT 9999 FEW020 18/14 Q1011=
METAR LPPT 012100Z 33008KT 9999 FEW018 18/15 Q1011=
METAR LPPT 012130Z 33011KT CAVOK 17/15 Q1011=
METAR LPPT 012200Z 33010KT CAVOK 17/14 Q1011=
METAR LPPT 012230Z 33008KT CAVOK 17/14 Q1011=
METAR LPPT 012300Z 33008KT CAVOK 17/14 Q1011=
METAR LPPT 012330Z 34008KT CAVOK 16/14 Q1011=
METAR LPPT 020000Z 33007KT CAVOK 16/14 Q1011=
METAR LPPT 020030Z 34007KT CAVOK 16/14 Q1011=
METAR LPPT 020100Z 33007KT CAVOK 16/14 Q1011=
METAR LPPT 020130Z 31005KT CAVOK 16/14 Q1010=
METAR LPPT 020200Z 32006KT 290V350 CAVOK 16/14 Q1010=
METAR LPPT 020230Z 31007KT CAVOK 16/14 Q1010=
METAR LPPT 020300Z 31008KT CAVOK 16/14 Q1010=
METAR LPPT 020330Z 31007KT CAVOK 16/14 Q1010=
METAR LPPT 020400Z 33008KT CAVOK 16/14 Q1010=
METAR LPPT 020430Z 32007KT CAVOK 16/14 Q1010=
METAR LPPT 020500Z 32008KT CAVOK 16/14 Q1010=
METAR LPPT 020530Z 33009KT 9999 FEW020 15/13 Q1011=
METAR LPPT 020600Z 33007KT 9999 FEW020 16/14 Q1011=
METAR LPPT 020630Z 33007KT 9999 FEW020 16/14 Q1011=
METAR LPPT 020700Z 33007KT 9999 FEW015 17/14 Q1011=
METAR LPPT 020730Z 33007KT 290V010 9999 FEW015 18/14 Q1011=
METAR LPPT 020800Z 32006KT 280V350 9999 FEW018 18/14 Q1012=
METAR LPPT 020830Z 01006KT 330V050 9999 FEW020 19/14 Q1012=
METAR LPPT 020900Z 36005KT 310V060 9999 FEW022 20/14 Q1011=
METAR LPPT 020930Z VRB05KT 9999 FEW025 21/15 Q1011=
METAR LPPT 021000Z VRB04G19KT 9999 FEW025 21/15 Q1012=
METAR LPPT 021030Z VRB05G17KT 9999 FEW028 22/15 Q1012=
METAR LPPT 021100Z VRB07G17KT 9999 FEW030 23/15 Q1012=
METAR LPPT 021130Z 10006KT 060V140 9999 FEW033 23/15 Q1012=
METAR LPPT 021200Z 11007KT 010V180 9999 FEW035 23/14 Q1012=
METAR LPPT 021230Z VRB06KT 9999 FEW035 24/14 Q1011=
METAR LPPT 021300Z VRB07G18KT 9999 FEW040 25/13 Q1011=
METAR LPPT 021330Z VRB06G17KT 9999 FEW040 26/13 Q1011=
METAR LPPT 021400Z 30007KT 260V350 9999 FEW045 25/13 Q1010=
METAR LPPT 021430Z 33009KT 9999 FEW042 FEW047CB 24/14 Q1010=
METAR LPPT 021500Z 33009KT 290V360 9999 FEW042 FEW047TCU 25/14 Q1010=
METAR LPPT 021530Z 31010KT 280V340 9999 FEW042 FEW047TCU 25/14 Q1010=
METAR LPPT 021600Z 30009KT 270V330 9999 FEW042 FEW047TCU 24/14 Q1010=
METAR LPPT 021630Z 31011KT 270V340 9999 FEW042 FEW047CB 24/13 Q1010=
METAR LPPT 021700Z 31012KT 9999 FEW042 FEW047CB 23/13 Q1010=
METAR LPPT 021730Z 31011KT 270V350 9999 FEW042 FEW047CB 23/14 Q1010=
METAR LPPT 021800Z 32012KT 290V350 9999 FEW040 FEW045CB 22/13 Q1011=
METAR LPPT 021830Z 33010KT 9999 FEW045 22/13 Q1011=
METAR LPPT 021900Z 33010KT CAVOK 22/14 Q1011=
METAR LPPT 021930Z 33011KT CAVOK 21/14 Q1011=
METAR LPPT 022000Z 33008KT CAVOK 20/15 Q1011=
METAR LPPT 022030Z 31007KT 290V350 CAVOK 20/15 Q1012=
METAR LPPT 022100Z 31007KT CAVOK 19/14 Q1012=
METAR LPPT 022130Z 32007KT CAVOK 19/14 Q1013=
METAR LPPT 022200Z 33007KT CAVOK 19/14 Q1012=
METAR LPPT 022230Z 33007KT CAVOK 18/14 Q1013=
METAR LPPT 022300Z 31006KT CAVOK 18/14 Q1013=
METAR LPPT 022330Z 31008KT CAVOK 18/14 Q1013=
METAR LPPT 030000Z 31007KT CAVOK 17/14 Q1012=
METAR LPPT 030030Z 32008KT 290V350 CAVOK 17/14 Q1013=
METAR LPPT 030100Z 31007KT 280V340 CAVOK 17/14 Q1013=
METAR LPPT 030130Z 33009KT CAVOK 16/14 Q1013=
METAR LPPT 030200Z 32008KT CAVOK 16/14 Q1012=
METAR LPPT 030230Z 32008KT CAVOK 16/14 Q1012=
METAR LPPT 030300Z 32007KT CAVOK 16/14 Q1012=
METAR LPPT 030330Z 32007KT 290V350 CAVOK 16/14 Q1012=
METAR LPPT 030400Z 32007KT CAVOK 16/14 Q1012=
METAR LPPT 030430Z 31007KT CAVOK 16/14 Q1012=
METAR LPPT 030500Z 32008KT CAVOK 16/14 Q1012=
METAR LPPT 030530Z 32007KT CAVOK 16/14 Q1012=
METAR LPPT 030600Z 33007KT 8000 FEW008 16/14 Q1013=
METAR LPPT 030630Z 32008KT 8000 FEW008 16/15 Q1013=
METAR LPPT 030700Z 32006KT 9999 FEW010 17/15 Q1013=
METAR LPPT 030730Z 34007KT 310V010 9999 FEW012 18/15 Q1014=
METAR LPPT 030800Z 36006KT 330V030 9999 FEW020 19/15 Q1014=
METAR LPPT 030830Z 02007KT 350V060 CAVOK 20/15 Q1014=
METAR LPPT 030900Z VRB04KT 9999 FEW030 21/16 Q1014=
METAR LPPT 030930Z 07006KT 040V110 9999 FEW020 21/16 Q1014=
METAR LPPT 031000Z 09007KT 050V130 9999 FEW020 21/16 Q1014=
METAR LPPT 031030Z 09007KT 360V130 9999 FEW020 22/16 Q1014=
METAR LPPT 031100Z VRB04KT 9999 FEW020 23/16 Q1014=
METAR LPPT 031130Z 11006G17KT 030V170 9999 FEW025 24/16 Q1014=
METAR LPPT 031200Z 08006KT 010V160 9999 FEW025 FEW035TCU 24/16 Q1014=
METAR LPPT 031230Z 09006KT 340V130 9999 FEW030 FEW035TCU 25/16 Q1013=
METAR LPPT 031300Z VRB05G16KT 9999 FEW035 FEW040TCU 25/13 Q1013=
METAR LPPT 031330Z 25009KT 220V290 9999 FEW035 FEW045CB 26/16 Q1013 WS R02=
METAR LPPT 031400Z 26009KT 230V310 9999 SCT035 FEW045CB 25/16 Q1013 WS R02=
METAR LPPT 031430Z 33008KT 270V030 9999 FEW038 FEW040CB 25/15 Q1012=
METAR LPPT 031500Z 34010KT 300V020 9999 FEW042 FEW045TCU 25/16 Q1012=
METAR LPPT 031530Z 31009KT 270V350 9999 FEW040 FEW042CB 25/16 Q1012=
METAR LPPT 031600Z 32010KT 9999 FEW040 FEW042CB 25/15 Q1012=
METAR LPPT 031630Z 30009KT 270V340 9999 FEW040TCU 24/15 Q1012=
METAR LPPT 031700Z 31011KT 280V340 9999 FEW038 FEW040CB 24/15 Q1012=
METAR LPPT 031730Z 32014KT 290V350 9999 FEW038 FEW040CB 22/15 Q1012=
METAR LPPT 031800Z 30011KT 270V330 9999 FEW033 FEW035CB 22/15 Q1012=
METAR LPPT 031830Z 32012KT 9999 FEW030 22/15 Q1013=
METAR LPPT 031900Z 31012KT 9999 FEW025 21/15 Q1013=
METAR LPPT 031930Z 32010KT 9999 FEW025 20/15 Q1013=
METAR LPPT 032000Z 33013KT 9999 FEW020 19/15 Q1013=
METAR LPPT 032030Z 31011KT CAVOK 19/15 Q1013=
METAR LPPT 032100Z 32011KT 300V360 CAVOK 18/15 Q1014=
METAR LPPT 032130Z 32009KT CAVOK 18/15 Q1014=
METAR LPPT 032200Z 35007KT 310V040 CAVOK 18/15 Q1014=
METAR LPPT 032230Z 33010KT CAVOK 17/15 Q1014=
METAR LPPT 032300Z 33008KT CAVOK 17/15 Q1014=
METAR LPPT 032330Z 31009KT CAVOK 17/15 Q1014=
METAR LPPT 040000Z 32009KT CAVOK 17/15 Q1014=
METAR LPPT 040030Z 32009KT CAVOK 17/15 Q1014=
METAR LPPT 040100Z 32009KT 290V360 CAVOK 17/14 Q1013=
METAR LPPT 040130Z 32009KT CAVOK 17/14 Q1013=
METAR LPPT 040200Z 31008KT CAVOK 17/14 Q1013=
METAR LPPT 040230Z 31009KT CAVOK 17/14 Q1013=
METAR LPPT 040300Z 32010KT CAVOK 16/15 Q1013=
METAR LPPT 040330Z 31010KT CAVOK 16/14 Q1013=
METAR LPPT 040400Z 32009KT CAVOK 16/14 Q1013=
METAR LPPT 040430Z 32010KT CAVOK 16/14 Q1013=
METAR LPPT 040500Z 31010KT CAVOK 16/14 Q1013=
METAR LPPT 040530Z 32007KT 290V350 CAVOK 16/14 Q1013=
METAR LPPT 040600Z 32008KT CAVOK 16/14 Q1013=
METAR LPPT 040630Z 32008KT CAVOK 17/14 Q1013=
METAR LPPT 040700Z 32007KT 290V350 CAVOK 18/14 Q1013=
METAR LPPT 040730Z 33007KT CAVOK 19/14 Q1014=
METAR LPPT 040800Z 34008KT 300V360 9999 FEW015 20/14 Q1014=
METAR LPPT 040830Z 31005KT 250V360 9999 FEW020 20/14 Q1014=
METAR LPPT 040900Z 34006KT 290V030 9999 FEW020 21/14 Q1014=
METAR LPPT 040930Z 32004KT 270V030 9999 FEW020 22/15 Q1014=
METAR LPPT 041000Z 30005KT 270V340 9999 FEW020 23/15 Q1014=
METAR LPPT 041030Z 30005KT 210V020 9999 FEW025 24/15 Q1014=
METAR LPPT 041100Z VRB06G16KT 9999 FEW025 24/15 Q1014=
METAR LPPT 041130Z VRB03KT 9999 FEW025 25/15 Q1014=
METAR LPPT 041200Z VRB04KT 9999 FEW030 26/14 Q1014=
METAR LPPT 041230Z VRB04KT 9999 FEW040 27/15 Q1014=
METAR LPPT 041300Z VRB05KT 9999 FEW040 27/14 Q1013=
METAR LPPT 041330Z VRB06KT 9999 FEW040 27/14 Q1013=
METAR LPPT 041400Z 31007KT 250V010 9999 FEW045 27/14 Q1013=
METAR LPPT 041430Z 32008KT 280V010 9999 FEW045 27/14 Q1013=
METAR LPPT 041500Z 33010KT 290V350 9999 FEW045 27/15 Q1013=
METAR LPPT 041530Z 32010KT 290V350 9999 FEW048 26/15 Q1013=
METAR LPPT 041600Z 31011KT 280V340 9999 FEW048 26/15 Q1013=
METAR LPPT 041630Z 31010KT 270V350 9999 FEW045 25/15 Q1013=
METAR LPPT 041700Z 32011KT 290V350 9999 FEW045 24/15 Q1013=
METAR LPPT 041730Z 32013KT 9999 FEW040 23/15 Q1013=
METAR LPPT 041800Z 31011KT 9999 FEW035 FEW040TCU 22/15 Q1013=
METAR LPPT 041830Z 31011KT 9999 FEW035 21/15 Q1013=
METAR LPPT 041900Z 31010KT 9999 FEW035 20/15 Q1014=
METAR LPPT 041930Z 32010KT 290V350 9999 FEW030 FEW035TCU 20/15 Q1014=
METAR LPPT 042000Z 34008KT 280V030 9999 FEW025 FEW030TCU 19/15 Q1014=
METAR LPPT 042030Z 33011KT 9999 FEW020 18/15 Q1015=
METAR LPPT 042100Z 32010KT 9999 FEW018 18/14 Q1015=
METAR LPPT 042130Z 32013KT CAVOK 17/14 Q1015=
METAR LPPT 042200Z 33011KT CAVOK 17/14 Q1015=
METAR LPPT 042230Z 34010KT CAVOK 17/14 Q1016=
METAR LPPT 042300Z 33007KT CAVOK 17/14 Q1015=
METAR LPPT 042330Z 32009KT CAVOK 17/13 Q1015=
METAR LPPT 050000Z 32011KT 9999 FEW012 17/14 Q1015=
METAR LPPT 050030Z 33009KT 9999 FEW012 16/13 Q1015=
METAR LPPT 050100Z 33007KT 9999 FEW012 16/13 Q1015=
METAR LPPT 050130Z 33008KT 290V350 9999 FEW012 16/13 Q1014=
METAR LPPT 050200Z 32008KT 290V350 9999 FEW012 16/13 Q1014=
METAR LPPT 050230Z 33009KT 9999 FEW012 16/13 Q1014=
METAR LPPT 050300Z 32007KT 9999 FEW012 16/14 Q1014=
METAR LPPT 050330Z 32009KT 290V350 9999 FEW012 16/13 Q1014=
METAR LPPT 050400Z 32008KT 290V360 9999 FEW010 16/13 Q1014=
METAR LPPT 050430Z 32009KT 9999 FEW010 16/14 Q1014=
METAR LPPT 050500Z 32010KT 9999 FEW012 16/14 Q1014=
METAR LPPT 050530Z 32008KT 9999 FEW012 16/14 Q1014=
METAR LPPT 050600Z 33009KT 9999 FEW012 16/14 Q1014=
METAR LPPT 050630Z 33008KT 9999 FEW015 17/14 Q1014=
METAR LPPT 050700Z 33007KT 9999 FEW015 18/14 Q1015=
METAR LPPT 050730Z 35007KT 320V020 9999 FEW015 18/15 Q1015=
METAR LPPT 050800Z 36008KT 320V040 9999 FEW015 20/14 Q1014=
METAR LPPT 050830Z 01007KT 320V050 9999 FEW020 21/14 Q1014=
METAR LPPT 050900Z 05006KT 350V090 CAVOK 22/15 Q1014=
METAR LPPT 050930Z VRB05G18KT CAVOK 22/15 Q1014=
METAR LPPT 051000Z 09006KT 020V140 CAVOK 22/15 Q1014=
METAR LPPT 051030Z 08006KT 020V130 CAVOK 23/15 Q1014=
METAR LPPT 051100Z 09007G19KT 020V150 CAVOK 23/15 Q1014=
METAR LPPT 051130Z 10007KT 060V200 CAVOK 25/16 Q1014=
METAR LPPT 051200Z 10005KT 050V200 9999 FEW030 25/16 Q1014=
METAR LPPT 051230Z VRB05KT 9999 FEW030 26/16 Q1013=
METAR LPPT 051300Z 11006G19KT 050V220 9999 FEW030 26/16 Q1013=
METAR LPPT 051330Z 11006KT 060V150 9999 FEW035 27/15 Q1013=
METAR LPPT 051400Z VRB04G16KT 9999 FEW035 28/15 Q1013=
METAR LPPT 051430Z 28006KT 240V330 9999 FEW048 29/14 Q1012=
METAR LPPT 051500Z 25007KT 200V320 9999 FEW048 29/13 Q1012=
METAR LPPT 051530Z VRB05KT CAVOK 29/13 Q1012=
METAR LPPT 051600Z 27007KT 230V340 CAVOK 29/13 Q1012=
METAR LPPT 051630Z 30006KT 240V020 CAVOK 28/13 Q1011=
METAR LPPT 051700Z 31009KT 280V340 CAVOK 28/12 Q1011=
METAR LPPT 051730Z 31009KT 280V340 CAVOK 27/13 Q1011=
METAR LPPT 051800Z 31009KT 270V340 CAVOK 27/13 Q1011=
METAR LPPT 051830Z 31009KT CAVOK 26/12 Q1011=
METAR LPPT 051900Z 31008KT 280V340 CAVOK 25/14 Q1011=
METAR LPPT 051930Z 31009KT CAVOK 24/14 Q1011=
METAR LPPT 052000Z 30008KT CAVOK 23/14 Q1011=
METAR LPPT 052030Z 31008KT CAVOK 22/15 Q1012=
METAR LPPT 052100Z 32009KT CAVOK 22/15 Q1012=
METAR LPPT 052130Z 31007KT CAVOK 21/15 Q1012=
METAR LPPT 052200Z 32004KT 290V350 CAVOK 21/14 Q1012=
METAR LPPT 052230Z 32003KT 260V030 CAVOK 21/14 Q1012=
METAR LPPT 052300Z VRB02KT CAVOK 21/14 Q1013=
METAR LPPT 052330Z 00000KT CAVOK 21/14 Q1012=
METAR LPPT 060000Z VRB01KT CAVOK 20/14 Q1012=
METAR LPPT 060030Z VRB01KT CAVOK 20/14 Q1012=
METAR LPPT 060100Z 00000KT CAVOK 19/13 Q1012=
METAR LPPT 060130Z 00000KT CAVOK 19/13 Q1011=
METAR LPPT 060200Z 29001KT CAVOK 18/13 Q1011=
METAR LPPT 060230Z 30002KT CAVOK 18/13 Q1011=
METAR LPPT 060300Z VRB02KT CAVOK 18/13 Q1011=
METAR LPPT 060330Z 00000KT CAVOK 18/12 Q1010=
METAR LPPT 060400Z 25003KT CAVOK 19/13 Q1010=
METAR LPPT 060430Z 00000KT CAVOK 18/12 Q1010=
METAR LPPT 060500Z 05003KT CAVOK 17/13 Q1011=
METAR LPPT 060530Z VRB02KT CAVOK 18/14 Q1011=
METAR LPPT 060600Z 02003KT 310V060 CAVOK 18/16 Q1011=
METAR LPPT 060630Z VRB02KT CAVOK 18/16 Q1011=
METAR LPPT 060700Z 34002KT CAVOK 19/16 Q1011=
METAR LPPT 060730Z VRB02KT CAVOK 21/17 Q1011=
METAR LPPT 060800Z VRB04G14KT CAVOK 21/16 Q1011=
METAR LPPT 060830Z VRB04KT CAVOK 22/16 Q1011=
METAR LPPT 060900Z 06005KT 020V100 CAVOK 22/16 Q1011=
METAR LPPT 060930Z VRB04KT CAVOK 24/16 Q1011=
METAR LPPT 061000Z 09006KT 060V120 CAVOK 25/16 Q1010=
METAR LPPT 061030Z 09006KT 050V110 CAVOK 25/15 Q1010=
METAR LPPT 061100Z 10007KT 070V230 CAVOK 27/13 Q1010=
METAR LPPT 061130Z VRB06G18KT CAVOK 27/13 Q1010=
METAR LPPT 061200Z 11006KT 060V160 9999 FEW040 28/13 Q1010=
METAR LPPT 061230Z 10007KT 070V150 9999 FEW040 29/12 Q1009=
METAR LPPT 061300Z 13007G18KT 100V170 9999 FEW040 29/12 Q1009=
METAR LPPT 061330Z 14007G22KT 060V170 9999 FEW040 29/12 Q1008=
METAR LPPT 061400Z 22008KT 180V250 9999 FEW040 29/13 Q1008=
METAR LPPT 061430Z 23010KT 9999 FEW040 29/13 Q1008=
METAR LPPT 061500Z 23013KT CAVOK 28/14 Q1008=
METAR LPPT 061530Z 23015KT CAVOK 25/14 Q1008=
METAR LPPT 061600Z 24014KT CAVOK 25/15 Q1008=
METAR LPPT 061630Z 25014KT CAVOK 24/15 Q1008=
METAR LPPT 061700Z 25014KT CAVOK 23/16 Q1008=
METAR LPPT 061730Z 25013KT CAVOK 23/16 Q1008=
METAR LPPT 061800Z 24012KT 9999 FEW025 22/17 Q1009=
METAR LPPT 061830Z 24011KT 9999 FEW025 22/17 Q1009=
METAR LPPT 061900Z 24011KT 200V270 9999 FEW012 22/18 Q1009=
METAR LPPT 061930Z 24009KT 210V270 9999 -RA SCT011 21/18 Q1009=
METAR LPPT 062000Z 22011KT 9999 BKN009 20/19 Q1009=
METAR LPPT 062030Z 21009KT 9999 BKN010 20/18 Q1009=
METAR LPPT 062100Z 21007KT 9999 SCT011 20/18 Q1009=
METAR LPPT 062130Z 16007KT 120V200 9999 FEW011 21/18 Q1009=
METAR LPPT 062200Z 15006KT 120V180 9999 FEW012 21/18 Q1009=
METAR LPPT 062230Z 16007KT 130V190 9999 -RA FEW011 20/18 Q1009=
METAR LPPT 062300Z 16005KT 9999 FEW008 20/18 Q1009=
METAR LPPT 062330Z 16006KT 130V190 9999 FEW012 20/18 Q1009=
METAR LPPT 070000Z 15006KT 120V190 9999 FEW012 20/18 Q1009=
METAR LPPT 070030Z 17007KT 9999 -RA FEW008 BKN012 20/18 Q1009=
METAR LPPT 070100Z 17007KT 9999 -RA FEW008 20/19 Q1009=
METAR LPPT 070130Z 18007KT 9999 SCT010 SCT025 20/19 Q1009=
METAR LPPT 070200Z 17004KT 9999 FEW010 BKN022 20/19 Q1008=
METAR LPPT 070230Z 16006KT 9999 FEW010 SCT020 20/18 Q1008=
METAR LPPT 070300Z 15005KT 9999 FEW010 20/18 Q1008=
METAR LPPT 070330Z 14006KT 110V180 9999 FEW008 SCT020 20/18 Q1008=
METAR LPPT 070400Z 15007KT 9999 -RA FEW008 20/18 Q1008=
METAR LPPT 070430Z 16007KT 140V200 9999 FEW008 20/18 Q1008=
METAR LPPT 070500Z 16009KT 130V200 9999 FEW014 20/17 Q1008=
METAR LPPT 070530Z 15008G18KT 110V200 9999 FEW014 20/17 Q1008=
METAR LPPT 070600Z 15007KT 9999 FEW010 SCT020 BKN040 20/17 Q1008=
METAR LPPT 070630Z 14008KT 100V190 9999 FEW008 BKN014 20/18 Q1008=
METAR LPPT 070700Z 16009KT 120V190 9000 -DZRA SCT008 BKN012 19/18 Q1008=
METAR LPPT 070730Z 14006KT 110V170 9999 FEW008 SCT028 BKN040 20/18 Q1008=
METAR LPPT 070800Z 13008KT 110V170 9999 FEW012 SCT028 BKN040 20/17 Q1008=
METAR LPPT 070830Z 14011KT 9999 FEW014 BKN045 21/17 Q1008=
METAR LPPT 070900Z 14009KT 120V190 9999 SCT014 BKN045 21/17 Q1008=
METAR LPPT 070930Z 16012G24KT 130V190 9999 FEW014 BKN026 22/16 Q1008=
METAR LPPT 071000Z 17015KT 9999 -RA FEW014 BKN026 21/16 Q1009=
METAR LPPT 071030Z 17015KT 9999 -RA FEW014 BKN026 22/16 Q1009=
METAR LPPT 071100Z 18014KT 9999 FEW014 BKN026 22/17 Q1009=
METAR LPPT 071130Z 18017G27KT 9999 FEW016 BKN026 23/17 Q1009=
METAR LPPT 071200Z 19018KT 9999 FEW020 BKN026 24/18 Q1009=
METAR LPPT 071230Z 20017KT 9999 FEW020 BKN024 25/18 Q1009=
METAR LPPT 071300Z 20019KT 9999 FEW020 BKN024 24/18 Q1009=
METAR LPPT 071330Z 20018KT 9999 BKN020 25/18 Q1009=
METAR LPPT 071400Z 21018KT 9999 FEW016 BKN022 24/18 Q1009=
METAR LPPT 071430Z 21020KT 9999 FEW014 BKN018 25/19 Q1009=
METAR LPPT 071500Z 21020KT 9999 SCT014 BKN020 24/19 Q1008=
METAR LPPT 071530Z 21019KT 9999 FEW014 BKN020 24/19 Q1008=
METAR LPPT 071600Z 21019KT 9999 FEW014 BKN022 24/18 Q1008=
METAR LPPT 071630Z 21019KT 9999 FEW011 BKN022 23/19 Q1008=
METAR LPPT 071700Z 21020KT 9999 SCT012 BKN018 22/19 Q1008=
METAR LPPT 071730Z 20018KT 9999 FEW012 BKN016 22/18 Q1008=
METAR LPPT 071800Z 17016KT 9999 -RA FEW016 SCT020 BKN046 22/17 Q1008=
METAR LPPT 071830Z 16009KT 9999 FEW012 SCT016 BKN045 20/17 Q1008=
METAR LPPT 071900Z 17013KT 9999 FEW012 BKN016 21/17 Q1008=
METAR LPPT 071930Z 17011KT 140V200 9999 BKN014 20/17 Q1008=
METAR LPPT 072000Z 18011KT 150V210 9999 SCT012 BKN016 21/18 Q1008=
METAR LPPT 072030Z 20014KT 9999 SCT010 BKN014 20/18 Q1009=
METAR LPPT 072100Z 19015KT 9999 SCT010 BKN012 20/18 Q1009=
METAR LPPT 072130Z 20014KT 9999 FEW010 BKN012 20/18 Q1009=
METAR LPPT 072200Z 19012KT 9999 SCT010 BKN012 20/18 Q1009=
METAR LPPT 072230Z 16010KT 9999 FEW008 SCT010 BKN048 20/18 Q1009=
METAR LPPT 072300Z 17011KT 9999 FEW008 SCT010 BKN012 20/18 Q1009=
METAR LPPT 072330Z 17011KT 150V210 9999 SCT009 BKN012 20/18 Q1009=
METAR LPPT 080000Z 17010KT 9999 SCT009 BKN011 20/18 Q1008=
METAR LPPT 080030Z 18013KT 9999 SCT008 BKN011 20/18 Q1008=
METAR LPPT 080100Z 18012KT 9999 SCT009 BKN012 20/18 Q1008=
METAR LPPT 080130Z 17011KT 9999 SCT009 BKN012 20/18 Q1007=
METAR LPPT 080200Z 17011KT 9999 SCT009 BKN012 20/18 Q1007=
METAR LPPT 080230Z 17012KT 9999 -DZ BKN010 20/18 Q1007=
METAR LPPT 080300Z 17016G26KT 9999 -DZRA FEW008 SCT010 BKN014 19/18 Q1007=
METAR LPPT 080330Z 19020KT 7000 -RADZ SCT006 BKN008 18/17 Q1007=
METAR LPPT 080400Z 17012KT 9999 FEW012 BKN036 18/17 Q1007=
METAR LPPT 080430Z 18012KT 7000 RADZ FEW008 SCT016 BKN030 18/17 Q1007=
METAR LPPT 080500Z 17013KT 6000 -RADZ FEW008 SCT014 BKN018 18/17 Q1007 RERA=
METAR LPPT 080530Z 17013KT 9999 SCT010 BKN012 19/17 Q1006=
METAR LPPT 080600Z 17015KT 9999 SCT011 BKN014 19/17 Q1006=
METAR LPPT 080630Z 17016KT 140V200 9999 SCT009 BKN012 19/17 Q1006=
METAR LPPT 080700Z 17014KT 9999 -SHRA FEW006 BKN010 19/18 Q1006=
METAR LPPT 080730Z 17016KT 7000 -RA FEW004 BKN006 18/17 Q1006=
METAR LPPT 080800Z 17013KT 9999 VCSH FEW002 BKN006 18/18 Q1006=
METAR LPPT 080830Z 17015KT 6000 -SHRA FEW003 BKN006 19/18 Q1006=
METAR LPPT 080900Z 15010G21KT 9999 FEW002 BKN006 19/18 Q1007=
METAR LPPT 080930Z 16013KT 120V190 9999 FEW004 BKN010 19/18 Q1007=
METAR LPPT 081000Z 17016KT 140V200 9999 FEW006 BKN012 20/18 Q1007=
METAR LPPT 081030Z 18018KT 9999 FEW010 BKN016 22/18 Q1006=
METAR LPPT 081100Z 17019G29KT 140V200 9999 FEW010 BKN018 23/18 Q1006=
METAR LPPT 081130Z 18022KT 9999 FEW014 BKN020 23/17 Q1006=
METAR LPPT 081200Z 18020KT 9999 FEW014 BKN020 22/17 Q1006=
METAR LPPT 081230Z 18020KT 9999 SCT016 BKN022 21/17 Q1006=
METAR LPPT 081300Z 19019KT 6000 -SHRA FEW008 BKN012 FEW018TCU 20/18 Q1007=
METAR LPPT 081330Z 18020KT 9999 FEW008 BKN016 FEW020TCU 21/20 Q1006=
METAR LPPT 081400Z 20020KT 9999 VCSH FEW010 BKN014 FEW020TCU 22/18 Q1006=
METAR LPPT 081430Z 20020KT 9999 SCT014 SCT022 BKN042 22/17 Q1006=
METAR LPPT 081500Z 20021KT 9999 BKN015 SCT045 22/17 Q1006=
METAR LPPT 081530Z 20022G33KT 9999 SCT016 23/17 Q1006=
METAR LPPT 081600Z 20023KT 9999 VCSH BKN016 21/17 Q1006=
METAR LPPT 081630Z 20023KT 3000 -SHRA FEW008 SCT013 BKN020 FEW025TCU 19/18 Q1006=
METAR LPPT 081700Z 20020G30KT 9999 VCSH BKN013 20/18 Q1006=
METAR LPPT 081730Z 21021KT 9999 BKN012 20/18 Q1006=
METAR LPPT 081800Z 20019KT 8000 BKN011 19/18 Q1006 RESHRA=
METAR LPPT 081830Z 21019KT 9000 VCSH FEW008 SCT011 BKN033 19/18 Q1006=
METAR LPPT 081900Z 21018KT 8000 VCSH SCT011 SCT020 19/18 Q1006=
METAR LPPT 081930Z 20020KT 9000 VCSH SCT011 FEW025TCU SCT033 19/18 Q1007=
METAR LPPT 082000Z 20020KT 8000 FEW011 FEW025TCU SCT035 19/17 Q1007=
METAR LPPT 082030Z 21017KT 9000 BKN011 19/17 Q1007=
METAR LPPT 082100Z 20018KT 9999 SCT011 SCT018 19/17 Q1007=
METAR LPPT 082130Z 20016KT 7000 -RADZ SCT011 SCT016 19/17 Q1008=
METAR LPPT 082200Z 20018G28KT 9999 SCT011 BKN015 19/17 Q1008=
METAR LPPT 082230Z 20015KT 9999 SCT011 BKN016 19/17 Q1008=
METAR LPPT 082300Z 20018KT 9000 VCSH BKN011 BKN014 19/17 Q1008=
METAR LPPT 082330Z 20016KT 7000 -RADZ FEW006 BKN009 BKN012 19/18 Q1008=
METAR LPPT 090000Z 20014KT 5000 -RADZ BR SCT006 BKN009 BKN014 18/18 Q1007=
METAR LPPT 090030Z 21013KT 3500 SHRA FEW004 SCT006 BKN012 FEW025TCU 18/18 Q1007=
METAR LPPT 090100Z 20009KT 4500 SHRA FEW003 SCT004 BKN010 FEW025TCU 18/18 Q1007 RERA=
METAR LPPT 090130Z 22012KT 6000 SHRA SCT004 BKN006 FEW025TCU 18/18 Q1007 RERA=
METAR LPPT 090200Z 22010KT 5000 SHRA FEW003 SCT006 BKN008 FEW025TCU 18/18 Q1007=
METAR LPPT 090230Z 23010KT 6000 -RA SCT004 BKN010 FEW025TCU 18/18 Q1007=
METAR LPPT 090300Z 22007KT 8000 -DZ FEW004 SCT008 BKN015 18/18 Q1007 RERA=
METAR LPPT 090330Z 23008KT 9999 SCT005 SCT008 BKN011 18/18 Q1007=
METAR LPPT 090400Z 23008KT 9999 -RADZ SCT005 SCT007 BKN012 18/18 Q1007=
METAR LPPT 090430Z 24010KT 9999 SCT006 SCT010 BKN034 18/18 Q1008=
METAR LPPT 090500Z 24009KT 9999 SCT007 SCT012 BKN016 18/18 Q1008=
METAR LPPT 090530Z 23009KT 9000 VCSH SCT007 SCT010 BKN014 18/17 Q1008=
METAR LPPT 090600Z 22009KT 9999 SCT006 SCT014 BKN032 18/18 Q1008=
METAR LPPT 090630Z 23009KT 9999 FEW006 SCT012 BKN016 18/17 Q1009=
METAR LPPT 090700Z 22007KT 200V260 9999 SCT006 SCT008 BKN010 19/18 Q1009=
METAR LPPT 090730Z 22010KT 9999 SCT008 BKN020 19/18 Q1009=
METAR LPPT 090800Z 21014KT 9999 BKN008 BKN024 19/18 Q1010=
METAR LPPT 090830Z 21013KT 9999 FEW008 SCT012 BKN030 20/18 Q1010=
METAR LPPT 090900Z 20014KT 9999 FEW008 SCT012 BKN032 20/18 Q1010=
METAR LPPT 090930Z 21014KT 9999 FEW010 SCT012 BKN024 20/18 Q1010=
METAR LPPT 091000Z 21014KT 9999 -SHRA FEW008 SCT014 BKN020 20/18 Q1011=
METAR LPPT 091030Z 22012KT 9999 SCT008 SCT014 BKN024 21/18 Q1011=
METAR LPPT 091100Z 22011KT 9999 FEW008 SCT016 BKN022 21/17 Q1011=
METAR LPPT 091130Z 21013KT 9999 FEW012 BKN018 22/18 Q1011=
METAR LPPT 091200Z 22013KT 9999 FEW010 SCT016 22/17 Q1011=
METAR LPPT 091230Z 22013KT 9999 FEW016 SCT020 22/17 Q1011=
METAR LPPT 091300Z 22016KT 9999 FEW010 SCT016 BKN020 21/17 Q1012=
METAR LPPT 091330Z 23013KT 9999 FEW016 SCT022 BKN038 22/17 Q1011=
METAR LPPT 091400Z 22015KT 9999 FEW014 SCT020 22/17 Q1012=
METAR LPPT 091430Z 22013KT 190V250 9999 SCT020 22/17 Q1012=
METAR LPPT 091500Z 23013KT 9999 SCT020 22/16 Q1012=
METAR LPPT 091530Z 22014KT 9999 SCT020 23/17 Q1012=
METAR LPPT 091600Z 23014KT 9999 SCT020 22/16 Q1012=
METAR LPPT 091630Z 23012KT 210V280 9999 SCT020 22/16 Q1012=
METAR LPPT 091700Z 22011KT 9999 SCT020 21/16 Q1012=
METAR LPPT 091730Z 23012KT 200V270 9999 FEW020 22/15 Q1012=
METAR LPPT 091800Z 24011KT 9999 FEW022 22/15 Q1012=
METAR LPPT 091830Z 22010KT 190V250 9999 FEW015 21/16 Q1013=
METAR LPPT 091900Z 23011KT 9999 FEW015 21/16 Q1013=
METAR LPPT 091930Z 23011KT 9999 FEW012 SCT020 20/15 Q1013=
METAR LPPT 092000Z 23011KT 9999 FEW015 19/16 Q1013=
METAR LPPT 092030Z 23010KT 9999 FEW012 19/16 Q1014=
METAR LPPT 092100Z 24006KT 220V280 9999 FEW012 19/17 Q1014=
METAR LPPT 092130Z 23009KT 9999 SCT012 19/17 Q1014=
METAR LPPT 092200Z 25007KT 220V280 9999 SCT012 19/17 Q1014=
METAR LPPT 092230Z 23006KT 9999 SCT012 19/17 Q1015=
METAR LPPT 092300Z 23007KT 9999 FEW008 SCT012 19/17 Q1015=
METAR LPPT 092330Z 26006KT 240V310 9999 FEW010 19/17 Q1014=
METAR LPPT 100000Z 27004KT 9999 FEW010 19/17 Q1014=
METAR LPPT 100030Z 24007KT 9999 FEW010 19/17 Q1014=
METAR LPPT 100100Z 26004KT 230V290 9999 FEW010 19/17 Q1014=
METAR LPPT 100130Z 23006KT 9999 FEW010 18/17 Q1014=
METAR LPPT 100200Z 23006KT 9999 SCT009 18/17 Q1014=
METAR LPPT 100230Z 26006KT 9999 SCT008 18/17 Q1014=
METAR LPPT 100300Z 27004KT 230V300 9999 SCT008 18/17 Q1014=
METAR LPPT 100330Z 24003KT 9999 SCT008 18/17 Q1014=
METAR LPPT 100400Z 25003KT 9999 FEW010 18/17 Q1014=
METAR LPPT 100430Z 27004KT 9999 FEW010 18/17 Q1014=
METAR LPPT 100500Z 25003KT 220V290 9999 FEW008 18/17 Q1014=
METAR LPPT 100530Z VRB02KT 9999 FEW008 18/17 Q1014=
METAR LPPT 100600Z VRB01KT 9999 FEW008 18/16 Q1015=
METAR LPPT 100630Z 25004KT 220V280 9999 FEW010 18/17 Q1015=
METAR LPPT 100700Z 27005KT 230V290 9999 FEW010 19/16 Q1015=
METAR LPPT 100730Z VRB02KT 9999 FEW014 20/16 Q1015=
METAR LPPT 100800Z VRB02KT 9999 FEW015 21/15 Q1015=
METAR LPPT 100830Z 19004KT 120V270 9999 FEW018 20/15 Q1015=
METAR LPPT 100900Z 23004KT 210V270 9999 FEW016 SCT022 21/14 Q1016=
METAR LPPT 100930Z VRB03KT 9999 FEW017 SCT022 BKN034 22/15 Q1015=
METAR LPPT 101000Z 23006KT 170V280 9999 FEW025 SCT032 22/15 Q1016=
METAR LPPT 101030Z 21007KT 180V240 9999 FEW026 22/15 Q1016=
METAR LPPT 101100Z 21008KT 170V250 9999 FEW030 23/15 Q1016=
METAR LPPT 101130Z 23009KT 180V280 9999 FEW030 23/14 Q1015=
METAR LPPT 101200Z 22008KT 9999 FEW035 24/14 Q1015=
METAR LPPT 101230Z 22008KT 170V280 9999 FEW038 24/12 Q1015=
METAR LPPT 101300Z 22010KT 190V260 9999 FEW040 24/14 Q1015=
METAR LPPT 101330Z 24011G21KT 200V280 9999 FEW040 25/14 Q1015=
METAR LPPT 101400Z 22012KT 200V270 9999 FEW040 25/13 Q1015=
METAR LPPT 101430Z 23012KT 200V270 9999 FEW040 24/12 Q1015=
METAR LPPT 101500Z 22011KT 190V260 9999 FEW044 25/13 Q1015=
METAR LPPT 101530Z 22011KT 190V260 9999 FEW042 25/12 Q1015=
METAR LPPT 101600Z 25010KT 220V290 9999 FEW044 24/12 Q1015=
METAR LPPT 101630Z 23011KT 9999 FEW044 24/12 Q1015=
METAR LPPT 101700Z 26009KT 220V310 9999 FEW040 24/13 Q1015=
METAR LPPT 101730Z 26009KT 230V290 9999 FEW040 24/13 Q1015=
METAR LPPT 101800Z 27009KT 9999 FEW040 24/12 Q1015=
METAR LPPT 101830Z 30008KT 270V340 9999 FEW035 23/13 Q1015=
METAR LPPT 101900Z 31008KT 270V330 9999 FEW030 22/13 Q1015=
METAR LPPT 101930Z 32008KT 290V350 CAVOK 21/14 Q1015=
METAR LPPT 102000Z 32006KT 290V350 CAVOK 20/15 Q1016=
METAR LPPT 102030Z 31006KT CAVOK 20/15 Q1016=
METAR LPPT 102100Z 32004KT CAVOK 19/15 Q1016=
METAR LPPT 102130Z 32004KT CAVOK 19/15 Q1016=
METAR LPPT 102200Z 33006KT CAVOK 18/16 Q1016=
METAR LPPT 102230Z 32004KT CAVOK 18/16 Q1016=
METAR LPPT 102300Z 31004KT CAVOK 18/16 Q1016=
METAR LPPT 102330Z VRB01KT CAVOK 18/16 Q1016=
METAR LPPT 110000Z VRB01KT CAVOK 17/16 Q1016=
METAR LPPT 110030Z 00000KT CAVOK 17/15 Q1016=
METAR LPPT 110100Z 27001KT CAVOK 17/15 Q1016=
METAR LPPT 110130Z 00000KT CAVOK 16/15 Q1016=
METAR LPPT 110200Z VRB02KT CAVOK 16/15 Q1015=
METAR LPPT 110230Z 35003KT CAVOK 16/15 Q1015=
METAR LPPT 110300Z 27002KT CAVOK 16/15 Q1015=
METAR LPPT 110330Z 29001KT CAVOK 16/15 Q1015=
METAR LPPT 110400Z VRB01KT CAVOK 16/15 Q1015=
METAR LPPT 110430Z VRB02KT CAVOK 16/15 Q1015=
METAR LPPT 110500Z VRB02KT CAVOK 16/15 Q1015=
METAR LPPT 110530Z VRB02KT 9999 FEW008 17/16 Q1015=
METAR LPPT 110600Z 00000KT 9999 FEW005 18/16 Q1015=
METAR LPPT 110630Z 06004KT 010V110 8000 -SHRA FEW008 SCT012 FEW035CB 18/16 Q1015=
METAR LPPT 110700Z 00000KT 9999 -SHRA SCT008 SCT015 FEW045TCU 17/16 Q1016=
METAR LPPT 110730Z VRB02KT 9999 FEW005 18/17 Q1016=
METAR LPPT 110800Z 18006KT 150V220 9999 FEW010 19/17 Q1016=
METAR LPPT 110830Z 21005KT 180V240 9999 FEW010 SCT014 19/17 Q1016=
METAR LPPT 110900Z 19007KT 150V230 9999 FEW015 SCT018 20/16 Q1016=
METAR LPPT 110930Z 19007KT 160V220 9999 FEW018 SCT022 22/16 Q1016=
METAR LPPT 111000Z 25008KT 220V290 9999 FEW018 SCT022 21/16 Q1016=
METAR LPPT 111030Z 23009KT 190V260 9999 SCT022 22/16 Q1016=
METAR LPPT 111100Z 23008KT 200V270 9999 FEW025 22/15 Q1016=
METAR LPPT 111130Z 23010KT 180V260 9999 FEW025 23/15 Q1016=
METAR LPPT 111200Z 23011KT 210V270 9999 FEW025 23/15 Q1016=
METAR LPPT 111230Z 24010KT 200V270 9999 FEW028 23/14 Q1016=
METAR LPPT 111300Z 23011KT 190V280 9999 FEW030 23/14 Q1016=
METAR LPPT 111330Z 24010KT 190V280 9999 FEW030 24/14 Q1016=
METAR LPPT 111400Z 22011KT 9999 FEW035 24/14 Q1016=
METAR LPPT 111430Z 23011KT 200V260 9999 FEW024 23/16 Q1016=
METAR LPPT 111500Z 24012KT 200V260 9999 FEW028 23/16 Q1016=
METAR LPPT 111530Z 24010KT 200V280 9999 FEW034 24/15 Q1016=
METAR LPPT 111600Z 24010KT 190V300 9999 FEW032 24/15 Q1016=
METAR LPPT 111630Z 22012KT 9999 FEW030 24/15 Q1016=
METAR LPPT 111700Z 22012KT 200V260 9999 FEW025 23/16 Q1015=
METAR LPPT 111730Z 23012KT 210V270 9999 FEW025 23/15 Q1015=
METAR LPPT 111800Z 23009KT 200V260 9999 FEW025 22/16 Q1015=
METAR LPPT 111830Z 24008KT 9999 FEW025 22/16 Q1015=
METAR LPPT 111900Z 23009KT 9999 FEW025 21/16 Q1015=
METAR LPPT 111930Z 25008KT 9999 FEW020 21/16 Q1015=
METAR LPPT 112000Z 25008KT 9999 FEW015 21/16 Q1015=
METAR LPPT 112030Z 26007KT 9999 FEW015 20/16 Q1015=
METAR LPPT 112100Z 26006KT 9999 FEW015 20/16 Q1015=
METAR LPPT 112130Z 26005KT CAVOK 20/16 Q1016=
METAR LPPT 112200Z 27005KT 230V300 CAVOK 20/16 Q1016=
METAR LPPT 112230Z VRB02KT CAVOK 20/16 Q1016=
METAR LPPT 112300Z 35004KT 310V050 CAVOK 19/16 Q1016=
METAR LPPT 112330Z 28003KT CAVOK 19/16 Q1016=
METAR LPPT 120000Z 26004KT 230V300 CAVOK 19/16 Q1016=
METAR LPPT 120030Z 34004KT 300V360 CAVOK 19/16 Q1015=
METAR LPPT 120100Z 30003KT 260V330 CAVOK 19/16 Q1015=
METAR LPPT 120130Z 33003KT 300V360 CAVOK 19/16 Q1015=
METAR LPPT 120200Z 23002KT CAVOK 19/16 Q1015=
METAR LPPT 120230Z 22003KT CAVOK 19/16 Q1014=
METAR LPPT 120300Z VRB01KT CAVOK 18/16 Q1014=
METAR LPPT 120330Z VRB02KT CAVOK 18/16 Q1014=
METAR LPPT 120400Z 15003KT 130V230 CAVOK 19/16 Q1013=
METAR LPPT 120430Z VRB02KT 9999 FEW010 18/16 Q1013=
METAR LPPT 120500Z 18004KT 150V250 9999 FEW008 18/17 Q1013=
METAR LPPT 120530Z 25004KT 220V280 9999 FEW008 SCT012 18/17 Q1013=
METAR LPPT 120600Z 26003KT 230V290 9999 FEW008 SCT012 18/17 Q1013=
METAR LPPT 120630Z 24004KT 9999 FEW008 SCT012 19/18 Q1013=
METAR LPPT 120700Z 23007KT 9999 FEW008 BKN012 19/17 Q1014=
METAR LPPT 120730Z 23006KT 9999 FEW009 SCT014 20/17 Q1014=
METAR LPPT 120800Z 19007KT 150V220 9999 FEW010 SCT016 20/16 Q1014=
METAR LPPT 120830Z 17007KT 130V210 9999 FEW014 BKN020 20/16 Q1014=
METAR LPPT 120900Z 17008KT 130V230 9999 FEW014 SCT018 21/16 Q1014=
METAR LPPT 120930Z 17008KT 130V200 9999 FEW015 SCT022 21/16 Q1014=
METAR LPPT 121000Z 18009KT 140V210 9999 BKN022 22/16 Q1014=
METAR LPPT 121030Z 17009KT 130V210 9999 SCT026 24/16 Q1014=
METAR LPPT 121100Z 21008KT 170V240 9999 SCT028 24/16 Q1013=
METAR LPPT 121130Z 21011KT 180V250 9999 SCT030 24/16 Q1013=
METAR LPPT 121200Z 20013KT 9999 SCT030 25/15 Q1013=
METAR LPPT 121230Z 21013KT 180V240 9999 FEW024 SCT030 24/17 Q1013=
METAR LPPT 121300Z 21014KT 9999 FEW022 BKN028 24/17 Q1013=
METAR LPPT 121330Z 21014KT 9999 FEW020 SCT028 24/16 Q1013=
METAR LPPT 121400Z 22014KT 9999 FEW020 SCT028 24/17 Q1013=
METAR LPPT 121430Z 21014KT 9999 FEW020 BKN023 23/16 Q1013=
METAR LPPT 121500Z 22012KT 190V250 9999 FEW020 BKN023 23/17 Q1012=
METAR LPPT 121530Z 22010KT 9999 FEW020 BKN023 23/17 Q1012=
METAR COR LPPT 121600Z 22011KT 9999 FEW018 BKN022 23/17 Q1012=
METAR LPPT 121630Z 23012KT 9999 FEW016 BKN022 22/17 Q1012=
METAR LPPT 121700Z 24011KT 9999 FEW014 BKN034 22/17 Q1012=
METAR LPPT 121730Z 23011KT 9999 FEW013 BKN034 22/18 Q1012=
METAR LPPT 121800Z 28012KT 250V310 9999 FEW012 BKN030 21/17 Q1012=
METAR LPPT 121830Z 29011KT 260V320 9999 SCT010 BKN012 19/17 Q1012=
METAR LPPT 121900Z 30013KT 9999 SCT011 BKN014 19/16 Q1012=
METAR LPPT 121930Z 29013KT 260V320 9999 SCT014 BKN017 19/16 Q1013=
METAR LPPT 122000Z 29010KT 270V330 9999 FEW016 SCT020 19/15 Q1013=
METAR LPPT 122030Z 30011G21KT 270V330 9999 FEW016 SCT020 19/15 Q1013=
METAR LPPT 122100Z 30010KT 9999 FEW016 SCT020 19/15 Q1013=
METAR LPPT 122130Z 30010KT 9999 FEW016 18/15 Q1014=
METAR LPPT 122200Z 30009KT 9999 FEW016 18/15 Q1014=
METAR LPPT 122230Z 30009KT 9999 FEW016 18/15 Q1014=
METAR LPPT 122300Z 31007KT 9999 FEW015 18/15 Q1014=
METAR LPPT 122330Z 30005KT 270V340 9999 SCT015 SCT025 18/15 Q1014=
METAR LPPT 130000Z 30004KT 270V330 9999 FEW015 SCT022 18/15 Q1014=
METAR LPPT 130030Z 29006KT 260V320 9999 FEW015 18/15 Q1014=
METAR LPPT 130100Z 30006KT 9999 FEW015 18/15 Q1014=
METAR LPPT 130130Z 30004KT 9999 FEW015 17/15 Q1014=
METAR LPPT 130200Z 30004KT 250V330 9999 FEW015 17/15 Q1014=
METAR LPPT 130230Z 29004KT 240V330 9999 FEW015 17/14 Q1014=
METAR LPPT 130300Z 30004KT 9999 FEW015 17/15 Q1014=
METAR LPPT 130330Z 30004KT 9999 FEW015 17/14 Q1014=
METAR LPPT 130400Z 28003KT 250V320 9999 FEW015 17/14 Q1014=
METAR LPPT 130430Z 28004KT 250V310 9999 FEW015 17/15 Q1014=
METAR LPPT 130500Z 30006KT 9999 FEW015 17/15 Q1014=
METAR LPPT 130530Z 30006KT 260V330 9999 FEW015 17/15 Q1014=
METAR LPPT 130600Z 30006KT 9999 FEW015 17/15 Q1014=
METAR LPPT 130630Z 30006KT 260V330 9999 FEW015 18/15 Q1015=
METAR LPPT 130700Z 31008KT 260V350 9999 FEW015 SCT024 19/15 Q1015=
METAR LPPT 130730Z 33008KT 290V010 9999 SCT016 BKN028 20/15 Q1015=
METAR LPPT 130800Z 31005KT 280V020 9999 SCT016 BKN040 19/15 Q1015=
METAR LPPT 130830Z 31007KT 270V360 9999 FEW016 SCT026 20/15 Q1015=
METAR LPPT 130900Z 30008KT 9999 FEW020 SCT026 20/14 Q1015=
METAR LPPT 130930Z 31008KT 280V350 9999 FEW024 SCT030 21/14 Q1015=
METAR LPPT 131000Z 33010KT 290V350 9999 FEW024 BKN028 21/14 Q1015=
METAR LPPT 131030Z 32009KT 260V360 9999 FEW025 BKN030 21/13 Q1015=
METAR LPPT 131100Z 32010KT 280V360 9999 FEW025 SCT030 22/13 Q1015=
METAR LPPT 131130Z 33013KT 290V360 9999 FEW030 SCT036 23/12 Q1015=
METAR LPPT 131200Z 32012KT 290V360 9999 FEW030 SCT036 23/11 Q1015=
METAR LPPT 131230Z 34014KT 310V010 9999 FEW035 23/11 Q1015=
METAR LPPT 131300Z 33012KT 290V010 9999 FEW040 24/11 Q1015=
METAR LPPT 131330Z 34015KT 9999 SCT042 23/12 Q1015=
METAR LPPT 131400Z 34016KT 9999 SCT040 23/12 Q1015=
METAR LPPT 131430Z 33014KT 300V360 9999 SCT040 23/12 Q1015=
METAR LPPT 131500Z 33014KT 290V010 9999 FEW040 23/13 Q1015=
METAR LPPT 131530Z 31012KT 280V350 9999 FEW040 23/11 Q1015=
METAR LPPT 131600Z 33017KT 9999 FEW042 23/11 Q1015=
METAR LPPT 131630Z 34015KT 9999 FEW042 23/11 Q1015=
METAR LPPT 131700Z 31012KT 270V350 9999 FEW038 22/12 Q1015=
METAR LPPT 131730Z 34015KT 9999 FEW035 22/12 Q1015=
METAR LPPT 131800Z 31009KT 280V340 9999 FEW035 22/13 Q1015=
METAR LPPT 131830Z 32013KT 280V360 9999 FEW030 21/13 Q1016=
METAR LPPT 131900Z 33014KT 9999 FEW026 20/13 Q1016=
METAR LPPT 131930Z 34011KT 9999 SCT026 20/13 Q1016=
METAR LPPT 132000Z 33013KT 280V350 9999 FEW022 19/14 Q1016=
METAR LPPT 132030Z 32009KT 280V350 9999 SCT020 19/14 Q1016=
METAR LPPT 132100Z 33007KT 290V360 9999 BKN018 18/14 Q1017=
METAR LPPT 132130Z 32007KT 280V360 9999 FEW018 BKN020 18/15 Q1017=
METAR LPPT 132200Z 32008KT 290V350 9999 SCT017 18/15 Q1017=
METAR LPPT 132230Z 33008KT 300V360 9999 BKN016 18/15 Q1018=
METAR LPPT 132300Z 34010KT 310V010 9999 FEW015 SCT018 18/15 Q1018=
METAR LPPT 132330Z 34012KT 9999 FEW016 BKN018 18/15 Q1018=
METAR LPPT 140000Z 35008KT 9999 FEW016 BKN018 17/15 Q1018=
METAR LPPT 140030Z 35007KT 9999 FEW014 BKN016 17/15 Q1018=
METAR LPPT 140100Z 35007KT 9999 FEW014 17/15 Q1017=
METAR LPPT 140130Z 33009KT 9999 FEW014 17/15 Q1017=
METAR LPPT 140200Z 35004KT 290V040 9999 FEW014 BKN016 17/15 Q1017=
METAR LPPT 140230Z 33009KT 9999 FEW014 BKN016 17/15 Q1017=
METAR LPPT 140300Z 33008KT 9999 FEW014 BKN016 17/15 Q1017=
METAR LPPT 140330Z 34009KT 290V020 9999 FEW015 17/14 Q1017=
METAR LPPT 140400Z 33010KT 9999 FEW015 17/14 Q1016=
METAR LPPT 140430Z 34009KT 310V010 9999 FEW016 17/14 Q1017=
METAR LPPT 140500Z 35007KT 330V030 9999 FEW014 17/14 Q1016=
METAR LPPT 140530Z 36007KT 320V030 9999 FEW014 17/14 Q1017=
METAR LPPT 140600Z 35010KT 310V020 9999 FEW012 17/14 Q1017=
METAR LPPT 140630Z 34011KT 9999 FEW014 18/14 Q1017=
METAR LPPT 140700Z 34010KT 310V010 9999 FEW014 18/15 Q1017=
METAR COR LPPT 140730Z 35010KT 310V020 9999 FEW016 19/15 Q1018=
METAR LPPT 140800Z 35010KT 310V020 9999 FEW018 19/15 Q1018=
METAR LPPT 140830Z 36010KT 330V030 9999 FEW020 20/15 Q1018=
METAR LPPT 140900Z 34008KT 300V020 9999 FEW022 21/15 Q1018=
METAR LPPT 140930Z 01008KT 340V050 9999 FEW025 22/14 Q1018=
METAR LPPT 141000Z 34007KT 250V040 9999 FEW025 22/15 Q1018=
METAR LPPT 141030Z 34008KT 290V020 9999 FEW025 23/15 Q1018=
METAR LPPT 141100Z 33008KT 300V030 9999 FEW025 24/15 Q1017=
METAR LPPT 141130Z 34007KT 290V030 9999 FEW030 25/15 Q1017=
METAR LPPT 141200Z 33009KT 300V040 9999 FEW030 25/15 Q1017=
METAR LPPT 141230Z 32009KT 280V350 9999 FEW030 25/15 Q1017=
METAR LPPT 141300Z 32009KT 250V360 9999 FEW030 26/15 Q1017=
METAR LPPT 141330Z 32008KT 280V020 9999 FEW030 26/15 Q1017=
METAR LPPT 141400Z 31009KT 270V360 9999 FEW035 26/15 Q1017=
METAR LPPT 141430Z 32010G20KT 290V350 9999 FEW040 26/15 Q1016=
METAR LPPT 141500Z 30012KT 9999 FEW040 25/15 Q1016=
METAR LPPT 141530Z 33012KT 290V350 9999 FEW040 26/16 Q1016=
METAR LPPT 141600Z 31012KT 290V350 9999 FEW040 25/15 Q1017=
METAR LPPT 141630Z 31011KT 290V350 9999 FEW040 26/15 Q1016=
METAR LPPT 141700Z 32011KT 290V350 9999 FEW040 25/15 Q1017=
METAR LPPT 141730Z 32011KT 290V360 9999 FEW035 25/16 Q1017=
METAR LPPT 141800Z 32010KT 280V350 9999 FEW030 24/15 Q1017=
METAR LPPT 141830Z 32010KT 290V360 9999 FEW025 23/15 Q1017=
METAR LPPT 141900Z 32012KT 290V350 9999 FEW020 22/15 Q1017=
METAR LPPT 141930Z 32013KT 9999 FEW020 21/16 Q1017=
METAR LPPT 142000Z 32011KT 290V350 9999 FEW020 20/15 Q1018=
METAR LPPT 142030Z 33012KT 9999 FEW020 19/15 Q1018=
METAR LPPT 142100Z 32010KT 290V350 9999 FEW020 19/15 Q1018=
METAR LPPT 142130Z 31011KT CAVOK 19/15 Q1018=
METAR LPPT 142200Z 31008KT CAVOK 18/15 Q1018=
METAR LPPT 142230Z 33010KT CAVOK 18/15 Q1019=
METAR LPPT 142300Z 33013KT CAVOK 18/15 Q1019=
METAR LPPT 142330Z 33012KT CAVOK 18/15 Q1019=
METAR LPPT 150000Z 33013KT CAVOK 18/15 Q1018=
METAR LPPT 150030Z 33010KT CAVOK 18/15 Q1018=
METAR LPPT 150100Z 33010KT CAVOK 17/15 Q1018=
METAR LPPT 150130Z 33008KT CAVOK 17/15 Q1018=
METAR LPPT 150200Z 31007KT 290V350 CAVOK 17/15 Q1018=
METAR LPPT 150230Z 33008KT CAVOK 17/15 Q1017=
METAR LPPT 150300Z 32007KT 290V350 CAVOK 17/15 Q1017=
METAR LPPT 150330Z 33008KT CAVOK 17/14 Q1017=
METAR LPPT 150400Z 33010KT CAVOK 17/14 Q1017=
METAR LPPT 150430Z 32007KT 290V350 CAVOK 17/14 Q1017=
METAR LPPT 150500Z 33007KT CAVOK 17/14 Q1017=
METAR LPPT 150530Z 33007KT CAVOK 17/14 Q1017=
METAR LPPT 150600Z 32007KT CAVOK 18/14 Q1017=
METAR LPPT 150630Z 34006KT CAVOK 19/14 Q1018=
METAR LPPT 150700Z 34007KT CAVOK 20/14 Q1018=
METAR LPPT 150730Z 35006KT CAVOK 21/15 Q1018=
METAR LPPT 150800Z 36005KT 330V050 CAVOK 22/14 Q1018=
METAR LPPT 150830Z 01004KT 320V050 CAVOK 23/15 Q1018=
METAR LPPT 150900Z 01006KT 320V040 CAVOK 25/15 Q1018=
METAR LPPT 150930Z 05005G16KT 340V130 CAVOK 25/17 Q1018=
METAR LPPT 151000Z 07008G20KT 350V110 CAVOK 26/16 Q1018=
METAR LPPT 151030Z 07007KT 030V100 CAVOK 26/16 Q1018=
METAR LPPT 151100Z 07007KT 040V100 CAVOK 28/16 Q1018=
METAR LPPT 151130Z 08007G22KT 340V130 CAVOK 29/16 Q1018=
METAR LPPT 151200Z 07005KT 360V130 CAVOK 29/15 Q1018=
METAR LPPT 151230Z 09005KT 340V140 CAVOK 30/15 Q1017=
METAR LPPT 151300Z VRB04KT CAVOK 31/14 Q1017=
METAR LPPT 151330Z VRB04KT CAVOK 32/13 Q1017=
METAR LPPT 151400Z VRB06G19KT CAVOK 33/13 Q1016=
METAR LPPT 151430Z VRB03G13KT CAVOK 33/11 Q1016=
METAR LPPT 151500Z 16005KT 070V210 CAVOK 33/12 Q1016=
METAR LPPT 151530Z 22006KT 140V270 CAVOK 34/12 Q1016=
METAR LPPT 151600Z 31010KT 280V350 CAVOK 32/17 Q1016=
METAR LPPT 151630Z 29008KT 260V320 CAVOK 31/18 Q1016=
METAR LPPT 151700Z 30011KT CAVOK 30/17 Q1016=
METAR LPPT 151730Z 32012KT 290V350 CAVOK 29/17 Q1016=
METAR LPPT 151800Z 32013KT CAVOK 29/14 Q1015=
METAR LPPT 151830Z 33015KT 290V350 CAVOK 28/16 Q1016=
METAR LPPT 151900Z 32014KT CAVOK 27/16 Q1016=
METAR LPPT 151930Z 32013KT CAVOK 26/16 Q1016=
METAR LPPT 152000Z 31012KT CAVOK 25/15 Q1016=
METAR LPPT 152030Z 32012KT CAVOK 25/14 Q1016=
METAR LPPT 152100Z 32011KT CAVOK 24/13 Q1016=
METAR LPPT 152130Z 32011KT CAVOK 23/13 Q1016=
METAR LPPT 152200Z 32010KT CAVOK 23/14 Q1017=
METAR LPPT 152230Z 33009KT 290V350 CAVOK 22/14 Q1017=
METAR LPPT 152300Z 35008KT CAVOK 22/14 Q1017=
METAR LPPT 152330Z 34006KT CAVOK 22/14 Q1017=
METAR LPPT 160000Z 34007KT 320V020 CAVOK 22/14 Q1017=
METAR LPPT 160030Z 32006KT CAVOK 22/14 Q1016=
METAR LPPT 160100Z 33006KT CAVOK 22/13 Q1016=
METAR LPPT 160130Z 33007KT CAVOK 22/13 Q1016=
METAR LPPT 160200Z 33008KT CAVOK 22/13 Q1016=
METAR LPPT 160230Z 32007KT CAVOK 22/13 Q1016=
METAR LPPT 160300Z 32005KT CAVOK 22/13 Q1015=
METAR LPPT 160330Z 32007KT CAVOK 22/12 Q1015=
METAR LPPT 160400Z 31008KT CAVOK 22/12 Q1015=
METAR LPPT 160430Z 31009KT CAVOK 21/13 Q1015=
METAR LPPT 160500Z 32009KT CAVOK 21/13 Q1016=
METAR LPPT 160530Z 31009KT CAVOK 20/14 Q1016=
METAR LPPT 160600Z 32009KT 9999 FEW005 20/15 Q1016=
METAR LPPT 160630Z 31010KT 9999 FEW008 20/15 Q1016=
METAR LPPT 160700Z 32010KT 9999 FEW008 21/16 Q1016=
METAR LPPT 160730Z 32010KT 9999 FEW008 21/16 Q1016=
METAR LPPT 160800Z 32010KT 9999 FEW010 22/16 Q1017=
METAR LPPT 160830Z 31008KT 9999 FEW012 23/17 Q1017=
METAR LPPT 160900Z 33010KT 290V350 CAVOK 25/17 Q1017=
METAR LPPT 160930Z 32009KT 280V350 9999 FEW015 25/17 Q1017=
METAR LPPT 161000Z 34007KT 300V020 9999 FEW018 27/17 Q1016=
METAR LPPT 161030Z 34007KT 290V020 9999 FEW020 28/17 Q1016=
METAR LPPT 161100Z 34008KT 280V020 9999 FEW020 29/17 Q1016=
METAR LPPT 161130Z 33008KT 290V360 CAVOK 29/17 Q1016=
METAR LPPT 161200Z 33009KT 270V360 CAVOK 30/18 Q1016=
METAR LPPT 161230Z 33009KT 290V360 CAVOK 30/17 Q1016=
METAR LPPT 161300Z 32009KT 290V360 CAVOK 30/18 Q1016=
METAR LPPT 161330Z 33012KT 290V360 CAVOK 30/17 Q1016=
METAR LPPT 161400Z 33012KT 290V350 CAVOK 30/17 Q1015=
METAR LPPT 161430Z 31010KT 270V350 CAVOK 30/16 Q1015=
METAR LPPT 161500Z 31010KT 280V340 CAVOK 30/16 Q1015=
METAR LPPT 161530Z 32012KT CAVOK 30/16 Q1015=
METAR LPPT 161600Z 32014KT 280V340 CAVOK 29/16 Q1015=
METAR LPPT 161630Z 33018KT CAVOK 28/17 Q1015=
METAR LPPT 161700Z 33016KT 290V350 CAVOK 28/15 Q1015=
METAR LPPT 161730Z 32015KT 290V350 CAVOK 27/15 Q1015=
METAR LPPT 161800Z 33016KT CAVOK 27/14 Q1015=
METAR LPPT 161830Z 31013KT 290V350 CAVOK 26/15 Q1015=
METAR LPPT 161900Z 32016KT CAVOK 25/14 Q1015=
METAR LPPT 161930Z 33014G25KT CAVOK 24/15 Q1015=
METAR LPPT 162000Z 32010KT 290V350 CAVOK 22/15 Q1015=
METAR LPPT 162030Z 34009KT 310V010 9999 FEW015 21/14 Q1015=
METAR LPPT 162100Z 35007KT 320V020 9999 FEW015 21/14 Q1016=
METAR LPPT 162130Z 34009KT 9999 FEW012 20/15 Q1016=
METAR LPPT 162200Z 33009KT 9999 FEW012 20/16 Q1016=
METAR LPPT 162230Z 34010KT 9999 FEW012 20/16 Q1016=
METAR LPPT 162300Z 34009KT 9999 FEW012 19/17 Q1016=
METAR LPPT 162330Z 34007KT 300V010 9999 FEW012 19/17 Q1016=
METAR LPPT 170000Z 34006KT 310V020 9999 FEW010 19/17 Q1016=
METAR LPPT 170030Z 34007KT 9999 FEW010 19/17 Q1016=
METAR LPPT 170100Z 35005KT 290V020 9999 FEW010 19/17 Q1016=
METAR LPPT 170130Z 33006KT 300V360 9999 FEW010 19/16 Q1015=
METAR LPPT 170200Z 34006KT 300V010 9999 FEW010 19/17 Q1015=
METAR LPPT 170230Z 33009KT 9999 FEW010 18/16 Q1015=
METAR LPPT 170300Z 34009KT 9999 FEW010 18/16 Q1015=
METAR LPPT 170330Z 33010KT 9999 FEW012 18/16 Q1015=
METAR LPPT 170400Z 32012KT 9999 FEW012 18/16 Q1014=
METAR LPPT 170430Z 31014KT 9999 FEW012 18/16 Q1014=
METAR LPPT 170500Z 31013KT 9999 FEW012 18/16 Q1014=
METAR LPPT 170530Z 31012KT 9999 FEW012 18/16 Q1014=
METAR LPPT 170600Z 33011KT 9999 FEW014 18/16 Q1015=
METAR LPPT 170630Z 33012KT 300V360 9999 FEW014 19/16 Q1015=
METAR LPPT 170700Z 32010KT 290V350 9999 FEW014 19/16 Q1015=
METAR LPPT 170730Z 32013KT 9999 FEW014 20/16 Q1015=
METAR LPPT 170800Z 32009KT 290V350 9999 FEW015 21/16 Q1015=
METAR LPPT 170830Z 33011KT 300V360 9999 FEW015 22/16 Q1015=
METAR LPPT 170900Z 33010KT 280V010 9999 FEW020 23/16 Q1015=
METAR LPPT 170930Z 31009KT 280V340 9999 FEW020 23/16 Q1015=
METAR LPPT 171000Z 32008KT 280V360 9999 FEW025 24/17 Q1015=
METAR LPPT 171030Z 32008KT 280V350 9999 FEW025 25/17 Q1015=
METAR LPPT 171100Z 31010KT 280V350 9999 FEW025 25/17 Q1015=
METAR LPPT 171130Z 29007KT 260V330 9999 FEW025 26/17 Q1015=
METAR LPPT 171200Z 34008KT 290V020 9999 FEW025 27/15 Q1014=
METAR LPPT 171230Z 33010KT 280V360 9999 FEW030 28/15 Q1014=
METAR LPPT 171300Z 33010KT 280V360 CAVOK 27/15 Q1014=
METAR LPPT 171330Z 33010KT 300V360 CAVOK 28/15 Q1014=
METAR LPPT 171400Z 32010KT 280V350 CAVOK 26/16 Q1014=
METAR LPPT 171430Z 32010KT 280V350 CAVOK 27/14 Q1013=
METAR LPPT 171500Z 33011KT 280V360 9999 FEW045 28/13 Q1013=
METAR LPPT 171530Z 32010KT 290V350 9999 FEW045 27/14 Q1013=
METAR LPPT 171600Z 31011KT 290V350 9999 FEW045 26/13 Q1013=
METAR LPPT 171630Z 32012KT 290V350 9999 FEW045 26/13 Q1013=
METAR LPPT 171700Z 32012KT 290V350 CAVOK 25/13 Q1013=
METAR LPPT 171730Z 32011KT 270V350 CAVOK 25/14 Q1013=
METAR LPPT 171800Z 32013KT 280V350 CAVOK 24/12 Q1013=
METAR LPPT 171830Z 31013KT CAVOK 23/13 Q1013=
METAR LPPT 171900Z 32014G24KT 290V350 9999 FEW020 22/14 Q1013=
METAR LPPT 171930Z 32011KT 290V350 9999 FEW020 21/15 Q1013=
METAR LPPT 172000Z 32011G22KT 9999 FEW016 20/16 Q1014=
METAR LPPT 172030Z 33010KT 9999 FEW016 19/16 Q1014=
METAR LPPT 172100Z 32013KT 9999 FEW016 19/16 Q1014=
METAR LPPT 172130Z 33014KT CAVOK 19/16 Q1014=
METAR LPPT 172200Z 32014KT CAVOK 19/16 Q1014=
METAR LPPT 172230Z 32011KT CAVOK 19/16 Q1013=
METAR LPPT 172300Z 33013KT 9999 FEW014 19/16 Q1013=
METAR LPPT 172330Z 33010KT 9999 FEW014 19/16 Q1013=
METAR LPPT 180000Z 34009KT 320V020 9999 FEW013 19/15 Q1013=
METAR LPPT 180030Z 36005KT 300V050 9999 FEW013 18/16 Q1013=
METAR LPPT 180100Z 36005KT 9999 FEW011 18/16 Q1013=
METAR LPPT 180130Z 34006KT 9999 FEW011 18/16 Q1013=
METAR LPPT 180200Z 33006KT 290V350 9999 FEW011 18/16 Q1013=
METAR LPPT 180230Z 33011KT 9999 FEW011 18/16 Q1013=
METAR LPPT 180300Z 33010KT 9999 FEW012 18/16 Q1013=
METAR LPPT 180330Z 33008KT 9999 FEW012 18/16 Q1013=
METAR LPPT 180400Z 34008KT 9999 FEW012 18/16 Q1013=
METAR LPPT 180430Z 35006KT 310V010 9999 FEW010 18/16 Q1013=
METAR LPPT 180500Z 35004KT 320V020 9999 FEW010 18/16 Q1013=
METAR LPPT 180530Z 04003KT 9999 FEW010 18/16 Q1013=
METAR LPPT 180600Z VRB01KT 9999 FEW010 18/16 Q1013=
METAR LPPT 180630Z 34004KT 9999 FEW010 18/16 Q1013=
METAR LPPT 180700Z 34005KT 9999 FEW010 19/16 Q1013=
METAR LPPT 180730Z 32005KT 9999 FEW012 19/16 Q1013=
METAR LPPT 180800Z 32004KT 280V020 9999 FEW014 20/16 Q1013=
METAR LPPT 180830Z 34005KT 290V070 9999 FEW016 21/16 Q1013=
METAR LPPT 180900Z 35006KT 310V030 9999 FEW018 22/15 Q1013=
METAR LPPT 180930Z 01006KT 330V060 9999 FEW020 23/15 Q1013=
METAR LPPT 181000Z 30005KT 220V020 9999 FEW030 24/15 Q1013=
METAR LPPT 181030Z 35006KT 290V030 9999 FEW030 24/15 Q1013=
METAR LPPT 181100Z 34007KT 290V060 9999 FEW035 25/15 Q1013=
METAR LPPT 181130Z VRB04KT 9999 FEW035 25/15 Q1013=
METAR LPPT 181200Z 28005KT 220V010 9999 FEW040 26/15 Q1013=
METAR LPPT 181230Z VRB04KT 9999 FEW040 26/14 Q1013=
METAR LPPT 181300Z 36005KT 270V080 9999 FEW040 26/14 Q1012=
METAR LPPT 181330Z 32006KT 270V360 9999 FEW040 26/15 Q1012=
METAR LPPT 181400Z 31006KT 220V020 9999 FEW040 26/15 Q1012=
METAR LPPT 181430Z VRB05KT 9999 FEW040 26/14 Q1012=
METAR LPPT 181500Z 27006KT 210V350 9999 FEW045 26/14 Q1012=
METAR LPPT 181530Z 30007KT 260V350 9999 FEW045 25/15 Q1012=
METAR LPPT 181600Z 32009KT CAVOK 24/15 Q1012=
METAR LPPT 181630Z 31008KT CAVOK 23/15 Q1012=
METAR LPPT 181700Z 29009KT 240V330 9999 FEW025 23/15 Q1012=
METAR LPPT 181730Z 30009KT 9999 FEW020 22/15 Q1012=
METAR LPPT 181800Z 32010KT 9999 FEW020 21/16 Q1012=
METAR LPPT 181830Z 32008KT CAVOK 21/15 Q1012=
METAR LPPT 181900Z 30006KT 280V350 CAVOK 21/15 Q1011=
METAR LPPT 181930Z 30005KT 270V360 CAVOK 21/15 Q1011=
METAR LPPT 182000Z 30006KT CAVOK 21/15 Q1012=
METAR LPPT 182030Z 31007KT 280V340 CAVOK 21/14 Q1012=
METAR LPPT 182100Z 30008KT CAVOK 20/16 Q1012=
METAR LPPT 182130Z 30008KT 9999 FEW012 20/16 Q1012=
METAR LPPT 182200Z 31005KT 9999 FEW012 19/16 Q1012=
METAR LPPT 182230Z 31006KT 290V350 9999 FEW012 19/17 Q1012=
METAR LPPT 182300Z 29007KT 9999 FEW012 19/17 Q1012=
METAR LPPT 182330Z 30005KT 270V330 9999 FEW012 19/17 Q1012=
METAR LPPT 190000Z 21003KT 170V280 9999 FEW012 19/17 Q1012=
METAR LPPT 190030Z VRB01KT 9999 FEW012 19/17 Q1012=
METAR LPPT 190100Z 25003KT 230V290 9999 FEW012 19/16 Q1011=
METAR LPPT 190130Z VRB01KT 9999 FEW012 19/16 Q1011=
METAR LPPT 190200Z 24005KT 9999 FEW012 19/16 Q1011=
METAR LPPT 190230Z 24003KT 9999 FEW012 19/16 Q1011=
METAR LPPT 190300Z 26002KT 9999 FEW012 19/17 Q1011=
METAR LPPT 190330Z 26002KT 9999 FEW012 18/17 Q1010=
METAR LPPT 190400Z 27003KT 240V300 9999 FEW010 19/17 Q1010=
METAR LPPT 190430Z 26004KT 9999 FEW009 18/17 Q1010=
METAR LPPT 190500Z VRB02KT 9999 FEW008 18/17 Q1010=
METAR LPPT 190530Z VRB02KT 9999 FEW008 18/17 Q1010=
METAR LPPT 190600Z 23002KT 9999 FEW010 19/17 Q1010=
METAR LPPT 190630Z 26005KT 9999 FEW007 19/17 Q1010=
METAR LPPT 190700Z 22006KT 180V240 9999 FEW008 19/17 Q1010=
METAR LPPT 190730Z 22005KT 190V280 9999 FEW010 20/17 Q1010=
METAR LPPT 190800Z 21005KT 180V270 9999 SCT012 20/16 Q1010=
METAR LPPT 190830Z 20008KT 170V230 9999 FEW007 SCT016 22/17 Q1010=
METAR LPPT 190900Z 20008KT 170V230 9999 FEW012 SCT020 22/16 Q1010=
METAR LPPT 190930Z 20010KT 9999 FEW007 SCT018 22/15 Q1011=
METAR LPPT 191000Z 21007KT 170V250 9999 FEW020 22/16 Q1010=
METAR LPPT 191030Z 19010KT 160V220 9999 FEW012 SCT020 22/16 Q1010=
METAR LPPT 191100Z 23010KT 180V250 9999 FEW020 BKN040 22/16 Q1010=
METAR LPPT 191130Z 19011KT 9999 SCT020 BKN030 23/16 Q1010=
METAR LPPT 191200Z 22010KT 170V250 9999 FEW022 23/17 Q1010=
METAR LPPT 191230Z 20011KT 9999 SCT024 24/17 Q1010=
METAR LPPT 191300Z 21013KT 160V240 9999 SCT024 BKN042 23/16 Q1010=
METAR LPPT 191330Z 21014KT 9999 SCT018 BKN036 23/17 Q1010=
METAR LPPT 191400Z 21015KT 9999 SCT014 BKN032 22/18 Q1010=
METAR LPPT 191430Z 21014KT 9999 VCSH FEW012 BKN016 22/18 Q1010=
METAR LPPT 191500Z 21013KT 9000 -RA SCT010 BKN015 22/18 Q1010=
METAR LPPT 191530Z 21010KT 9999 FEW010 BKN014 22/18 Q1010=
METAR LPPT 191600Z 21012KT 9999 FEW012 BKN015 21/18 Q1010=
METAR LPPT 191630Z 21012KT 9999 FEW011 SCT014 BKN030 21/18 Q1010=
METAR LPPT 191700Z 21011KT 9999 FEW012 SCT016 BKN028 21/17 Q1010=
METAR LPPT 191730Z 22010KT 200V260 9999 FEW012 SCT018 BKN042 22/18 Q1010=
METAR LPPT 191800Z 22011KT 9999 FEW012 SCT016 21/17 Q1010=
METAR LPPT 191830Z 25009KT 9999 FEW014 SCT020 21/17 Q1010=
METAR LPPT 191900Z 24010KT 9999 FEW012 SCT018 21/17 Q1010=
METAR LPPT 191930Z 24008KT 9999 FEW011 SCT020 21/18 Q1010=
METAR LPPT 192000Z 29007KT 250V310 9999 FEW010 SCT018 20/17 Q1010=
METAR LPPT 192030Z 30006KT 270V330 9999 FEW010 20/17 Q1011=
METAR LPPT 192100Z 29005KT 250V330 9999 FEW013 19/17 Q1011=
METAR LPPT 192130Z 28005KT 250V340 9999 FEW013 SCT032 19/17 Q1011=
METAR LPPT 192200Z 30007KT 9999 FEW014 19/17 Q1012=
METAR LPPT 192230Z 31006KT 9999 -SHRA FEW009 SCT016 BKN020 19/17 Q1012=
METAR LPPT 192300Z 30005KT 270V340 9999 FEW012 19/17 Q1012=
METAR LPPT 192330Z 31006KT 9999 FEW010 SCT048 19/17 Q1012=
METAR LPPT 200000Z 30007KT 9999 FEW011 BKN046 18/16 Q1012=
METAR LPPT 200030Z 30008KT 9999 FEW011 18/16 Q1012=
METAR LPPT 200100Z 31009KT 9999 FEW012 18/16 Q1011=
METAR LPPT 200130Z 30008KT 9999 FEW012 18/16 Q1011=
METAR LPPT 200200Z 30006KT 9999 FEW012 18/15 Q1012=
METAR LPPT 200230Z 29004KT 9999 FEW012 18/15 Q1012=
METAR LPPT 200300Z 30005KT 9999 FEW012 18/15 Q1012=
METAR LPPT 200330Z 30005KT 9999 FEW012 17/15 Q1012=
METAR LPPT 200400Z 30005KT 9999 FEW012 17/15 Q1012=
METAR LPPT 200430Z 29003KT 9999 FEW012 17/15 Q1012=
METAR LPPT 200500Z 28003KT 9999 FEW012 17/15 Q1012=
METAR LPPT 200530Z 28004KT 9999 FEW012 17/15 Q1013=
METAR LPPT 200600Z 29004KT 9999 FEW012 17/15 Q1013=
METAR LPPT 200630Z 31003KT 9999 FEW003 18/15 Q1013=
METAR LPPT 200700Z 32004KT 290V350 9999 FEW012 18/15 Q1013=
METAR LPPT 200730Z 32005KT 270V360 9999 FEW012 19/16 Q1013=
METAR LPPT 200800Z 35006KT 320V020 9999 FEW018 20/15 Q1014=
METAR LPPT 200830Z 35005KT 280V060 9999 FEW018 SCT025 21/15 Q1014=
METAR LPPT 200900Z 28003KT 220V360 9999 SCT025 20/14 Q1014=
METAR LPPT 200930Z 21005KT 180V260 9999 SCT028 20/14 Q1014=
METAR LPPT 201000Z 12003KT 070V160 9999 SCT028 21/14 Q1014=
METAR LPPT 201030Z VRB05G17KT 9999 SCT030 21/14 Q1014=
METAR LPPT 201100Z VRB06KT 9999 SCT033 22/14 Q1014=
METAR LPPT 201130Z 20006KT 120V260 9999 SCT033 22/14 Q1014=
METAR LPPT 201200Z 26006KT 210V300 9999 SCT032 23/13 Q1014=
METAR LPPT 201230Z 25009KT 210V280 9999 FEW032 23/14 Q1014=
METAR LPPT 201300Z 24011KT 9999 FEW032 22/15 Q1014=
METAR LPPT 201330Z 24009KT 210V290 9999 FEW035 24/14 Q1014=
METAR LPPT 201400Z 29008KT 230V350 9999 SCT040 24/13 Q1014=
METAR LPPT 201430Z 29006KT 230V330 9999 SCT040 24/13 Q1014=
METAR LPPT 201500Z 29008KT 230V340 9999 FEW040 24/13 Q1014=
METAR LPPT 201530Z 29007KT 250V340 9999 FEW040 25/12 Q1014=
METAR LPPT 201600Z 31010KT 9999 FEW040 23/12 Q1013=
METAR LPPT 201630Z 31008KT 290V350 9999 FEW040 23/12 Q1013=
METAR LPPT 201700Z 28008KT 240V330 9999 FEW040 24/11 Q1013=
METAR LPPT 201730Z 30008KT 9999 FEW040 23/13 Q1013=
METAR LPPT 201800Z 31009KT 9999 FEW030 22/13 Q1013=
METAR LPPT 201830Z 31009KT 280V350 9999 FEW030 22/13 Q1014=
METAR LPPT 201900Z 33010KT 290V350 9999 FEW025 21/12 Q1014=
METAR LPPT 201930Z 32007KT 270V350 CAVOK 21/14 Q1014=
METAR LPPT 202000Z 33009KT CAVOK 20/13 Q1014=
METAR LPPT 202030Z 33007KT CAVOK 20/14 Q1014=
METAR LPPT 202100Z 33009KT CAVOK 19/15 Q1014=
METAR LPPT 202130Z 33008KT CAVOK 19/15 Q1014=
METAR LPPT 202200Z 33007KT CAVOK 19/15 Q1014=
METAR LPPT 202230Z 34007KT CAVOK 19/14 Q1015=
METAR LPPT 202300Z 01006KT 320V070 CAVOK 19/15 Q1015=
METAR LPPT 202330Z 35004KT CAVOK 18/15 Q1015=
METAR LPPT 210000Z 36003KT CAVOK 18/15 Q1014=
METAR LPPT 210030Z 35004KT CAVOK 18/15 Q1014=
METAR LPPT 210100Z 02004KT CAVOK 18/15 Q1014=
METAR LPPT 210130Z 36006KT CAVOK 18/15 Q1014=
METAR LPPT 210200Z 36004KT 330V030 CAVOK 18/15 Q1014=
METAR LPPT 210230Z 33004KT CAVOK 18/15 Q1014=
METAR LPPT 210300Z 34005KT 9999 -RA NSC 18/15 Q1013=
METAR LPPT 210330Z 35006KT CAVOK 18/15 Q1013=
METAR LPPT 210400Z 33004KT 300V360 CAVOK 18/14 Q1013=
METAR LPPT 210430Z 36003KT CAVOK 18/14 Q1013=
METAR LPPT 210500Z 33004KT CAVOK 18/14 Q1013=
METAR LPPT 210530Z 32006KT CAVOK 18/14 Q1013=
METAR LPPT 210600Z 34007KT 9999 FEW045CB 18/14 Q1013=
METAR LPPT 210630Z 30006KT 9999 VCSH FEW020 FEW045TCU 18/13 Q1014=
METAR LPPT 210700Z 31009KT 9999 FEW025 FEW045TCU 18/13 Q1014=
METAR LPPT 210730Z 31010KT 9999 FEW015 17/11 Q1015=
METAR LPPT 210800Z 32009KT 290V350 9999 FEW015 18/13 Q1015=
METAR LPPT 210830Z 32008KT 300V360 9999 -RA FEW015 18/14 Q1015=
METAR LPPT 210900Z 35010KT 9999 FEW015 19/11 Q1015=
METAR LPPT 210930Z 35006KT 310V050 9999 -RA FEW025 18/12 Q1015=
METAR LPPT 211000Z 03004KT 330V070 9999 VCSH FEW022 18/12 Q1015=
METAR LPPT 211030Z VRB04KT 9999 FEW022 19/12 Q1015=
METAR LPPT 211100Z 08006G18KT 040V120 9999 -RA FEW030 20/12 Q1015=
METAR LPPT 211130Z 06004KT 030V110 9999 -RA FEW022 20/11 Q1016=
METAR LPPT 211200Z 01004KT 310V060 9999 FEW028 21/12 Q1016=
METAR LPPT 211230Z 33006KT 290V010 9999 FEW030 21/12 Q1015=
METAR LPPT 211300Z VRB05KT 9999 FEW033 22/11 Q1015=
METAR LPPT 211330Z 32007KT 270V050 9999 FEW040 22/12 Q1015=
METAR LPPT 211400Z VRB05KT 9999 FEW042 24/12 Q1015=
METAR LPPT 211430Z VRB07KT 9999 FEW042 23/13 Q1015=
METAR LPPT 211500Z VRB04KT 9999 FEW035 BKN040 23/13 Q1015=
METAR LPPT 211530Z 13004KT 060V190 9999 FEW035 BKN038 22/12 Q1015=
METAR LPPT 211600Z 35007KT 310V030 9999 FEW035 SCT048 24/12 Q1015=
METAR LPPT 211630Z 35008KT 310V030 9999 FEW035 SCT046 25/12 Q1015=
METAR LPPT 211700Z 33010KT 300V360 9999 FEW035 SCT045 24/13 Q1015=
METAR LPPT 211730Z 32009KT 280V350 9999 FEW035 24/13 Q1016=
METAR LPPT 211800Z 31009KT 9999 FEW030 23/13 Q1016=
METAR LPPT 211830Z 32011KT 290V360 9999 FEW025 22/13 Q1016=
METAR LPPT 211900Z 34012KT 310V010 9999 FEW025 22/13 Q1016=
METAR LPPT 211930Z 32010KT 290V350 9999 FEW025 21/13 Q1016=
METAR LPPT 212000Z 33008KT 300V360 9999 FEW025 20/14 Q1017=
METAR LPPT 212030Z 33010KT 300V360 9999 FEW015 20/14 Q1017=
METAR LPPT 212100Z 35007KT 9999 FEW015 19/14 Q1017=
METAR LPPT 212130Z 34008KT 300V360 9999 FEW015 19/14 Q1018=
METAR LPPT 212200Z 34010KT 9999 FEW015 18/15 Q1018=
METAR LPPT 212230Z 33012KT CAVOK 18/15 Q1018=
METAR LPPT 212300Z 34009KT 310V020 9999 FEW015 18/15 Q1019=
METAR LPPT 212330Z 33006KT 9999 FEW015 18/15 Q1019=
METAR LPPT 220000Z 34006KT 280V360 9999 FEW013 18/15 Q1019=
METAR LPPT 220030Z 34006KT 9999 FEW013 17/15 Q1019=
METAR LPPT 220100Z 35006KT 9999 FEW013 17/15 Q1019=
METAR LPPT 220130Z 34006KT 300V360 9999 FEW013 17/15 Q1019=
METAR COR LPPT 220200Z 35008KT 9999 FEW013 17/15 Q1019=
METAR LPPT 220230Z 34006KT 9999 FEW012 17/15 Q1019=
METAR LPPT 220300Z 35005KT 9999 FEW012 17/15 Q1019=
METAR LPPT 220330Z 33006KT 290V020 9999 FEW010 17/15 Q1019=
METAR LPPT 220400Z 34004KT 9999 FEW010 17/15 Q1019=
METAR LPPT 220430Z 32006KT 290V350 9999 FEW010 17/15 Q1019=
METAR LPPT 220500Z 34007KT 310V010 9999 FEW010 17/15 Q1019=
METAR LPPT 220530Z 32006KT 290V350 9999 FEW010 17/15 Q1019=
METAR LPPT 220600Z 34008KT 310V010 9999 FEW012 17/15 Q1019=
METAR LPPT 220630Z 35011KT 9999 FEW012 18/15 Q1020=
METAR LPPT 220700Z 34012KT 9999 FEW012 19/15 Q1020=
METAR LPPT 220730Z 34007KT 310V010 9999 FEW012 19/15 Q1020=
METAR LPPT 220800Z 35007KT 310V030 9999 FEW012 20/15 Q1020=
METAR LPPT 220830Z 36010KT 330V030 9999 FEW012 21/15 Q1020=
METAR LPPT 220900Z 35008KT 310V040 9999 FEW015 22/14 Q1021=
METAR LPPT 220930Z 32007KT 290V020 9999 FEW015 22/14 Q1021=
METAR LPPT 221000Z 32006KT 250V010 9999 FEW020 24/14 Q1021=
METAR LPPT 221030Z 35007KT 300V070 9999 FEW020 24/14 Q1021=
METAR LPPT 221100Z VRB05KT 9999 FEW025 25/13 Q1021=
METAR LPPT 221130Z 06006KT 020V100 9999 FEW025 26/14 Q1021=
METAR LPPT 221200Z VRB06G17KT 9999 FEW030 26/14 Q1021=
METAR LPPT 221230Z 35010KT 300V050 9999 FEW035 27/13 Q1020=
METAR LPPT 221300Z 34007KT 270V040 9999 FEW035 27/13 Q1020=
METAR LPPT 221330Z 34011KT 300V020 9999 FEW040 27/14 Q1020=
METAR LPPT 221400Z 32012KT 280V360 9999 FEW040 27/15 Q1020=
METAR LPPT 221430Z 33011KT 290V010 9999 FEW040 27/14 Q1020=
METAR LPPT 221500Z 31012KT 270V340 9999 FEW040 26/14 Q1020=
METAR LPPT 221530Z 31011KT 260V350 9999 FEW040 27/13 Q1021=
METAR LPPT 221600Z 32012KT 280V350 9999 FEW040 26/14 Q1021=
METAR LPPT 221630Z 31012KT CAVOK 26/14 Q1020=
METAR LPPT 221700Z 31013KT 280V340 CAVOK 26/15 Q1020=
METAR LPPT 221730Z 32013G23KT 280V350 CAVOK 25/15 Q1020=
METAR LPPT 221800Z 31011KT CAVOK 25/15 Q1021=
METAR LPPT 221830Z 32012KT CAVOK 24/15 Q1021=
METAR LPPT 221900Z 33013KT CAVOK 24/15 Q1021=
METAR LPPT 221930Z 32012KT CAVOK 23/15 Q1021=
METAR LPPT 222000Z 32012KT CAVOK 22/15 Q1021=
METAR LPPT 222030Z 32012KT CAVOK 21/15 Q1021=
METAR LPPT 222100Z 32012KT CAVOK 20/15 Q1021=
METAR LPPT 222130Z 31012KT CAVOK 20/15 Q1021=
METAR LPPT 222200Z 32013KT CAVOK 19/16 Q1021=
METAR LPPT 222230Z 32013KT CAVOK 19/16 Q1021=
METAR LPPT 222300Z 32011KT CAVOK 19/16 Q1021=
METAR LPPT 222330Z 32010KT CAVOK 19/15 Q1021=
METAR LPPT 230000Z 32010KT CAVOK 19/15 Q1021=
METAR LPPT 230030Z 32010KT CAVOK 19/16 Q1021=
METAR LPPT 230100Z 31009KT CAVOK 19/16 Q1021=
METAR LPPT 230130Z 33010KT CAVOK 19/16 Q1021=
METAR LPPT 230200Z 33009KT CAVOK 18/15 Q1021=
METAR LPPT 230230Z 33009KT CAVOK 19/15 Q1020=
METAR LPPT 230300Z 32009KT CAVOK 19/15 Q1020=
METAR LPPT 230330Z 33010KT CAVOK 18/16 Q1020=
METAR LPPT 230400Z 32009KT CAVOK 18/16 Q1020=
METAR LPPT 230430Z 32009KT CAVOK 18/16 Q1020=
METAR LPPT 230500Z 32009KT CAVOK 18/16 Q1020=
METAR LPPT 230530Z 33007KT CAVOK 18/16 Q1020=
METAR LPPT 230600Z 33007KT CAVOK 19/16 Q1020=
METAR LPPT 230630Z 33009KT CAVOK 19/16 Q1021=
METAR LPPT 230700Z 33007KT CAVOK 20/16 Q1021=
METAR LPPT 230730Z 34008KT CAVOK 21/17 Q1020=
METAR LPPT 230800Z 01007KT CAVOK 23/17 Q1021=
METAR LPPT 230830Z 04006KT 350V110 CAVOK 24/17 Q1021=
METAR LPPT 230900Z 06005KT 010V100 CAVOK 26/18 Q1020=
METAR LPPT 230930Z 05006G17KT 360V110 CAVOK 27/18 Q1020=
METAR LPPT 231000Z 06007G20KT 360V110 CAVOK 27/18 Q1020=
METAR LPPT 231030Z 07007G18KT 320V120 CAVOK 28/18 Q1020=
METAR LPPT 231100Z 09007G18KT 040V120 CAVOK 29/17 Q1020=
METAR LPPT 231130Z 07006KT 330V110 CAVOK 31/16 Q1020=
METAR LPPT 231200Z 07007KT 040V110 CAVOK 32/15 Q1020=
METAR LPPT 231230Z 07007G20KT 020V120 CAVOK 32/14 Q1019=
METAR LPPT 231300Z VRB06KT CAVOK 34/13 Q1019=
METAR LPPT 231330Z 05007KT 340V090 CAVOK 34/11 Q1019=
METAR LPPT 231400Z VRB07G22KT CAVOK 35/12 Q1018=
METAR LPPT 231430Z 04005KT 310V100 CAVOK 35/12 Q1018=
METAR LPPT 231500Z 31004KT 240V050 CAVOK 35/11 Q1018=
METAR LPPT 231530Z VRB04KT CAVOK 36/16 Q1017=
METAR LPPT 231600Z 31011KT 280V350 CAVOK 34/18 Q1017=
METAR LPPT 231630Z 32011KT 280V350 CAVOK 34/18 Q1017=
METAR LPPT 231700Z 32012KT CAVOK 33/17 Q1017=
METAR LPPT 231730Z 31012KT 290V350 CAVOK 33/16 Q1017=
METAR LPPT 231800Z 33011KT CAVOK 32/15 Q1017=
METAR LPPT 231830Z 32010KT CAVOK 32/14 Q1017=
METAR LPPT 231900Z 31009KT 280V340 CAVOK 30/14 Q1017=
METAR LPPT 231930Z 32011KT CAVOK 30/14 Q1017=
METAR LPPT 232000Z 33011KT CAVOK 29/14 Q1017=
METAR LPPT 232030Z 32011KT CAVOK 28/14 Q1017=
METAR LPPT 232100Z 32011KT CAVOK 27/14 Q1017=
METAR LPPT 232130Z 33010KT CAVOK 27/14 Q1017=
METAR LPPT 232200Z 33009KT CAVOK 26/14 Q1017 WS R02=
METAR LPPT 232230Z 33011KT CAVOK 27/13 Q1017 WS R02=
METAR LPPT 232300Z 34012KT CAVOK 27/14 Q1017 WS R02=
METAR LPPT 232330Z 34011KT CAVOK 27/14 Q1016 WS R02=
METAR LPPT 240000Z 33010KT CAVOK 26/14 Q1016 WS R02=
METAR LPPT 240030Z 33011KT CAVOK 27/14 Q1016 WS R02=
METAR LPPT 240100Z 33011KT CAVOK 27/14 Q1016 WS R02=
METAR LPPT 240130Z 33009KT CAVOK 26/14 Q1016 WS R02=
METAR LPPT 240200Z 33008KT CAVOK 26/15 Q1015 WS R02=
METAR LPPT 240230Z 33008KT CAVOK 26/15 Q1015 WS R02=
METAR LPPT 240300Z 33008KT CAVOK 26/15 Q1015 WS R02=
METAR LPPT 240330Z 33006KT CAVOK 25/15 Q1015 WS R02=
METAR LPPT 240400Z 33007KT CAVOK 25/15 Q1015 WS R02=
METAR LPPT 240430Z 33007KT CAVOK 24/15 Q1015 WS R02=
METAR LPPT 240500Z 32007KT CAVOK 24/15 Q1015 WS R02=
METAR LPPT 240530Z VRB04KT CAVOK 24/15 Q1016 WS R02=
METAR LPPT 240600Z 00000KT CAVOK 23/16 Q1016=
METAR LPPT 240630Z VRB02KT CAVOK 24/16 Q1016=
METAR LPPT 240700Z 33003KT 270V350 CAVOK 25/16 Q1016=
METAR LPPT 240730Z VRB02KT CAVOK 26/16 Q1016=
METAR LPPT 240800Z VRB02KT CAVOK 27/16 Q1016=
METAR LPPT 240830Z VRB04KT CAVOK 27/16 Q1017=
METAR LPPT 240900Z 09004KT 030V200 CAVOK 28/16 Q1017=
METAR LPPT 240930Z VRB06KT CAVOK 28/17 Q1017=
METAR LPPT 241000Z VRB06G24KT CAVOK 28/17 Q1017=
METAR LPPT 241030Z VRB04KT CAVOK 29/17 Q1017=
METAR LPPT 241100Z 10005G16KT 010V180 CAVOK 30/16 Q1016=
METAR LPPT 241130Z 09005G18KT 040V130 CAVOK 30/16 Q1016=
METAR LPPT 241200Z VRB06KT CAVOK 32/16 Q1016=
METAR LPPT 241230Z 10004KT 340V150 CAVOK 32/16 Q1016=
METAR LPPT 241300Z VRB04KT CAVOK 34/16 Q1016=
METAR LPPT 241330Z 32008KT 210V010 CAVOK 33/20 Q1016=
METAR LPPT 241400Z 31008KT 270V010 CAVOK 34/20 Q1015=
METAR LPPT 241430Z 31009KT 280V350 CAVOK 33/20 Q1015=
METAR LPPT 241500Z 32009KT 290V350 CAVOK 32/20 Q1015=
METAR LPPT 241530Z 31011KT 280V340 CAVOK 32/20 Q1015=
METAR LPPT 241600Z 32013KT 290V350 CAVOK 31/20 Q1015=
METAR LPPT 241630Z 31012KT CAVOK 31/20 Q1015=
METAR LPPT 241700Z 32012KT CAVOK 31/19 Q1015=
METAR LPPT 241730Z 32012KT CAVOK 30/18 Q1015=
METAR LPPT 241800Z 32013KT CAVOK 29/19 Q1015=
METAR LPPT 241830Z 31014KT CAVOK 28/19 Q1015=
METAR LPPT 241900Z 32015KT CAVOK 27/17 Q1015=
METAR LPPT 241930Z 32015KT CAVOK 26/15 Q1015=
METAR LPPT 242000Z 32014KT CAVOK 25/14 Q1015=
METAR LPPT 242030Z 32012KT CAVOK 24/14 Q1015=
METAR LPPT 242100Z 33016KT CAVOK 24/14 Q1016=
METAR LPPT 242130Z 32015KT CAVOK 23/15 Q1016=
METAR LPPT 242200Z 32015KT CAVOK 22/15 Q1016=
METAR LPPT 242230Z 32012KT 300V360 CAVOK 22/15 Q1016=
METAR LPPT 242300Z 33011KT 290V350 CAVOK 22/16 Q1016=
METAR LPPT 242330Z 34010KT 310V010 CAVOK 21/16 Q1016=
METAR LPPT 250000Z 33014KT CAVOK 21/16 Q1016=
METAR LPPT 250030Z 32012KT CAVOK 21/17 Q1016=
METAR LPPT 250100Z 33012KT CAVOK 20/17 Q1016=
METAR LPPT 250130Z 33010KT CAVOK 20/17 Q1016=
METAR LPPT 250200Z 31010KT CAVOK 20/17 Q1016=
METAR LPPT 250230Z 31007KT 270V010 CAVOK 20/17 Q1016=
METAR LPPT 250300Z 33009KT CAVOK 20/17 Q1016=
METAR LPPT 250330Z 31007KT 290V350 CAVOK 20/17 Q1016=
METAR LPPT 250400Z 32010KT CAVOK 20/16 Q1016=
METAR LPPT 250430Z 32009KT CAVOK 20/16 Q1016=
METAR LPPT 250500Z 32011KT CAVOK 20/15 Q1016=
METAR LPPT 250530Z 32010KT CAVOK 20/14 Q1016=
METAR LPPT 250600Z 32010KT CAVOK 20/14 Q1017=
METAR LPPT 250630Z 33010KT CAVOK 20/15 Q1017=
METAR LPPT 250700Z 32010KT 280V350 CAVOK 21/15 Q1017=
METAR LPPT 250730Z 33012KT CAVOK 22/15 Q1017=
METAR LPPT 250800Z 32012KT CAVOK 22/15 Q1017=
METAR LPPT 250830Z 34011KT CAVOK 24/15 Q1017=
METAR LPPT 250900Z 33009KT 300V360 CAVOK 25/15 Q1017=
METAR LPPT 250930Z 33010KT 290V360 CAVOK 26/15 Q1018=
METAR LPPT 251000Z 35013KT CAVOK 27/15 Q1018=
METAR LPPT 251030Z 34012KT 300V010 CAVOK 28/16 Q1018=
METAR LPPT 251100Z 36012KT 320V020 CAVOK 29/14 Q1018=
METAR LPPT 251130Z 35012KT CAVOK 30/14 Q1018=
METAR LPPT 251200Z 35012KT CAVOK 31/13 Q1017=
METAR LPPT 251230Z 34011KT 310V010 CAVOK 31/12 Q1017=
METAR LPPT 251300Z 33011KT 290V020 CAVOK 32/13 Q1017=
METAR LPPT 251330Z 34012KT 310V010 CAVOK 32/13 Q1017=
METAR LPPT 251400Z 35011KT 320V020 CAVOK 32/12 Q1017=
METAR LPPT 251430Z 33011KT 300V360 CAVOK 32/12 Q1017=
METAR LPPT 251500Z 34015KT CAVOK 32/12 Q1017=
METAR LPPT 251530Z 35013KT 310V020 CAVOK 32/12 Q1017=
METAR LPPT 251600Z 34012KT 280V010 CAVOK 32/13 Q1017=
METAR LPPT 251630Z 32011KT 290V360 CAVOK 31/12 Q1017=
METAR LPPT 251700Z 32012KT CAVOK 30/13 Q1017=
METAR LPPT 251730Z 32012KT 290V350 CAVOK 29/13 Q1017=
METAR LPPT 251800Z 32015KT CAVOK 28/13 Q1017=
METAR LPPT 251830Z 33014KT CAVOK 27/14 Q1017=
METAR LPPT 251900Z 33012KT CAVOK 26/14 Q1017=
METAR LPPT 251930Z 34012KT 300V360 CAVOK 25/14 Q1018=
METAR LPPT 252000Z 33007KT 250V050 CAVOK 24/14 Q1018=
METAR LPPT 252030Z VRB07KT 9999 FEW018 23/15 Q1018=
METAR LPPT 252100Z VRB06KT 9999 FEW018 22/15 Q1018=
METAR LPPT 252130Z VRB04KT 9999 FEW018 22/16 Q1019=
METAR LPPT 252200Z 30005KT 240V340 9999 FEW018 22/16 Q1019=
METAR LPPT 252230Z VRB04KT CAVOK 21/16 Q1019=
METAR LPPT 252300Z 34012KT CAVOK 21/16 Q1019=
METAR LPPT 252330Z 35004KT 270V030 CAVOK 21/16 Q1019=
METAR LPPT 260000Z 34007KT 280V090 CAVOK 21/16 Q1019=
METAR LPPT 260030Z 34012KT CAVOK 21/16 Q1019=
METAR LPPT 260100Z 34017KT CAVOK 20/16 Q1019=
METAR LPPT 260130Z 35016KT CAVOK 20/16 Q1018=
METAR LPPT 260200Z 34015KT CAVOK 20/16 Q1018=
METAR LPPT 260230Z 34013KT CAVOK 20/16 Q1018=
METAR LPPT 260300Z 35010KT CAVOK 20/17 Q1018=
METAR LPPT 260330Z 35011KT CAVOK 20/17 Q1018=
METAR LPPT 260400Z 33015KT CAVOK 20/16 Q1018=
METAR LPPT 260430Z 33010KT CAVOK 21/15 Q1018=
METAR LPPT 260500Z 31010KT 280V340 CAVOK 20/16 Q1018=
METAR LPPT 260530Z 32013KT 9999 FEW012 20/16 Q1018=
METAR LPPT 260600Z 33015KT 9999 FEW012 20/16 Q1018=
METAR LPPT 260630Z 33013KT 9999 FEW015 21/15 Q1018=
METAR LPPT 260700Z 33012KT 290V360 CAVOK 21/15 Q1018=
METAR LPPT 260730Z 34012KT 310V010 CAVOK 22/16 Q1019=
METAR LPPT 260800Z 36008KT 320V050 CAVOK 23/15 Q1019=
METAR LPPT 260830Z 34008KT 300V030 CAVOK 25/15 Q1019=
METAR LPPT 260900Z 34010KT 300V020 CAVOK 26/15 Q1019=
METAR LPPT 260930Z 33012KT 290V360 CAVOK 27/15 Q1019=
METAR LPPT 261000Z 35011KT CAVOK 28/15 Q1019=
METAR LPPT 261030Z 34012KT CAVOK 29/14 Q1019=
METAR LPPT 261100Z 34012KT CAVOK 30/13 Q1018=
METAR LPPT 261130Z 36013KT CAVOK 32/12 Q1018=
METAR LPPT 261200Z 36011KT 320V030 CAVOK 32/13 Q1018=
METAR LPPT 261230Z 33009KT 290V010 CAVOK 32/14 Q1018=
METAR LPPT 261300Z 34010KT 290V020 CAVOK 33/11 Q1018=
METAR LPPT 261330Z 32010KT 280V360 CAVOK 32/15 Q1018=
METAR LPPT 261400Z 32011KT 290V350 CAVOK 31/16 Q1018=
METAR LPPT 261430Z 32012KT 290V350 CAVOK 30/16 Q1018=
METAR LPPT 261500Z 32014KT CAVOK 31/14 Q1018=
METAR LPPT 261530Z 32014KT CAVOK 30/15 Q1017=
METAR LPPT 261600Z 32014KT CAVOK 29/15 Q1017=
METAR LPPT 261630Z 31015KT CAVOK 29/13 Q1017=
METAR LPPT 261700Z 31016KT CAVOK 28/12 Q1017=
METAR LPPT 261730Z 32014KT 290V350 CAVOK 28/13 Q1017=
METAR LPPT 261800Z 32013KT CAVOK 27/14 Q1017=
METAR LPPT 261830Z 32013KT CAVOK 25/15 Q1018=
METAR LPPT 261900Z 35008KT 310V020 CAVOK 24/15 Q1018=
METAR LPPT 261930Z 34008KT 300V020 CAVOK 23/16 Q1018=
METAR LPPT 262000Z 35006G16KT 280V060 CAVOK 22/16 Q1018=
METAR LPPT 262030Z 34011KT CAVOK 21/16 Q1018=
METAR LPPT 262100Z 34015KT CAVOK 21/16 Q1019=
METAR LPPT 262130Z 35010KT 310V030 CAVOK 21/16 Q1019=
METAR LPPT 262200Z 34011KT 300V010 9999 FEW012 21/17 Q1019=
METAR LPPT 262230Z 34011KT 290V360 9999 FEW012 20/17 Q1019=
METAR LPPT 262300Z 35007KT 320V060 9999 FEW012 20/17 Q1019=
METAR LPPT 262330Z 34008KT 300V030 9999 FEW012 20/17 Q1019=
METAR LPPT 270000Z VRB05KT 9999 FEW012 20/17 Q1018=
METAR LPPT 270030Z VRB03KT 9999 FEW012 20/17 Q1018=
METAR LPPT 270100Z VRB03KT 9999 FEW012 20/17 Q1018=
METAR LPPT 270130Z VRB03KT 9999 FEW011 20/18 Q1018=
METAR LPPT 270200Z VRB04KT 9999 FEW011 20/18 Q1017=
METAR LPPT 270230Z VRB03KT 9999 FEW011 19/17 Q1017=
METAR LPPT 270300Z VRB04KT 9999 FEW011 20/17 Q1017=
METAR COR LPPT 270330Z 25004KT 170V330 9999 FEW011 20/17 Q1017=
METAR LPPT 270400Z VRB04KT 9999 FEW010 20/17 Q1017=
METAR LPPT 270430Z 28005KT 230V330 9999 FEW009 19/18 Q1017=
METAR LPPT 270500Z 30004KT 240V350 9999 FEW009 19/17 Q1017=
METAR LPPT 270530Z VRB03KT 9999 FEW009 20/18 Q1017=
METAR LPPT 270600Z 32009KT 9999 FEW009 20/18 Q1017=
METAR LPPT 270630Z 32010KT 290V350 9999 FEW010 20/17 Q1017=
METAR LPPT 270700Z 31007KT 280V350 9999 FEW010 21/17 Q1016=
METAR LPPT 270730Z 31012KT 9999 FEW012 21/17 Q1016=
METAR LPPT 270800Z 32009KT 280V360 9999 FEW012 21/17 Q1017=
METAR LPPT 270830Z 31009KT 280V340 9999 FEW012 22/17 Q1017=
METAR LPPT 270900Z 31012KT 9999 FEW012 23/17 Q1017=
METAR LPPT 270930Z 32011KT 290V350 9999 FEW012 24/17 Q1017=
METAR LPPT 271000Z 32009KT 280V360 9999 FEW012 25/17 Q1017=
METAR LPPT 271030Z 31009KT 280V350 9999 FEW012 26/18 Q1017=
METAR LPPT 271100Z 33013KT 300V360 9999 FEW012 27/18 Q1016=
METAR LPPT 271130Z 33011KT 290V360 CAVOK 28/18 Q1016=
METAR LPPT 271200Z 33010G21KT 280V360 CAVOK 28/18 Q1016=
METAR LPPT 271230Z 34011KT 300V020 CAVOK 30/18 Q1016=
METAR LPPT 271300Z 34012KT 290V360 CAVOK 30/17 Q1016=
METAR LPPT 271330Z 34012KT 300V360 CAVOK 30/17 Q1015=
METAR LPPT 271400Z 33013KT 290V350 CAVOK 31/17 Q1015=
METAR LPPT 271430Z 31011KT 280V340 CAVOK 30/18 Q1015=
METAR LPPT 271500Z 31010KT CAVOK 30/18 Q1015=
METAR LPPT 271530Z 32012KT 290V350 CAVOK 30/18 Q1014=
METAR LPPT 271600Z 32012KT CAVOK 30/17 Q1014=
METAR LPPT 271630Z 31013KT CAVOK 28/17 Q1014=
METAR LPPT 271700Z 31013KT CAVOK 28/17 Q1014=
METAR LPPT 271730Z 32014KT CAVOK 27/17 Q1014=
METAR LPPT 271800Z 31013KT 280V340 CAVOK 26/17 Q1014=
METAR LPPT 271830Z 32014KT 9999 FEW018 25/17 Q1014=
METAR LPPT 271900Z 32014KT 9999 FEW018 24/17 Q1014=
METAR LPPT 271930Z 32014KT 9999 FEW015 23/17 Q1014=
METAR LPPT 272000Z 34017KT 9999 FEW015 22/17 Q1014=
METAR LPPT 272030Z 33016KT 9999 FEW015 21/17 Q1014=
METAR LPPT 272100Z 31012KT 290V350 9999 FEW012 21/17 Q1015=
METAR LPPT 272130Z VRB07KT CAVOK 21/17 Q1015=
METAR LPPT 272200Z 34011KT 310V020 CAVOK 20/17 Q1015 WS R02=
METAR LPPT 272230Z 33012KT CAVOK 20/17 Q1015 WS R02=
METAR COR LPPT 272300Z 34016KT CAVOK 20/17 Q1015=
METAR LPPT 272330Z 34013KT CAVOK 20/17 Q1015=
METAR LPPT 280000Z 33013KT CAVOK 20/17 Q1015=
METAR LPPT 280030Z 33015KT CAVOK 20/17 Q1014=
METAR LPPT 280100Z 34013KT CAVOK 20/17 Q1014=
METAR LPPT 280130Z 33010KT CAVOK 20/17 Q1014=
METAR LPPT 280200Z VRB04KT CAVOK 20/18 Q1014=
METAR LPPT 280230Z 32010KT 290V350 CAVOK 20/18 Q1014=
METAR LPPT 280300Z 31013KT CAVOK 20/18 Q1014=
METAR LPPT 280330Z 31014KT CAVOK 20/18 Q1014=
METAR LPPT 280400Z 32014KT CAVOK 20/18 Q1014=
METAR LPPT 280430Z 33016KT CAVOK 20/18 Q1013=
METAR LPPT 280500Z 31012KT 280V340 CAVOK 20/18 Q1014=
METAR LPPT 280530Z 31014KT CAVOK 19/18 Q1014=
METAR LPPT 280600Z 32014KT CAVOK 20/18 Q1014=
METAR LPPT 280630Z 31015KT 9999 FEW015 20/18 Q1014=
METAR LPPT 280700Z 33014KT 9999 FEW015 20/18 Q1014=
METAR LPPT 280730Z 32014KT 9999 FEW015 21/18 Q1014=
METAR LPPT 280800Z 31014KT 9999 FEW015 22/18 Q1015=
METAR LPPT 280830Z 32014KT CAVOK 23/18 Q1015=
METAR LPPT 280900Z 32014KT CAVOK 24/18 Q1015=
METAR LPPT 280930Z 33014KT CAVOK 25/18 Q1015=
METAR LPPT 281000Z 34013KT 300V360 CAVOK 26/18 Q1015=
METAR LPPT 281030Z 33010KT 280V360 CAVOK 28/18 Q1015=
METAR LPPT 281100Z 34014KT CAVOK 28/18 Q1015=
METAR LPPT 281130Z 34015KT CAVOK 29/18 Q1015=
METAR LPPT 281200Z 33015KT CAVOK 29/18 Q1015=
METAR LPPT 281230Z 33011KT 290V360 CAVOK 29/18 Q1015=
METAR LPPT 281300Z 31007KT 270V350 CAVOK 30/17 Q1015=
METAR LPPT 281330Z 33014KT 290V350 CAVOK 30/17 Q1015=
METAR LPPT 281400Z 34016KT CAVOK 30/18 Q1015=
METAR LPPT 281430Z 32013KT 290V350 CAVOK 29/18 Q1015=
METAR LPPT 281500Z 33018KT CAVOK 28/18 Q1014=
METAR LPPT 281530Z 32014KT 290V360 CAVOK 28/18 Q1014=
METAR LPPT 281600Z 32017KT CAVOK 27/17 Q1014=
METAR LPPT 281630Z 33018KT CAVOK 26/16 Q1014=
METAR LPPT 281700Z 31016KT CAVOK 25/16 Q1015=
METAR LPPT 281730Z 31013KT CAVOK 25/15 Q1015=
METAR LPPT 281800Z 31014G24KT 290V350 CAVOK 25/13 Q1015=
METAR LPPT 281830Z 32016G27KT 290V350 CAVOK 25/13 Q1015=
METAR LPPT 281900Z 33016G27KT CAVOK 24/13 Q1015=
METAR LPPT 281930Z 33014KT CAVOK 23/14 Q1016=
METAR LPPT 282000Z 33015G27KT CAVOK 23/13 Q1016=
METAR LPPT 282030Z 33019G29KT CAVOK 21/15 Q1016=
METAR LPPT 282100Z 32016KT CAVOK 21/15 Q1016=
METAR LPPT 282130Z 34013KT 310V010 CAVOK 21/16 Q1017=
METAR LPPT 282200Z 33015KT CAVOK 20/16 Q1017=
METAR LPPT 282230Z 33012KT 250V050 CAVOK 20/16 Q1017=
METAR LPPT 282300Z 33015G27KT CAVOK 20/16 Q1017=
METAR LPPT 282330Z 33010KT 290V010 CAVOK 20/16 Q1018=
METAR LPPT 290000Z 34012G22KT 310V010 CAVOK 20/16 Q1017=
METAR LPPT 290030Z 34019KT 9999 FEW014 20/16 Q1017=
METAR LPPT 290100Z 34019KT 9999 FEW012 19/16 Q1017=
METAR LPPT 290130Z 35021KT 9999 FEW012 19/16 Q1017=
METAR LPPT 290200Z 35017KT 9999 FEW012 19/16 Q1017=
METAR LPPT 290230Z 35018KT 9999 FEW012 19/16 Q1017=
METAR LPPT 290300Z VRB05KT 9999 FEW014 19/16 Q1017=
METAR LPPT 290330Z VRB05KT 9999 FEW014 19/15 Q1017=
METAR LPPT 290400Z 33006KT 270V030 9999 FEW014 19/15 Q1018=
METAR LPPT 290430Z 33016KT 9999 FEW014 18/15 Q1018=
METAR LPPT 290500Z 33016KT 9999 FEW014 18/15 Q1018=
METAR LPPT 290530Z 35009KT 320V030 9999 FEW014 18/15 Q1018=
METAR LPPT 290600Z 32017G28KT 9999 FEW015 18/15 Q1018 WS R02=
METAR LPPT 290630Z 33020KT 9999 FEW015 19/15 Q1018 WS R02=
METAR LPPT 290700Z 34015KT 9999 FEW015 19/15 Q1019 WS R02=
METAR LPPT 290730Z 34014KT 9999 FEW024 20/15 Q1019 WS R02=
METAR LPPT 290800Z 34014KT 310V020 9999 FEW020 21/15 Q1020=
METAR LPPT 290830Z 35015KT 9999 FEW020 22/15 Q1020=
METAR LPPT 290900Z 34015KT 9999 FEW020 23/15 Q1020=
METAR LPPT 290930Z 34017KT 9999 FEW020 24/15 Q1020=
METAR LPPT 291000Z 34019KT 9999 FEW025 24/15 Q1020=
METAR LPPT 291030Z 35020KT 9999 FEW025 24/15 Q1020=
METAR LPPT 291100Z 36022KT 9999 FEW030 24/15 Q1020=
METAR LPPT 291130Z 34020KT 9999 FEW030 25/15 Q1020=
METAR LPPT 291200Z 34019KT 9999 FEW030 25/16 Q1020=
METAR LPPT 291230Z 34020KT 9999 FEW030 25/16 Q1020=
METAR LPPT 291300Z 35017KT 320V030 9999 FEW030 26/16 Q1020 WS R02=
METAR LPPT 291330Z 34018KT 9999 FEW030 25/16 Q1020=
METAR LPPT 291400Z 34020KT 310V010 9999 FEW030 25/16 Q1020 WS R02=
METAR LPPT 291430Z 35020KT 9999 FEW028 25/16 Q1020 WS R02=
METAR LPPT 291500Z 34020KT 310V010 9999 FEW028 24/16 Q1020 WS R02=
METAR LPPT 291530Z 34022KT 310V010 9999 FEW028 24/16 Q1019 WS R02=
METAR LPPT 291600Z 34024KT 9999 FEW026 24/15 Q1019 WS R02=
METAR LPPT 291630Z 34025G35KT 9999 FEW026 24/15 Q1019 WS R02=
METAR LPPT 291700Z 34025KT 9999 FEW026 23/15 Q1019 WS R02=
METAR LPPT 291730Z 35027G37KT 9999 FEW026 22/15 Q1018 WS R02=
METAR LPPT 291800Z 34023G33KT 9999 FEW025 22/15 Q1018 WS R02=
METAR LPPT 291830Z 33022KT 9999 FEW025 21/15 Q1018 WS R02=
METAR LPPT 291900Z 34024G35KT 9999 FEW025 21/15 Q1019 WS R02=
METAR LPPT 291930Z 34018KT 9999 FEW025 20/15 Q1019 WS R02=
METAR LPPT 292000Z 34021KT 9999 FEW020 20/15 Q1019 WS R02=
METAR LPPT 292030Z 33022G32KT 9999 FEW020 19/15 Q1018 WS R02=
METAR LPPT 292100Z 33019KT 9999 FEW018 19/15 Q1019 WS R02=
METAR LPPT 292130Z 35012KT 310V010 9999 FEW015 19/15 Q1019 WS R02=
METAR LPPT 292200Z 35013KT 320V020 9999 FEW015 19/15 Q1019 WS R02=
METAR LPPT 292230Z 34016KT 300V360 9999 FEW015 19/15 Q1019 WS R02=
METAR LPPT 292300Z 34020KT 9999 FEW015 19/14 Q1019 WS R02=
METAR LPPT 292330Z 33020KT 9999 FEW012 19/14 Q1019 WS R02=
METAR LPPT 300000Z 34019KT 9999 FEW012 18/14 Q1019 WS R02=
METAR LPPT 300030Z 34017KT CAVOK 18/13 Q1019 WS R02=
METAR LPPT 300100Z 35017KT CAVOK 18/13 Q1018 WS R02=
METAR LPPT 300130Z 35023KT CAVOK 18/13 Q1018 WS R02=
METAR LPPT 300200Z 34026KT CAVOK 18/13 Q1018 WS R02=
METAR LPPT 300230Z 34023G33KT CAVOK 17/12 Q1018 WS R02=
METAR LPPT 300300Z 34022G33KT CAVOK 17/12 Q1018 WS R02=
METAR LPPT 300330Z 33017G29KT CAVOK 17/12 Q1018 WS R02=
METAR LPPT 300400Z 33018G31KT 300V360 CAVOK 17/12 Q1018 WS R02=
METAR LPPT 300430Z 33014G24KT CAVOK 17/13 Q1018 WS R02=
METAR LPPT 300500Z 33016G26KT CAVOK 17/12 Q1018 WS R02=
METAR LPPT 300530Z 33016KT CAVOK 17/12 Q1018 WS R02=
METAR LPPT 300600Z 34017KT CAVOK 17/12 Q1018=
METAR LPPT 300630Z 33015KT CAVOK 17/13 Q1018=
METAR LPPT 300700Z 33017KT CAVOK 18/12 Q1018=
METAR LPPT 300730Z 33012KT CAVOK 19/12 Q1018=
METAR LPPT 300800Z 33011KT 290V350 CAVOK 20/12 Q1019=
METAR LPPT 300830Z 33012KT CAVOK 22/13 Q1019=
METAR LPPT 300900Z 32010KT 290V350 CAVOK 23/13 Q1019=
METAR LPPT 300930Z 32010KT 290V360 CAVOK 23/13 Q1019=
METAR LPPT 301000Z 34013KT CAVOK 25/13 Q1019=
METAR LPPT 301030Z 33013KT CAVOK 26/13 Q1019=
METAR LPPT 301100Z 33013KT 300V010 CAVOK 26/13 Q1019=
METAR LPPT 301130Z 35013KT 310V010 CAVOK 28/13 Q1019=
METAR LPPT 301200Z 34015KT CAVOK 28/12 Q1019=
METAR LPPT 301230Z 33014KT 290V360 CAVOK 28/12 Q1019=
METAR LPPT 301300Z 34014KT 290V010 CAVOK 29/12 Q1019=
METAR LPPT 301330Z 35017KT CAVOK 28/10 Q1018=
METAR LPPT 301400Z 34015KT 310V010 CAVOK 28/11 Q1018=
METAR LPPT 301430Z 34018KT 310V010 CAVOK 28/11 Q1018=
METAR LPPT 301500Z 35017KT 310V010 CAVOK 27/11 Q1018=
METAR LPPT 301530Z 34022KT CAVOK 26/11 Q1018=
METAR LPPT 301600Z 33016KT CAVOK 26/12 Q1018=
METAR LPPT 301630Z 33019KT CAVOK 25/12 Q1017=
METAR LPPT 301700Z 33017KT 300V360 CAVOK 25/12 Q1017=
METAR LPPT 301730Z 33018KT CAVOK 25/12 Q1017=
METAR LPPT 301800Z 34020KT CAVOK 24/13 Q1017=
METAR LPPT 301830Z 33018KT CAVOK 23/12 Q1017=
METAR LPPT 301900Z 33017KT 300V360 CAVOK 22/13 Q1017=
METAR LPPT 301930Z 32016G28KT 290V350 CAVOK 22/12 Q1017=
METAR LPPT 302000Z 33021G34KT CAVOK 21/12 Q1017=
METAR LPPT 302030Z 34021KT CAVOK 21/12 Q1017=
METAR LPPT 302100Z 34023G33KT CAVOK 20/12 Q1018=
METAR LPPT 302130Z 33021KT CAVOK 20/12 Q1018=
METAR LPPT 302200Z 33019KT CAVOK 20/12 Q1018=
METAR LPPT 302230Z 33017KT CAVOK 20/12 Q1018=
METAR LPPT 302300Z 32013G24KT 290V350 CAVOK 20/12 Q1018=
METAR LPPT 302330Z 33012KT 290V350 CAVOK 20/12 Q1018=
