METAR LPPT 010000Z 34013KT 300V360 9999 FEW012 BKN014 21/18 Q1020=
METAR LPPT 010030Z 34011KT 9999 FEW010 BKN012 21/18 Q1020=
METAR LPPT 010100Z 34011KT 9999 FEW012 BKN014 21/18 Q1020=
METAR LPPT 010130Z 34013KT 9999 FEW010 BKN012 21/18 Q1020=
METAR LPPT 010200Z 34010KT 9999 -DZ FEW006 SCT008 BKN010 20/19 Q1020=
METAR LPPT 010230Z 33010KT 9999 -DZ FEW006 BKN010 20/19 Q1020=
METAR LPPT 010300Z 35009KT 9999 FEW010 BKN013 20/19 Q1019=
METAR LPPT 010330Z 34010KT 300V360 9999 FEW010 BKN014 20/18 Q1019=
METAR LPPT 010400Z 34012KT 9999 FEW010 BKN012 20/18 Q1019=
METAR LPPT 010430Z 34013KT 9999 FEW010 19/17 Q1019=
METAR LPPT 010500Z 34012KT 9999 FEW010 19/17 Q1019=
METAR LPPT 010530Z 34012KT 9999 FEW012 19/17 Q1019=
METAR LPPT 010600Z 34014KT 9999 BKN012 19/17 Q1019=
METAR LPPT 010630Z 34012KT 9999 FEW013 19/17 Q1020=
METAR LPPT 010700Z 36012KT 9999 FEW014 20/17 Q1020=
METAR LPPT 010730Z 35014KT 9999 FEW015 21/17 Q1020=
METAR LPPT 010800Z 35012KT 9999 FEW015 21/18 Q1020=
METAR LPPT 010830Z 36014KT 9999 FEW017 23/18 Q1020=
METAR LPPT 010900Z 36017KT 330V030 9999 FEW020 24/18 Q1020=
METAR LPPT 010930Z 35017G27KT 310V020 9999 SCT023 25/18 Q1020=
METAR LPPT 011000Z 36018KT 9999 FEW028 26/18 Q1020=
METAR LPPT 011030Z 34017KT 310V010 9999 FEW030 26/18 Q1020=
METAR LPPT 011100Z 35016KT 9999 FEW032 27/18 Q1020=
METAR LPPT 011130Z 34015KT 9999 FEW033 27/18 Q1019=
METAR LPPT 011200Z 33015KT 300V360 9999 FEW032 27/18 Q1019=
METAR LPPT 011230Z 34016KT 290V010 9999 FEW030 27/19 Q1019=
METAR LPPT 011300Z 34016KT 300V010 9999 FEW030 28/19 Q1019=
METAR LPPT 011330Z 34016KT 9999 FEW030 28/19 Q1018=
METAR LPPT 011400Z 33016KT 290V360 9999 FEW032 28/19 Q1018=
METAR LPPT 011430Z 35019KT 9999 FEW032 28/19 Q1018=
METAR LPPT 011500Z 34017G27KT 300V010 9999 FEW030 28/18 Q1018=
METAR LPPT 011530Z 33016KT 290V350 9999 FEW028 28/19 Q1018=
METAR LPPT 011600Z 34017KT 9999 FEW025 27/20 Q1018=
METAR LPPT 011630Z 33018KT 290V350 9999 FEW022 26/20 Q1018=
METAR LPPT 011700Z 33016KT 300V010 9999 FEW018 26/20 Q1018=
METAR LPPT 011730Z 33015KT 9999 SCT016 25/20 Q1017=
METAR LPPT 011800Z 33016KT 9999 SCT014 24/20 Q1017=
METAR LPPT 011830Z 34015KT 9999 BKN013 23/20 Q1017=
METAR LPPT 011900Z 34012KT 9999 BKN012 23/20 Q1017=
METAR LPPT 011930Z 34011KT 300V010 9999 SCT012 BKN015 23/20 Q1017=
METAR LPPT 012000Z 33010KT 300V360 9999 FEW012 BKN015 23/20 Q1017=
METAR LPPT 012030Z 33009KT 300V360 9999 FEW012 BKN015 23/20 Q1017=
METAR LPPT 012100Z 34010KT 9999 FEW012 BKN015 23/19 Q1018=
METAR LPPT 012130Z 34011KT 320V020 9999 FEW012 BKN015 22/19 Q1018=
METAR LPPT 012200Z 35014KT 9999 BKN014 22/19 Q1018=
METAR LPPT 012230Z 34008KT 9999 BKN014 22/19 Q1018=
METAR LPPT 012300Z 33010KT 9999 BKN014 22/18 Q1018=
METAR LPPT 012330Z 33009KT 250V360 9999 BKN014 21/18 Q1018=
METAR LPPT 020000Z 33012KT 9999 BKN014 21/18 Q1018=
METAR LPPT 020030Z 33012KT 290V350 9999 BKN015 21/18 Q1018=
METAR LPPT 020100Z 33014KT 9999 SCT015 20/17 Q1018=
METAR LPPT 020130Z 33012KT 9999 FEW015 20/17 Q1017=
METAR LPPT 020200Z 33014KT 9999 FEW016 20/17 Q1017=
METAR LPPT 020230Z 33013KT 9999 FEW016 20/17 Q1017=
METAR LPPT 020300Z 33015KT 9999 BKN012 20/17 Q1017=
METAR LPPT 020330Z 34011KT 9999 BKN012 20/18 Q1017=
METAR LPPT 020400Z 34011KT 9999 BKN014 21/18 Q1017=
METAR LPPT 020430Z 34011KT 9999 BKN014 21/18 Q1017=
METAR LPPT 020500Z 34009KT 9999 SCT012 21/18 Q1017=
METAR LPPT 020530Z 34008KT 9999 BKN012 20/18 Q1017=
METAR LPPT 020600Z 33008KT 9999 SCT012 BKN030 21/19 Q1017=
METAR LPPT 020630Z 33009KT 9999 FEW012 BKN030 21/19 Q1017=
METAR LPPT 020700Z 34009KT 9999 SCT010 BKN030 21/19 Q1017=
METAR LPPT 020730Z 33009KT 9999 FEW010 SCT012 BKN034 22/19 Q1017=
METAR LPPT 020800Z 33008KT 290V360 9999 SCT012 BKN030 22/20 Q1017=
METAR LPPT 020830Z 34009KT 280V360 9999 FEW010 SCT012 BKN034 23/20 Q1017=
METAR LPPT 020900Z 34011KT 300V010 9999 SCT012 BKN030 24/20 Q1018=
METAR LPPT 020930Z 33012KT 290V360 9999 SCT012 BKN036 24/20 Q1018=
METAR LPPT 021000Z 34012KT 290V010 9999 SCT014 BKN036 25/19 Q1018=
METAR LPPT 021030Z 34012KT 300V010 9999 FEW018 BKN032 25/19 Q1018=
METAR LPPT 021100Z 33010KT 290V010 9999 FEW024 BKN034 25/19 Q1018=
METAR LPPT 021130Z 33012KT 290V360 9999 FEW026 BKN034 27/18 Q1018=
METAR LPPT 021200Z 32013KT 290V350 9999 FEW030 BKN034 27/18 Q1018=
METAR LPPT 021230Z 33013KT 280V360 9999 BKN032 28/18 Q1017=
METAR LPPT 021300Z 32013KT 290V360 9999 SCT035 28/17 Q1017=
METAR LPPT 021330Z 34014KT 290V360 9999 FEW038 28/17 Q1017=
METAR LPPT 021400Z 32014KT 290V350 9999 SCT038 29/17 Q1017=
METAR LPPT 021430Z 34014KT 280V360 9999 SCT038 28/17 Q1017=
METAR LPPT 021500Z 31013KT 280V350 9999 FEW036 SCT038 28/18 Q1017=
METAR LPPT 021530Z 33015KT 9999 FEW032 SCT036 27/18 Q1017=
METAR LPPT 021600Z 31011KT 270V340 9999 FEW025 SCT030 26/19 Q1016=
METAR LPPT 021630Z 32013KT 290V350 9999 FEW022 SCT026 BKN030 26/20 Q1016=
METAR LPPT 021700Z 30012KT 9999 FEW018 SCT021 BKN032 25/20 Q1016=
METAR LPPT 021730Z 32011KT 300V360 9999 FEW014 SCT017 24/20 Q1016=
METAR LPPT 021800Z 31011KT 9999 FEW014 SCT016 24/21 Q1016=
METAR LPPT 021830Z 31009KT 9999 FEW011 SCT014 24/21 Q1016=
METAR LPPT 021900Z 32009G19KT 280V350 9999 FEW011 SCT014 24/20 Q1016=
METAR LPPT 021930Z 31007KT 280V340 9999 FEW013 SCT016 23/20 Q1017=
METAR LPPT 022000Z 33011G21KT 280V360 9999 SCT015 22/19 Q1017=
METAR LPPT 022030Z 34011KT 9999 FEW012 SCT015 21/19 Q1017=
METAR LPPT 022100Z 35011KT 9999 BKN011 20/18 Q1018=
METAR LPPT 022130Z 36011KT 9999 BKN014 20/17 Q1018=
METAR LPPT 022200Z 36012KT 9999 BKN015 20/17 Q1018=
METAR LPPT 022230Z 35013KT 310V010 9999 SCT016 20/16 Q1018=
METAR LPPT 022300Z 35010KT 320V020 9999 FEW018 19/15 Q1018=
METAR LPPT 022330Z 36011KT 310V020 9999 FEW016 BKN020 19/16 Q1018=
METAR LPPT 030000Z 34011KT 310V020 9999 BKN020 19/15 Q1018=
METAR LPPT 030030Z 35010KT 320V020 9999 SCT023 19/14 Q1018=
METAR LPPT 030100Z 35010KT 9999 FEW025 18/14 Q1018=
METAR LPPT 030130Z 35009KT 9999 FEW025 18/13 Q1018=
METAR LPPT 030200Z 35009KT 9999 FEW025 18/13 Q1018=
METAR LPPT 030230Z 35010KT 9999 FEW020 18/14 Q1018=
METAR LPPT 030300Z 35011KT 9999 FEW022 18/14 Q1018=
METAR LPPT 030330Z 34014KT 310V010 9999 FEW020 18/15 Q1018=
METAR LPPT 030400Z 34012KT R02/P2000 FEW020 18/14 Q1018=
METAR LPPT 030430Z 35013KT CAVOK 18/13 Q1017=
METAR LPPT 030500Z 34013KT CAVOK 18/14 Q1017=
METAR LPPT 030530Z 34008KT 290V020 CAVOK 18/14 Q1017=
METAR LPPT 030600Z 35010KT 310V020 CAVOK 18/14 Q1018=
METAR LPPT 030630Z 34012KT 310V010 CAVOK 18/14 Q1018=
METAR LPPT 030700Z 35015G25KT 9999 FEW015 19/14 Q1018=
METAR LPPT 030730Z 35020KT 9999 FEW020 19/13 Q1018=
METAR LPPT 030800Z 35023KT 9999 FEW020 20/13 Q1018=
METAR LPPT 030830Z 34019KT 9999 FEW030 21/12 Q1018=
METAR LPPT 030900Z 35023KT CAVOK 21/11 Q1018=
METAR LPPT 030930Z 34024KT 9999 FEW035 22/12 Q1018=
METAR LPPT 031000Z 35020KT 9999 FEW035 23/11 Q1018=
METAR LPPT 031030Z 34023KT CAVOK 23/10 Q1018=
METAR LPPT 031100Z 34023G34KT CAVOK 24/10 Q1018=
METAR LPPT 031130Z 35018G28KT 310V010 CAVOK 24/10 Q1018=
METAR LPPT 031200Z 35022KT CAVOK 24/10 Q1018=
METAR LPPT 031230Z 34021G31KT CAVOK 25/11 Q1018=
METAR LPPT 031300Z 35020KT CAVOK 25/11 Q1018=
METAR LPPT 031330Z 35021KT CAVOK 25/11 Q1018=
METAR LPPT 031400Z 34021G31KT CAVOK 25/10 Q1018=
METAR LPPT 031430Z 33026KT CAVOK 24/09 Q1018=
METAR LPPT 031500Z 33023KT 300V360 CAVOK 24/09 Q1018=
METAR LPPT 031530Z 34022G33KT CAVOK 24/07 Q1018=
METAR LPPT 031600Z 34023G33KT CAVOK 24/07 Q1018=
METAR LPPT 031630Z 34024G35KT CAVOK 24/09 Q1018=
METAR LPPT 031700Z 34021KT 9999 FEW025 23/11 Q1018=
METAR LPPT 031730Z 34017KT 320V020 9999 FEW025 23/11 Q1018=
METAR LPPT 031800Z 35024KT 9999 FEW025 22/11 Q1018=
METAR LPPT 031830Z 34026KT 9999 FEW025 21/12 Q1018=
METAR LPPT 031900Z 35031KT 9999 FEW025 20/12 Q1018 WS R02=
METAR LPPT 031930Z 34029G39KT 9999 FEW025 20/12 Q1017 WS R02=
METAR LPPT 032000Z 35021KT CAVOK 19/12 Q1018 WS R02=
METAR LPPT 032030Z 35012KT 320V020 CAVOK 19/12 Q1018 WS R02=
METAR LPPT 032100Z 36020G31KT CAVOK 19/12 Q1019 WS R02=
METAR LPPT 032130Z 35021KT CAVOK 19/12 Q1019 WS R02=
METAR LPPT 032200Z 34022KT CAVOK 18/12 Q1019 WS R02=
METAR LPPT 032230Z 35019KT CAVOK 18/13 Q1019 WS R02=
METAR LPPT 032300Z 35018KT CAVOK 18/13 Q1019 WS R02=
METAR LPPT 032330Z 35021KT CAVOK 18/13 Q1019 WS R02=
METAR LPPT 040000Z 35019KT CAVOK 18/13 Q1019 WS R02=
METAR LPPT 040030Z 36013KT CAVOK 18/13 Q1019=
METAR LPPT 040100Z 35014KT CAVOK 18/13 Q1019=
METAR LPPT 040130Z 35013KT 310V010 CAVOK 18/12 Q1019=
METAR LPPT 040200Z 34009KT 300V010 CAVOK 18/12 Q1019=
METAR LPPT 040230Z 34008KT 300V020 CAVOK 17/12 Q1019=
METAR LPPT 040300Z 31006KT 230V020 CAVOK 17/12 Q1019=
METAR LPPT 040330Z 33007KT 280V010 CAVOK 17/12 Q1019=
METAR LPPT 040400Z 34011KT 310V010 CAVOK 17/12 Q1019=
METAR LPPT 040430Z 35007KT CAVOK 17/11 Q1019=
METAR LPPT 040500Z 35010KT CAVOK 17/11 Q1018=
METAR LPPT 040530Z 01008KT CAVOK 16/11 Q1019=
METAR LPPT 040600Z 34008KT CAVOK 16/11 Q1019=
METAR LPPT 040630Z 34013KT CAVOK 18/10 Q1019=
METAR LPPT 040700Z 35012KT CAVOK 18/10 Q1019=
METAR LPPT 040730Z 35009KT 320V020 CAVOK 19/10 Q1019=
METAR LPPT 040800Z 34009KT CAVOK 19/11 Q1020=
METAR LPPT 040830Z 35009KT CAVOK 21/10 Q1020=
METAR LPPT 040900Z 36012KT CAVOK 22/09 Q1020=
METAR LPPT 040930Z 35011KT CAVOK 23/09 Q1020=
METAR LPPT 041000Z 01010KT 330V040 CAVOK 24/08 Q1020=
METAR LPPT 041030Z 36011KT 320V020 CAVOK 26/08 Q1020=
METAR LPPT 041100Z 36010KT 320V060 CAVOK 26/07 Q1019=
METAR LPPT 041130Z 01012KT 350V050 CAVOK 28/05 Q1019=
METAR LPPT 041200Z 01014KT 330V030 CAVOK 29/05 Q1019=
METAR LPPT 041230Z 02013KT 330V060 CAVOK 29/05 Q1019=
METAR LPPT 041300Z 05014KT 360V080 CAVOK 29/06 Q1019=
METAR LPPT 041330Z 05011KT 010V080 CAVOK 30/06 Q1019=
METAR LPPT 041400Z 36012KT 320V030 CAVOK 31/08 Q1019=
METAR LPPT 041430Z 34014KT 300V360 CAVOK 30/09 Q1018=
METAR LPPT 041500Z 33015KT 300V360 CAVOK 29/09 Q1018=
METAR LPPT 041530Z 34015KT 310V010 CAVOK 29/09 Q1018=
METAR LPPT 041600Z 33013KT 300V360 CAVOK 29/09 Q1018=
METAR LPPT 041630Z 34017KT CAVOK 28/10 Q1018=
METAR LPPT 041700Z 33016KT CAVOK 27/10 Q1018=
METAR LPPT 041730Z 33015KT CAVOK 27/10 Q1018=
METAR LPPT 041800Z 33016KT CAVOK 26/11 Q1018=
METAR LPPT 041830Z 33013KT CAVOK 26/10 Q1018=
METAR LPPT 041900Z 32011KT 290V350 CAVOK 25/10 Q1018=
METAR LPPT 041930Z 31012KT CAVOK 24/10 Q1018=
METAR LPPT 042000Z 32013KT CAVOK 23/11 Q1018=
METAR LPPT 042030Z 33013KT CAVOK 23/10 Q1019=
METAR LPPT 042100Z 33013KT CAVOK 22/11 Q1019=
METAR LPPT 042130Z 33014KT CAVOK 22/11 Q1019=
METAR LPPT 042200Z 33013KT CAVOK 22/11 Q1019=
METAR LPPT 042230Z 34012KT CAVOK 22/11 Q1019=
METAR LPPT 042300Z 34008KT CAVOK 22/11 Q1019=
METAR LPPT 042330Z 34011KT CAVOK 23/11 Q1019=
METAR LPPT 050000Z 34010KT CAVOK 23/11 Q1019=
METAR LPPT 050030Z 35013KT CAVOK 23/11 Q1019=
METAR LPPT 050100Z 35012KT CAVOK 23/11 Q1019=
METAR LPPT 050130Z 34010KT CAVOK 23/11 Q1018=
METAR LPPT 050200Z 35007KT CAVOK 22/11 Q1018=
METAR LPPT 050230Z 34008KT CAVOK 22/11 Q1018=
METAR LPPT 050300Z 33007KT CAVOK 23/10 Q1018=
METAR LPPT 050330Z 35005KT CAVOK 22/10 Q1018=
METAR LPPT 050400Z VRB02KT CAVOK 21/10 Q1018=
METAR LPPT 050430Z 35004KT CAVOK 22/09 Q1018=
METAR LPPT 050500Z 36004KT 330V030 CAVOK 20/08 Q1018=
METAR LPPT 050530Z 01004KT CAVOK 22/07 Q1018=
METAR LPPT 050600Z 03005KT CAVOK 23/06 Q1018=
METAR LPPT 050630Z 04004KT CAVOK 21/09 Q1018=
METAR LPPT 050700Z 06004KT 030V100 CAVOK 22/13 Q1019=
METAR LPPT 050730Z 03009KT CAVOK 24/09 Q1019=
METAR LPPT 050800Z 03008KT CAVOK 26/08 Q1019=
METAR LPPT 050830Z 06008KT 020V090 CAVOK 27/06 Q1019=
METAR LPPT 050900Z 06011KT 010V090 CAVOK 28/06 Q1019=
METAR LPPT 050930Z 06012KT 020V080 CAVOK 28/06 Q1019=
METAR LPPT 051000Z 06010KT 030V090 CAVOK 29/07 Q1019=
METAR LPPT 051030Z 06010KT 010V090 CAVOK 30/08 Q1019=
METAR LPPT 051100Z 07009KT 020V130 CAVOK 30/07 Q1019=
METAR LPPT 051130Z 05010KT 330V090 CAVOK 31/07 Q1018=
METAR LPPT 051200Z 06008G23KT 350V110 CAVOK 33/06 Q1018=
METAR LPPT 051230Z 05010KT 020V080 CAVOK 34/03 Q1018=
METAR LPPT 051300Z 03008KT 350V080 CAVOK 34/03 Q1017=
METAR LPPT 051330Z 02011KT 340V070 CAVOK 35/03 Q1017=
METAR LPPT 051400Z 04009KT 340V070 CAVOK 35/04 Q1017=
METAR LPPT 051430Z 06010KT 040V100 CAVOK 36/04 Q1016=
METAR LPPT 051500Z 07009KT 040V100 CAVOK 36/04 Q1016=
METAR LPPT 051530Z 33010KT 290V360 CAVOK 36/10 Q1016=
METAR LPPT 051600Z 33013KT 290V350 CAVOK 35/07 Q1015=
METAR LPPT 051630Z 34016KT 9999 FEW046 34/06 Q1015=
METAR LPPT 051700Z 35017KT CAVOK 33/06 Q1015=
METAR LPPT 051730Z 34017KT CAVOK 32/07 Q1015=
METAR LPPT 051800Z 33015KT CAVOK 31/07 Q1015=
METAR LPPT 051830Z 34016KT CAVOK 31/06 Q1015=
METAR LPPT 051900Z 33018KT CAVOK 29/06 Q1015=
METAR LPPT 051930Z 33015KT CAVOK 28/06 Q1015=
METAR LPPT 052000Z 33014KT CAVOK 27/07 Q1015=
METAR LPPT 052030Z 32010KT CAVOK 26/07 Q1016=
METAR LPPT 052100Z 32013KT CAVOK 26/07 Q1016=
METAR LPPT 052130Z 34011KT CAVOK 26/05 Q1016=
METAR LPPT 052200Z 33013KT CAVOK 26/03 Q1016=
METAR LPPT 052230Z 32011KT CAVOK 26/04 Q1016=
METAR LPPT 052300Z 33009KT CAVOK 25/04 Q1016=
METAR LPPT 052330Z 33007KT CAVOK 26/04 Q1016=
METAR LPPT 060000Z 33007KT CAVOK 26/06 Q1016=
METAR LPPT 060030Z 34008KT CAVOK 25/08 Q1016=
METAR LPPT 060100Z 33008KT CAVOK 25/10 Q1016=
METAR LPPT 060130Z 33006KT CAVOK 24/12 Q1016=
METAR LPPT 060200Z 33010KT CAVOK 24/13 Q1015=
METAR LPPT 060230Z 32009KT CAVOK 23/14 Q1015=
METAR LPPT 060300Z 32010KT CAVOK 23/14 Q1015=
METAR LPPT 060330Z 33010KT CAVOK 23/15 Q1015=
METAR LPPT 060400Z 33009KT CAVOK 23/14 Q1015=
METAR LPPT 060430Z 32006KT CAVOK 23/14 Q1015=
METAR LPPT 060500Z 32005KT CAVOK 24/14 Q1014=
METAR LPPT 060530Z 01004KT 320V060 CAVOK 23/13 Q1015=
METAR LPPT 060600Z 08003KT 040V100 CAVOK 21/14 Q1015=
METAR LPPT 060630Z 04004KT CAVOK 20/14 Q1015=
METAR LPPT 060700Z 07003KT CAVOK 22/15 Q1015=
METAR LPPT 060730Z 05003KT 020V080 CAVOK 24/15 Q1015=
METAR LPPT 060800Z 07005KT CAVOK 25/15 Q1016=
METAR LPPT 060830Z 06004KT 010V090 CAVOK 27/16 Q1015=
METAR LPPT 060900Z 06004KT 020V120 CAVOK 29/15 Q1015=
METAR LPPT 060930Z 04008KT 350V090 CAVOK 30/13 Q1015=
METAR LPPT 061000Z 04010KT 010V080 CAVOK 32/12 Q1015=
METAR LPPT 061030Z 07008KT 020V100 CAVOK 32/13 Q1015=
METAR LPPT 061100Z 06008G21KT 010V090 CAVOK 33/13 Q1015=
METAR LPPT 061130Z 07005KT 020V110 CAVOK 34/13 Q1015=
METAR LPPT 061200Z 07006KT 360V120 CAVOK 36/12 Q1015=
METAR LPPT 061230Z 10006KT 010V130 CAVOK 36/11 Q1014=
METAR LPPT 061300Z VRB06KT CAVOK 37/09 Q1014=
METAR LPPT 061330Z 10006KT 030V140 CAVOK 39/07 Q1014=
METAR LPPT 061400Z VRB06KT CAVOK 38/09 Q1014=
METAR LPPT 061430Z VRB05KT CAVOK 39/09 Q1014=
METAR LPPT 061500Z 34005KT 280V050 CAVOK 39/11 Q1013=
METAR LPPT 061530Z 33010KT 290V360 CAVOK 38/10 Q1013=
METAR LPPT 061600Z 35012KT CAVOK 38/09 Q1013=
METAR LPPT 061630Z 34012KT CAVOK 38/09 Q1013=
METAR LPPT 061700Z 34012KT 300V360 CAVOK 37/11 Q1013=
METAR LPPT 061730Z 33013KT CAVOK 36/09 Q1013=
METAR LPPT 061800Z 31010KT CAVOK 35/11 Q1013=
METAR LPPT 061830Z 31011KT 9999 4000N NSC 33/11 Q1013=
METAR LPPT 061900Z 32013KT 9999 4800N NSC 32/11 Q1013=
METAR LPPT 061930Z 31011KT CAVOK 30/10 Q1013=
METAR LPPT 062000Z 32012KT CAVOK 29/11 Q1012=
METAR LPPT 062030Z 32013KT CAVOK 29/11 Q1013=
METAR LPPT 062100Z 31012KT CAVOK 29/11 Q1013=
METAR LPPT 062130Z 32008KT CAVOK 28/11 Q1013=
METAR LPPT 062200Z 34005KT CAVOK 28/10 Q1013=
METAR LPPT 062230Z 33008KT CAVOK 28/10 Q1013=
METAR LPPT 062300Z 34007KT CAVOK 27/10 Q1013=
METAR LPPT 062330Z 33006KT CAVOK 28/11 Q1013=
METAR LPPT 070000Z 32006KT CAVOK 28/10 Q1013=
METAR LPPT 070030Z 32007KT CAVOK 28/11 Q1013=
METAR LPPT 070100Z 33007KT CAVOK 28/11 Q1012=
METAR LPPT 070130Z 34005KT 300V060 CAVOK 27/11 Q1012=
METAR LPPT 070200Z 34004KT 310V030 CAVOK 27/11 Q1012=
METAR LPPT 070230Z 33006KT CAVOK 28/11 Q1012=
METAR LPPT 070300Z 02004KT CAVOK 27/11 Q1012=
METAR LPPT 070330Z VRB02KT CAVOK 24/13 Q1012=
METAR LPPT 070400Z 01004KT CAVOK 26/12 Q1012=
METAR LPPT 070430Z 02006KT CAVOK 26/12 Q1012=
METAR LPPT 070500Z 03005KT CAVOK 26/12 Q1012=
METAR LPPT 070530Z 03006KT CAVOK 26/12 Q1012=
METAR LPPT 070600Z 04005KT CAVOK 26/12 Q1012=
METAR LPPT 070630Z 08004KT CAVOK 25/14 Q1012=
METAR LPPT 070700Z 05005KT CAVOK 25/15 Q1013=
METAR LPPT 070730Z 05005KT CAVOK 26/14 Q1013=
METAR LPPT 070800Z 05008KT 010V090 CAVOK 28/12 Q1013=
METAR LPPT 070830Z 06009KT CAVOK 28/11 Q1013=
METAR LPPT 070900Z 05011KT CAVOK 29/10 Q1013=
METAR LPPT 070930Z 06008G21KT 310V100 CAVOK 29/12 Q1013=
METAR LPPT 071000Z 09007KT 030V110 CAVOK 29/13 Q1013=
METAR LPPT 071030Z 09008KT 340V110 CAVOK 31/13 Q1013=
METAR LPPT 071100Z VRB06G20KT CAVOK 32/13 Q1013=
METAR LPPT 071130Z VRB06KT CAVOK 33/13 Q1013=
METAR LPPT 071200Z VRB06G16KT CAVOK 34/12 Q1013=
METAR LPPT 071230Z VRB05KT CAVOK 36/12 Q1013=
METAR LPPT 071300Z 13005G20KT 020V180 CAVOK 37/11 Q1012=
METAR LPPT 071330Z 14006KT 070V200 CAVOK 38/10 Q1012=
METAR LPPT 071400Z 13005KT 040V190 CAVOK 39/08 Q1012=
METAR LPPT 071430Z VRB03KT CAVOK 39/08 Q1012=
METAR LPPT 071500Z 19006KT 130V250 CAVOK 39/07 Q1011=
METAR LPPT 071530Z 22005KT 150V280 CAVOK 40/08 Q1011=
METAR LPPT 071600Z 28007KT 230V320 CAVOK 39/11 Q1011=
METAR LPPT 071630Z 28007KT 250V310 CAVOK 37/10 Q1011=
METAR LPPT 071700Z 27009KT 240V300 CAVOK 36/09 Q1011=
METAR LPPT 071730Z 28011KT CAVOK 34/09 Q1011=
METAR LPPT 071800Z 26013KT CAVOK 32/09 Q1011=
METAR LPPT 071830Z 26011KT CAVOK 31/09 Q1011=
METAR LPPT 071900Z 25011KT CAVOK 30/09 Q1012=
METAR LPPT 071930Z 26012KT CAVOK 29/09 Q1012=
METAR LPPT 072000Z 26012KT CAVOK 28/10 Q1012=
METAR LPPT 072030Z 24009KT CAVOK 27/10 Q1012=
METAR LPPT 072100Z 25006KT CAVOK 27/10 Q1012=
METAR LPPT 072130Z 25004KT 210V280 CAVOK 27/09 Q1012=
METAR LPPT 072200Z 25009KT CAVOK 27/09 Q1012=
METAR LPPT 072230Z 25011KT CAVOK 27/09 Q1012=
METAR LPPT 072300Z 25010KT CAVOK 27/10 Q1012=
METAR LPPT 072330Z 27010KT CAVOK 27/09 Q1012=
METAR LPPT 080000Z 25010KT CAVOK 28/09 Q1012=
METAR LPPT 080030Z 23007KT 190V270 CAVOK 27/09 Q1012=
METAR LPPT 080100Z 23007KT CAVOK 27/10 Q1012=
METAR LPPT 080130Z 22007KT 9999 FEW044 26/11 Q1012=
METAR LPPT 080200Z 24005KT 9999 FEW032 25/13 Q1012=
METAR LPPT 080230Z 24005KT 210V270 9999 FEW032 26/15 Q1012=
METAR LPPT 080300Z 18009KT 9999 FEW030 26/17 Q1012=
METAR LPPT 080330Z 19010KT 9999 FEW028 26/18 Q1012=
METAR LPPT 080400Z 17007KT 9999 FEW026 25/18 Q1012=
METAR LPPT 080430Z 17005KT 120V190 9999 FEW025 25/18 Q1012=
METAR LPPT 080500Z 14003KT 100V180 9999 FEW025 25/18 Q1012=
METAR LPPT 080530Z VRB02KT CAVOK 24/18 Q1012=
METAR LPPT 080600Z 17006KT 130V200 CAVOK 24/18 Q1012=
METAR LPPT 080630Z 13005G15KT 080V170 CAVOK 24/18 Q1012=
METAR LPPT 080700Z VRB05KT CAVOK 23/19 Q1012=
METAR LPPT 080730Z 07005KT 050V190 CAVOK 23/19 Q1012=
METAR LPPT 080800Z 12004G14KT 050V190 CAVOK 24/18 Q1012=
METAR LPPT 080830Z 12005G16KT 080V190 CAVOK 25/18 Q1013=
METAR LPPT 080900Z 15006G17KT 100V200 9999 FEW012 26/18 Q1013=
METAR LPPT 080930Z 19008KT 140V220 9999 FEW012 26/18 Q1013=
METAR LPPT 081000Z 19007KT 150V220 9999 FEW012 26/19 Q1013=
METAR LPPT 081030Z 20007KT 140V250 9999 FEW012 26/19 Q1013=
METAR LPPT 081100Z 21006KT 130V260 9999 FEW018 27/20 Q1013=
METAR LPPT 081130Z 20007KT 130V240 9999 FEW018 28/20 Q1013=
METAR LPPT 081200Z 24008KT 200V290 9999 FEW018 27/20 Q1013=
METAR LPPT 081230Z 25010KT 220V280 9999 FEW018 27/20 Q1013=
METAR LPPT 081300Z 23012KT 9999 FEW018 27/20 Q1013=
METAR LPPT 081330Z 23015KT 9999 FEW018 26/20 Q1013=
METAR LPPT 081400Z 23017KT 9999 FEW018 25/20 Q1014=
METAR LPPT 081430Z 23016KT 9999 FEW018 25/19 Q1013=
METAR LPPT 081500Z 23016KT CAVOK 26/19 Q1013=
METAR LPPT 081530Z 23016KT CAVOK 26/19 Q1013=
METAR LPPT 081600Z 22017KT CAVOK 26/19 Q1013=
METAR LPPT 081630Z 22014KT CAVOK 26/19 Q1013=
METAR LPPT 081700Z 24011KT 210V270 CAVOK 26/19 Q1013=
METAR LPPT 081730Z 22013KT CAVOK 26/19 Q1013=
METAR LPPT 081800Z 22012KT CAVOK 25/19 Q1013=
METAR LPPT 081830Z 24009KT CAVOK 24/19 Q1013=
METAR LPPT 081900Z 23010KT 9999 FEW012 23/19 Q1013=
METAR LPPT 081930Z 24009KT 9999 FEW012 22/19 Q1014=
METAR LPPT 082000Z 25008KT CAVOK 22/19 Q1014=
METAR LPPT 082030Z 24007KT CAVOK 22/19 Q1014=
METAR LPPT 082100Z 23006KT CAVOK 21/19 Q1014=
METAR LPPT 082130Z 24005KT 9999 FEW010 21/19 Q1014=
METAR LPPT 082200Z 25006KT 9999 FEW010 21/19 Q1014=
METAR LPPT 082230Z 23006KT 9999 FEW010 21/19 Q1015=
METAR LPPT 082300Z 23006KT 9999 FEW010 21/19 Q1015=
METAR LPPT 082330Z 23006KT 9999 FEW008 21/19 Q1015=
METAR LPPT 090000Z 24009KT 220V280 9999 BKN006 20/19 Q1015=
METAR LPPT 090030Z 23008KT 9999 BKN006 21/19 Q1015=
METAR LPPT 090100Z 23009KT 9999 BKN006 20/19 Q1015=
METAR LPPT 090130Z 21010KT 9999 BKN006 20/19 Q1016=
METAR LPPT 090200Z 25008KT 9999 BKN006 20/19 Q1015=
METAR LPPT 090230Z 25006KT 210V280 9999 BKN007 20/19 Q1015=
METAR LPPT 090300Z 24006KT 9999 BKN008 21/19 Q1015=
METAR LPPT 090330Z 23005KT 200V270 9999 BKN010 21/19 Q1015=
METAR LPPT 090400Z 22005KT 190V270 9999 BKN012 21/18 Q1015=
METAR LPPT 090430Z 23004KT 210V270 9999 FEW012 BKN015 21/18 Q1015=
METAR LPPT 090500Z 23006KT 200V260 9999 BKN015 21/18 Q1015=
METAR LPPT 090530Z 24003KT 200V270 9999 BKN014 21/18 Q1016=
METAR LPPT 090600Z 25004KT 9999 FEW012 BKN016 21/18 Q1016=
METAR LPPT 090630Z 25005KT 220V280 9999 FEW012 BKN016 21/18 Q1016=
METAR LPPT 090700Z 25005KT 220V280 9999 FEW012 BKN016 21/18 Q1017=
METAR LPPT 090730Z 23006KT 9999 FEW012 BKN018 21/18 Q1017=
METAR LPPT 090800Z 26006KT 210V300 9999 FEW015 BKN020 22/18 Q1017=
METAR LPPT 090830Z VRB02KT 9999 FEW018 SCT020 23/18 Q1017=
METAR LPPT 090900Z VRB04KT 9999 FEW020 24/17 Q1017=
METAR LPPT 090930Z VRB03KT 9999 FEW022 24/17 Q1017=
METAR LPPT 091000Z 08008G19KT 040V140 9999 FEW020 23/17 Q1018=
METAR LPPT 091030Z 09007KT 050V160 9999 FEW025 24/18 Q1018=
METAR LPPT 091100Z VRB05KT 9999 FEW025 26/18 Q1018=
METAR LPPT 091130Z VRB05KT 9999 FEW028 26/18 Q1018=
METAR LPPT 091200Z VRB04KT CAVOK 26/18 Q1018=
METAR LPPT 091230Z 20009KT 160V240 CAVOK 27/18 Q1018=
METAR LPPT 091300Z 21009KT 170V240 CAVOK 26/18 Q1018=
METAR LPPT 091330Z 22008KT 180V270 CAVOK 26/18 Q1018=
METAR LPPT 091400Z 22010KT 170V240 CAVOK 27/18 Q1018=
METAR LPPT 091430Z 21012KT CAVOK 27/18 Q1018=
METAR LPPT 091500Z 21012KT CAVOK 28/18 Q1018=
METAR LPPT 091530Z 21012KT CAVOK 28/18 Q1018=
METAR LPPT 091600Z 23011KT CAVOK 28/18 Q1018=
METAR LPPT 091630Z 22013KT CAVOK 27/18 Q1018=
METAR LPPT 091700Z 23012KT CAVOK 27/18 Q1018=
METAR LPPT 091730Z 29008KT 250V330 CAVOK 27/16 Q1018=
METAR LPPT 091800Z 29008KT 260V320 CAVOK 27/17 Q1019=
METAR LPPT 091830Z 27007KT CAVOK 27/16 Q1019=
METAR LPPT 091900Z 31008KT CAVOK 25/17 Q1019=
METAR LPPT 091930Z 31009KT CAVOK 24/17 Q1019=
METAR LPPT 092000Z 30009KT CAVOK 23/18 Q1019=
METAR LPPT 092030Z 30008KT CAVOK 22/18 Q1020=
METAR LPPT 092100Z 31008KT CAVOK 22/18 Q1020=
METAR LPPT 092130Z 31006KT CAVOK 22/18 Q1020=
METAR LPPT 092200Z 31008KT 280V340 CAVOK 22/18 Q1021=
METAR LPPT 092230Z 31008KT 9999 FEW012 21/18 Q1021=
METAR LPPT 092300Z 31010KT 9999 FEW012 21/18 Q1021=
METAR LPPT 092330Z 30006KT 260V340 9999 FEW008 20/19 Q1021=
METAR LPPT 100000Z VRB04KT 9999 FEW008 20/19 Q1021=
METAR LPPT 100030Z 34004KT 9999 FEW008 20/19 Q1021=
METAR LPPT 100100Z 34004KT 300V040 9999 SCT008 20/19 Q1021=
METAR LPPT 100130Z VRB02KT 9999 SCT008 20/18 Q1021=
METAR LPPT 100200Z 33005KT 290V010 9999 FEW008 20/19 Q1021=
METAR LPPT 100230Z 33006KT 260V360 9999 SCT009 20/18 Q1021=
METAR LPPT 100300Z 33006KT 290V360 9999 SCT009 20/18 Q1021=
METAR LPPT 100330Z 33006KT 300V360 9999 FEW010 20/18 Q1021=
METAR LPPT 100400Z 31003KT 220V340 9999 FEW010 20/18 Q1021=
METAR LPPT 100430Z 00000KT 9999 FEW010 19/18 Q1021=
METAR LPPT 100500Z VRB02KT 9999 FEW009 19/18 Q1021=
METAR LPPT 100530Z 32003KT 260V010 9999 FEW009 19/18 Q1021=
METAR LPPT 100600Z 25003KT 220V330 9999 FEW009 19/18 Q1021=
METAR LPPT 100630Z VRB03KT 9999 FEW009 19/18 Q1022=
METAR LPPT 100700Z 32004KT 280V010 9999 FEW009 20/18 Q1022=
METAR LPPT 100730Z 32006KT 290V350 9999 FEW010 20/18 Q1022=
METAR LPPT 100800Z 33006KT 280V360 9999 FEW012 21/18 Q1022=
METAR LPPT 100830Z 33008KT 290V360 9999 FEW015 22/18 Q1022=
METAR LPPT 100900Z 34008KT 300V010 9999 FEW018 23/18 Q1022=
METAR LPPT 100930Z 33007KT 280V360 9999 FEW020 24/17 Q1022=
METAR LPPT 101000Z 32007KT 290V050 9999 FEW020 25/17 Q1023=
METAR LPPT 101030Z 33009KT 290V010 9999 FEW025 26/17 Q1022=
METAR LPPT 101100Z 33010KT 290V360 CAVOK 26/17 Q1022=
METAR LPPT 101130Z 33009KT 270V020 CAVOK 27/16 Q1022=
METAR LPPT 101200Z 34006KT 280V060 CAVOK 28/16 Q1022=
METAR LPPT 101230Z 34006KT 290V050 CAVOK 29/16 Q1022=
METAR LPPT 101300Z 31007KT 240V350 CAVOK 29/15 Q1021=
METAR LPPT 101330Z VRB05KT CAVOK 31/15 Q1021=
METAR LPPT 101400Z 32007KT 280V050 CAVOK 31/15 Q1021=
METAR LPPT 101430Z 33008KT 280V010 CAVOK 31/14 Q1021=
METAR LPPT 101500Z 32009KT 280V350 CAVOK 31/14 Q1021=
METAR LPPT 101530Z 33012KT 290V360 CAVOK 30/15 Q1021=
METAR LPPT 101600Z 32012KT 280V360 CAVOK 30/15 Q1021=
METAR LPPT 101630Z 33013KT CAVOK 29/15 Q1021=
METAR LPPT 101700Z 32013KT CAVOK 28/15 Q1021=
METAR LPPT 101730Z 32013KT 290V350 CAVOK 27/17 Q1021=
METAR LPPT 101800Z 32013KT 290V350 CAVOK 26/17 Q1021=
METAR LPPT 101830Z 32013KT CAVOK 25/17 Q1021=
METAR LPPT 101900Z 32013KT CAVOK 25/17 Q1021=
METAR LPPT 101930Z 32012KT CAVOK 24/17 Q1021=
METAR LPPT 102000Z 33015KT CAVOK 23/17 Q1021=
METAR LPPT 102030Z 32012KT CAVOK 23/17 Q1022=
METAR LPPT 102100Z 33012KT CAVOK 22/17 Q1022=
METAR LPPT 102130Z 33012KT CAVOK 22/17 Q1022=
METAR LPPT 102200Z 32009KT CAVOK 21/17 Q1022=
METAR LPPT 102230Z 33010KT CAVOK 21/17 Q1022=
METAR LPPT 102300Z 35009KT CAVOK 21/17 Q1023=
METAR LPPT 102330Z 34007KT 300V360 CAVOK 21/17 Q1022=
METAR LPPT 110000Z 33011KT CAVOK 21/17 Q1022=
METAR LPPT 110030Z 34009KT 300V360 CAVOK 21/17 Q1022=
METAR LPPT 110100Z 33012KT CAVOK 20/17 Q1022=
METAR LPPT 110130Z 32010KT CAVOK 20/17 Q1021=
METAR LPPT 110200Z 33005KT 270V020 CAVOK 20/17 Q1021=
METAR LPPT 110230Z 32006KT 270V010 CAVOK 20/17 Q1021=
METAR LPPT 110300Z 33010KT CAVOK 20/17 Q1021=
METAR LPPT 110330Z 34008KT 310V010 CAVOK 19/16 Q1021=
METAR LPPT 110400Z 34008KT CAVOK 19/16 Q1021=
METAR LPPT 110430Z 34006KT 310V020 CAVOK 19/16 Q1021=
METAR LPPT 110500Z 31006KT CAVOK 19/16 Q1021=
METAR LPPT 110530Z 32007KT 290V350 9999 FEW015 19/16 Q1021=
METAR LPPT 110600Z 34012KT 9999 FEW015 19/17 Q1021=
METAR LPPT 110630Z 34005KT 300V020 9999 FEW015 19/17 Q1021=
METAR LPPT 110700Z 34007KT 9999 FEW015 20/17 Q1022=
METAR LPPT 110730Z 33007KT 300V360 9999 FEW016 21/17 Q1022=
METAR LPPT 110800Z 33009KT 9999 FEW018 22/17 Q1022=
METAR LPPT 110830Z 32008KT 290V350 CAVOK 24/17 Q1022=
METAR LPPT 110900Z 32009KT 290V360 CAVOK 25/16 Q1022=
METAR LPPT 110930Z 32009KT 290V350 CAVOK 26/15 Q1022=
METAR LPPT 111000Z 34013KT CAVOK 27/15 Q1023=
METAR LPPT 111030Z 34013KT CAVOK 29/16 Q1023=
METAR LPPT 111100Z 35014KT CAVOK 29/17 Q1022=
METAR LPPT 111130Z 33013KT 290V360 CAVOK 31/17 Q1022=
METAR LPPT 111200Z 34015KT CAVOK 31/17 Q1022=
METAR LPPT 111230Z 33013KT 290V360 9999 FEW025 31/17 Q1022=
METAR LPPT 111300Z 32013KT 280V350 9999 FEW025 31/18 Q1022=
METAR LPPT 111330Z 32012KT 290V350 9999 FEW025 30/18 Q1022=
METAR LPPT 111400Z 33015KT 280V360 9999 FEW025 31/18 Q1021=
METAR LPPT 111430Z 32012KT 290V350 9999 FEW025 31/18 Q1021=
METAR LPPT 111500Z 34011KT 290V010 CAVOK 31/18 Q1021=
METAR LPPT 111530Z 34014KT 310V010 CAVOK 32/18 Q1021=
METAR LPPT 111600Z 33012KT 300V360 CAVOK 31/18 Q1021=
METAR LPPT 111630Z 33013KT 300V360 CAVOK 30/19 Q1021=
METAR LPPT 111700Z 32014KT 280V340 9999 FEW020 29/19 Q1021=
METAR LPPT 111730Z 32017KT 9999 FEW015 28/19 Q1021=
METAR LPPT 111800Z 31016KT 9999 FEW015 27/19 Q1021=
METAR LPPT 111830Z 31015KT 9999 FEW012 26/20 Q1021=
METAR LPPT 111900Z 32014KT 290V350 9999 FEW012 25/19 Q1021=
METAR LPPT 111930Z 32015KT 9999 FEW012 24/20 Q1021=
METAR LPPT 112000Z 32013G23KT 9999 FEW012 23/20 Q1021=
METAR LPPT 112030Z 33019KT 9999 FEW012 23/20 Q1022=
METAR LPPT 112100Z 33020KT 9999 FEW012 23/20 Q1022=
METAR LPPT 112130Z 32015KT 9999 FEW012 22/19 Q1022=
METAR LPPT 112200Z 35009G21KT 300V110 9999 FEW012 22/19 Q1022=
METAR LPPT 112230Z 34014KT 9999 FEW012 22/19 Q1022=
METAR LPPT 112300Z 34010KT 9999 FEW012 22/19 Q1022=
METAR LPPT 112330Z 34011KT 9999 FEW012 22/19 Q1022=
METAR LPPT 120000Z 34013KT 9999 FEW012 22/19 Q1022=
METAR LPPT 120030Z 34011KT 9999 FEW009 21/19 Q1022=
METAR LPPT 120100Z 34013KT 9999 FEW008 SCT011 21/19 Q1022=
METAR LPPT 120130Z 32011KT 9999 FEW008 21/20 Q1021=
METAR LPPT 120200Z 32010KT 290V350 9999 FEW008 21/19 Q1021=
METAR LPPT 120230Z 36009KT 9999 FEW008 21/20 Q1021=
METAR LPPT 120300Z 01009KT 330V040 9999 FEW008 21/19 Q1021=
METAR LPPT 120330Z 01004KT 300V090 9999 FEW008 21/19 Q1021=
METAR LPPT 120400Z 35005KT 330V030 9999 FEW008 20/19 Q1020=
METAR LPPT 120430Z 35009KT 9999 FEW008 20/18 Q1020=
METAR LPPT 120500Z 34010KT 9999 FEW008 20/18 Q1020=
METAR LPPT 120530Z 33011KT 9999 FEW008 20/18 Q1021=
METAR LPPT 120600Z 33010KT 9999 FEW008 20/18 Q1021=
METAR LPPT 120630Z 32008KT 9999 FEW010 20/18 Q1021=
METAR LPPT 120700Z 31011KT 9999 FEW010 21/18 Q1021=
METAR LPPT 120730Z 32015KT 9999 FEW012 22/18 Q1021=
METAR LPPT 120800Z 32014KT 9999 FEW012 22/18 Q1021=
METAR LPPT 120830Z 33012KT 9999 FEW015 24/17 Q1022=
METAR LPPT 120900Z 35013KT 320V020 9999 FEW020 25/16 Q1022=
METAR LPPT 120930Z 35011KT 320V020 CAVOK 26/16 Q1022=
METAR LPPT 121000Z 34013KT 310V010 CAVOK 26/15 Q1022=
METAR LPPT 121030Z 35011KT 320V020 CAVOK 27/15 Q1022=
METAR LPPT 121100Z 35011KT 310V010 CAVOK 28/14 Q1022=
METAR LPPT 121130Z 34012KT 300V010 CAVOK 29/15 Q1022=
METAR LPPT 121200Z 35013KT 320V030 CAVOK 30/15 Q1021=
METAR LPPT 121230Z 33012KT CAVOK 30/14 Q1021=
METAR LPPT 121300Z 34014KT 310V010 CAVOK 30/15 Q1021=
METAR LPPT 121330Z 35017KT CAVOK 30/15 Q1021=
METAR LPPT 121400Z 35016KT CAVOK 30/15 Q1021=
METAR LPPT 121430Z 33015KT 300V360 CAVOK 30/14 Q1021=
METAR LPPT 121500Z 35016KT 320V020 CAVOK 30/13 Q1020=
METAR LPPT 121530Z 36017KT CAVOK 30/13 Q1020=
METAR LPPT 121600Z 34016KT CAVOK 29/12 Q1020=
METAR LPPT 121630Z 36016KT CAVOK 29/12 Q1020=
METAR LPPT 121700Z 32013KT 290V360 CAVOK 28/12 Q1020=
METAR LPPT 121730Z 33013KT 290V350 CAVOK 28/11 Q1020=
METAR LPPT 121800Z 33014KT CAVOK 26/11 Q1019=
METAR LPPT 121830Z 33013KT 300V360 CAVOK 26/12 Q1019=
METAR LPPT 121900Z 34013KT CAVOK 24/12 Q1019=
METAR LPPT 121930Z 33011KT 290V360 CAVOK 23/12 Q1020=
METAR LPPT 122000Z 33011KT 300V360 CAVOK 22/13 Q1020=
METAR LPPT 122030Z 31009KT CAVOK 21/12 Q1020=
METAR LPPT 122100Z 34010KT 300V360 CAVOK 21/12 Q1020=
METAR LPPT 122130Z 34012KT 310V010 CAVOK 20/12 Q1020=
METAR LPPT 122200Z 34011KT CAVOK 20/13 Q1020=
METAR LPPT 122230Z 34011KT CAVOK 19/13 Q1020=
METAR LPPT 122300Z 35011KT CAVOK 19/14 Q1020=
METAR LPPT 122330Z 01010KT 330V030 CAVOK 19/15 Q1020=
METAR LPPT 130000Z 35011KT CAVOK 19/15 Q1020=
METAR LPPT 130030Z 35011KT 9999 FEW016 19/15 Q1020=
METAR LPPT 130100Z 35008KT 320V020 9999 FEW016 18/15 Q1019=
METAR LPPT 130130Z 35010KT 9999 FEW016 18/15 Q1019=
METAR LPPT 130200Z 35010KT 320V020 9999 FEW016 18/15 Q1019=
METAR LPPT 130230Z 34011KT 310V010 9999 FEW016 18/15 Q1019=
METAR LPPT 130300Z 34011KT 9999 FEW016 18/15 Q1019=
METAR LPPT 130330Z 34009KT 9999 FEW016 18/15 Q1018=
METAR LPPT 130400Z 34012KT 9999 FEW015 18/15 Q1018=
METAR LPPT 130430Z 35011KT 9999 FEW015 18/15 Q1018=
METAR LPPT 130500Z 35009KT 9999 FEW015 18/15 Q1018=
METAR LPPT 130530Z 34011KT 300V010 9999 SCT015 18/15 Q1018=
METAR LPPT 130600Z 34010KT 310V010 9999 SCT015 18/15 Q1018=
METAR LPPT 130630Z 34011KT 9999 SCT015 18/15 Q1018=
METAR LPPT 130700Z 34010KT 300V010 9999 BKN015 19/15 Q1018=
METAR LPPT 130730Z 34011KT 300V010 9999 FEW015 20/15 Q1018=
METAR LPPT 130800Z 35015KT 9999 FEW018 20/15 Q1018=
METAR LPPT 130830Z 34013KT 9999 FEW020 21/15 Q1018=
METAR LPPT 130900Z 34011KT 9999 FEW020 22/15 Q1018=
METAR LPPT 130930Z 34012KT 9999 FEW025 23/15 Q1018=
METAR LPPT 131000Z 33013KT 300V360 9999 FEW025 23/15 Q1018=
METAR LPPT 131030Z 33013KT 300V360 9999 FEW025 24/15 Q1018=
METAR LPPT 131100Z 33012KT 300V360 9999 FEW030 24/15 Q1018=
METAR LPPT 131130Z 33013KT 290V360 9999 FEW030 25/14 Q1017=
METAR LPPT 131200Z 32011KT 290V360 9999 FEW030 25/14 Q1017=
METAR LPPT 131230Z 31011KT 280V350 CAVOK 25/14 Q1017=
METAR LPPT 131300Z 31012KT 280V360 CAVOK 25/13 Q1017=
METAR LPPT 131330Z 32012KT 280V360 CAVOK 26/14 Q1017=
METAR LPPT 131400Z 32013KT 280V350 9999 FEW030 26/14 Q1016=
METAR LPPT 131430Z 31013KT 280V350 9999 FEW030 26/14 Q1016=
METAR LPPT 131500Z 32012KT 290V350 CAVOK 26/13 Q1016=
METAR LPPT 131530Z 31013KT 280V340 CAVOK 25/13 Q1016=
METAR LPPT 131600Z 32013KT CAVOK 26/13 Q1016=
METAR LPPT 131630Z 31013KT 290V350 CAVOK 24/13 Q1016=
METAR LPPT 131700Z 32013KT 280V350 CAVOK 24/14 Q1016=
METAR LPPT 131730Z 32013KT 280V350 CAVOK 24/14 Q1015=
METAR LPPT 131800Z 33017KT CAVOK 23/14 Q1015=
METAR LPPT 131830Z 33015KT CAVOK 22/14 Q1015=
METAR LPPT 131900Z 33008KT 270V010 CAVOK 21/14 Q1016=
METAR LPPT 131930Z 34010KT 300V010 CAVOK 20/14 Q1016=
METAR LPPT 132000Z 34012KT 310V010 CAVOK 19/14 Q1016=
METAR LPPT 132030Z 34011KT CAVOK 19/15 Q1016=
METAR LPPT 132100Z 33011KT CAVOK 19/14 Q1016=
METAR LPPT 132130Z 34012KT CAVOK 19/14 Q1016=
METAR LPPT 132200Z 35011KT CAVOK 19/15 Q1016=
METAR LPPT 132230Z 34009KT CAVOK 19/15 Q1016=
METAR LPPT 132300Z 34011KT 9999 FEW018 19/15 Q1016=
METAR LPPT 132330Z 33011KT 290V350 9999 FEW018 18/15 Q1016=
METAR LPPT 140000Z 34011KT 9999 FEW015 18/15 Q1016=
METAR LPPT 140030Z 34010KT 9999 FEW015 18/15 Q1016=
METAR LPPT 140100Z 34010KT 9999 FEW015 18/15 Q1016=
METAR LPPT 140130Z 34011KT 9999 FEW015 18/15 Q1016=
METAR LPPT 140200Z 34010KT 310V010 9999 FEW015 18/15 Q1015=
METAR LPPT 140230Z 35007KT 9999 FEW015 18/15 Q1015=
METAR LPPT 140300Z 34008KT 9999 FEW015 18/15 Q1015=
METAR LPPT 140330Z 34009KT 9999 FEW015 18/15 Q1015=
METAR LPPT 140400Z 35008KT 310V010 9999 FEW015 18/15 Q1015=
METAR LPPT 140430Z 34006KT 320V020 9999 FEW015 17/15 Q1015=
METAR COR LPPT 140500Z 34005KT 310V030 9999 FEW015 17/14 Q1015=
METAR LPPT 140530Z VRB03KT 9999 FEW015 17/14 Q1015=
METAR LPPT 140600Z VRB05KT 9999 FEW015 17/15 Q1015=
METAR LPPT 140630Z 34007KT 310V020 9999 FEW014 18/15 Q1015=
METAR LPPT 140700Z 34010KT 310V010 9999 FEW014 18/15 Q1015=
METAR LPPT 140730Z 34011KT 310V010 9999 FEW015 19/15 Q1016=
METAR LPPT 140800Z 34011KT 300V360 9999 FEW015 20/15 Q1016=
METAR LPPT 140830Z 34010KT 310V010 9999 FEW018 20/15 Q1016=
METAR LPPT 140900Z 33011KT 9999 FEW018 22/15 Q1016=
METAR LPPT 140930Z 34011KT 9999 FEW018 22/15 Q1016=
METAR LPPT 141000Z 35012KT 9999 FEW020 23/14 Q1016=
METAR LPPT 141030Z 34009G20KT 310V010 9999 FEW025 24/14 Q1016=
METAR LPPT 141100Z 32009KT 270V360 9999 FEW025 24/14 Q1016=
METAR LPPT 141130Z 32009KT 280V360 9999 FEW025 25/15 Q1016=
METAR LPPT 141200Z 32010KT 9999 FEW025 25/15 Q1015=
METAR LPPT 141230Z 32009KT 290V350 9999 FEW025 25/15 Q1015=
METAR LPPT 141300Z 32010KT 270V010 CAVOK 26/14 Q1015=
METAR LPPT 141330Z 33009KT 290V020 CAVOK 27/14 Q1015=
METAR LPPT 141400Z 31009KT 280V350 CAVOK 27/14 Q1015=
METAR LPPT 141430Z 33010KT 290V030 CAVOK 27/13 Q1015=
METAR LPPT 141500Z 31010KT 280V350 CAVOK 27/14 Q1015=
METAR LPPT 141530Z 33011KT 290V360 CAVOK 27/13 Q1015=
METAR LPPT 141600Z 32012KT 290V360 CAVOK 26/13 Q1015=
METAR LPPT 141630Z 32012KT 280V350 CAVOK 25/13 Q1015=
METAR LPPT 141700Z 32011KT 300V360 CAVOK 25/12 Q1015=
METAR LPPT 141730Z 32009KT 270V350 CAVOK 25/12 Q1015=
METAR LPPT 141800Z 32011KT 290V350 CAVOK 24/12 Q1015=
METAR LPPT 141830Z 32010KT 290V350 CAVOK 23/13 Q1015=
METAR LPPT 141900Z 31014KT 280V340 CAVOK 22/14 Q1015=
METAR LPPT 141930Z 32013KT CAVOK 21/14 Q1015=
METAR LPPT 142000Z 32013KT 290V350 9999 FEW020 21/15 Q1015=
METAR LPPT 142030Z 33013KT 9999 FEW020 20/15 Q1015=
METAR LPPT 142100Z 34014KT 300V360 9999 FEW020 20/16 Q1016=
METAR LPPT 142130Z 34010KT 310V010 9999 FEW020 19/15 Q1016=
METAR LPPT 142200Z 34009KT 310V010 CAVOK 19/15 Q1016=
METAR LPPT 142230Z 34009KT 300V360 CAVOK 19/15 Q1016=
METAR LPPT 142300Z 33011KT 300V010 CAVOK 19/16 Q1016=
METAR LPPT 142330Z NIL=
METAR LPPT 150000Z NIL=
METAR LPPT 150030Z NIL=
METAR LPPT 150100Z NIL=
METAR LPPT 150130Z NIL=
METAR LPPT 150200Z NIL=
METAR LPPT 150230Z NIL=
METAR LPPT 150300Z NIL=
METAR LPPT 150330Z NIL=
METAR LPPT 150400Z NIL=
METAR LPPT 150430Z NIL=
METAR LPPT 150500Z NIL=
METAR LPPT 150530Z NIL=
METAR LPPT 150600Z NIL=
METAR LPPT 150630Z NIL=
METAR LPPT 150700Z NIL=
METAR LPPT 150730Z NIL=
METAR LPPT 150800Z NIL=
METAR LPPT 150830Z NIL=
METAR LPPT 150900Z NIL=
METAR LPPT 150930Z NIL=
METAR LPPT 151000Z NIL=
METAR LPPT 151030Z NIL=
METAR LPPT 151100Z NIL=
METAR LPPT 151130Z NIL=
METAR LPPT 151200Z NIL=
METAR LPPT 151230Z NIL=
METAR LPPT 151300Z NIL=
METAR LPPT 151330Z NIL=
METAR LPPT 151400Z NIL=
METAR LPPT 151430Z NIL=
METAR LPPT 151500Z NIL=
METAR LPPT 151530Z NIL=
METAR LPPT 151600Z NIL=
METAR LPPT 151630Z NIL=
METAR LPPT 151700Z NIL=
METAR LPPT 151730Z NIL=
METAR LPPT 151800Z NIL=
METAR LPPT 151830Z NIL=
METAR LPPT 151900Z NIL=
METAR LPPT 151930Z NIL=
METAR LPPT 152000Z NIL=
METAR LPPT 152030Z NIL=
METAR LPPT 152100Z NIL=
METAR LPPT 152130Z NIL=
METAR LPPT 152200Z NIL=
METAR LPPT 152230Z NIL=
METAR LPPT 152300Z 34014KT 9999 FEW016 19/16 Q1017=
METAR LPPT 152330Z 34013KT 9999 FEW016 19/16 Q1017=
METAR LPPT 160000Z 34014KT 9999 SCT016 19/15 Q1017=
METAR LPPT 160030Z 34011KT 310V010 9999 SCT016 19/16 Q1016=
METAR LPPT 160100Z 34011KT 9999 SCT016 19/15 Q1016=
METAR LPPT 160130Z 34012KT 310V010 9999 BKN016 19/16 Q1016=
METAR LPPT 160200Z 34007KT 310V020 9999 BKN016 19/16 Q1016=
METAR LPPT 160230Z 01006KT 320V060 9999 FEW016 18/15 Q1016=
METAR LPPT 160300Z 34004KT 260V060 9999 FEW016 18/15 Q1016=
METAR LPPT 160330Z 34005KT 300V020 9999 FEW016 18/15 Q1016=
METAR LPPT 160400Z 34007KT 9999 FEW014 18/16 Q1016=
METAR LPPT 160430Z 33007KT 290V360 9999 FEW014 18/15 Q1016=
METAR LPPT 160500Z 34006KT 290V010 9999 FEW014 18/15 Q1016=
METAR LPPT 160530Z 35008KT 300V010 9999 SCT014 18/16 Q1016=
METAR LPPT 160600Z 34006KT 290V050 9999 BKN012 18/16 Q1016=
METAR LPPT 160630Z 32007KT 290V350 9999 BKN012 18/16 Q1016=
METAR LPPT 160700Z 32009KT 290V350 9999 FEW012 18/16 Q1016=
METAR LPPT 160730Z 32009KT 280V360 9999 FEW012 19/15 Q1016=
METAR LPPT 160800Z 32009KT 280V350 9999 FEW015 20/15 Q1016=
METAR LPPT 160830Z 32009KT 280V350 9999 FEW018 20/15 Q1016=
METAR LPPT 160900Z 33009KT 280V360 9999 FEW020 21/15 Q1017=
METAR LPPT 160930Z 34011KT 9999 FEW020 22/14 Q1017=
METAR LPPT 161000Z 32010KT 290V350 9999 FEW025 23/15 Q1017=
METAR LPPT 161030Z 32009KT 290V010 9999 FEW025 23/14 Q1017=
METAR LPPT 161100Z 33009KT 290V010 9999 FEW030 24/14 Q1017=
METAR LPPT 161130Z 31009KT 260V360 9999 FEW030 24/14 Q1017=
METAR LPPT 161200Z 30009KT 260V340 9999 FEW030 25/14 Q1017=
METAR LPPT 161230Z 33011KT 290V020 9999 FEW030 25/13 Q1016=
METAR LPPT 161300Z 32010KT 290V360 9999 FEW030 26/13 Q1017=
METAR LPPT 161330Z 32010KT 270V360 9999 FEW030 26/13 Q1016=
METAR LPPT 161400Z 32013KT 290V350 9999 FEW030 27/11 Q1017=
METAR LPPT 161430Z 32013KT 9999 FEW030 27/10 Q1016=
METAR LPPT 161500Z 32014KT 280V340 9999 FEW030 26/10 Q1016=
METAR LPPT 161530Z 32016KT 9999 FEW030 25/12 Q1016=
METAR LPPT 161600Z 31016KT 9999 FEW030 25/14 Q1015=
METAR LPPT 161630Z 31016KT 280V340 9999 FEW030 25/14 Q1015=
METAR LPPT 161700Z 31015KT 9999 FEW030 24/14 Q1015=
METAR LPPT 161730Z 32013KT 9999 FEW025 24/15 Q1015=
METAR LPPT 161800Z 32010KT 290V360 9999 FEW025 23/15 Q1015=
METAR LPPT 161830Z 31011KT 290V350 9999 FEW025 22/16 Q1015=
METAR LPPT 161900Z 33010G20KT 280V360 9999 FEW024 22/16 Q1016=
METAR LPPT 161930Z 33013KT 9999 FEW020 21/16 Q1016=
METAR LPPT 162000Z 32013KT 290V350 9999 FEW018 20/16 Q1016=
METAR LPPT 162030Z 31008G18KT 280V360 9999 FEW016 20/16 Q1016=
METAR LPPT 162100Z 32009KT 280V360 9999 FEW016 20/17 Q1016=
METAR LPPT 162130Z 32011KT 290V350 9999 FEW015 20/16 Q1017=
METAR LPPT 162200Z VRB05KT 9999 FEW015 20/17 Q1017=
METAR LPPT 162230Z 34010KT 310V010 9999 FEW015 20/17 Q1016=
METAR LPPT 162300Z 34012KT 9999 SCT015 19/17 Q1017=
METAR LPPT 162330Z 33012KT 9999 FEW015 19/16 Q1017=
METAR LPPT 170000Z 32011KT 9999 SCT015 19/16 Q1017=
METAR LPPT 170030Z 33010KT 280V360 9999 SCT015 19/16 Q1016=
METAR LPPT 170100Z 34007KT 300V020 9999 BKN015 19/16 Q1016=
METAR LPPT 170130Z 34007KT 280V020 9999 BKN015 19/16 Q1016=
METAR LPPT 170200Z 34010KT 9999 BKN015 19/16 Q1016=
METAR LPPT 170230Z 34010KT 9999 SCT015 19/16 Q1016=
METAR LPPT 170300Z 34006KT 290V030 9999 SCT015 19/16 Q1016=
METAR LPPT 170330Z 34008KT 9999 SCT015 19/16 Q1016=
METAR LPPT 170400Z 33010KT 9999 SCT015 19/16 Q1015=
METAR LPPT 170430Z 33008KT 300V360 9999 FEW015 19/16 Q1015=
METAR LPPT 170500Z 33008KT 9999 FEW015 19/16 Q1015=
METAR LPPT 170530Z 32007KT 290V350 9999 FEW012 19/16 Q1016=
METAR LPPT 170600Z 32004KT 250V040 9999 FEW012 19/16 Q1016=
METAR LPPT 170630Z 32009KT 290V350 9999 FEW012 19/16 Q1016=
METAR LPPT 170700Z 33005KT 250V020 9999 FEW012 19/17 Q1016=
METAR LPPT 170730Z 33007KT 260V010 9999 FEW012 20/16 Q1016=
METAR LPPT 170800Z 34009KT 9999 FEW014 20/16 Q1016=
METAR LPPT 170830Z 34010KT 9999 FEW014 22/16 Q1016=
METAR LPPT 170900Z 33009KT 300V360 9999 FEW018 23/16 Q1016=
METAR LPPT 170930Z 34009KT 300V010 9999 FEW025 23/15 Q1016=
METAR LPPT 171000Z 33007KT 280V020 9999 FEW030 25/16 Q1016=
METAR LPPT 171030Z 31008KT 280V360 CAVOK 25/15 Q1016=
METAR LPPT 171100Z 32009KT 280V360 CAVOK 27/15 Q1016=
METAR LPPT 171130Z 32010KT 290V350 CAVOK 26/15 Q1016=
METAR LPPT 171200Z 31011KT 290V350 CAVOK 27/15 Q1016=
METAR LPPT 171230Z 34014KT CAVOK 27/15 Q1016=
METAR LPPT 171300Z 34014KT 300V010 CAVOK 27/15 Q1016=
METAR LPPT 171330Z 34013KT 310V010 CAVOK 28/15 Q1016=
METAR LPPT 171400Z 34012KT 290V010 CAVOK 28/15 Q1016=
METAR LPPT 171430Z 35013KT 290V020 CAVOK 28/16 Q1016=
METAR LPPT 171500Z 34011KT 300V010 CAVOK 28/16 Q1015=
METAR LPPT 171530Z 35013KT 9999 FEW030 28/16 Q1015=
METAR LPPT 171600Z 30010KT 280V350 9999 FEW030 26/17 Q1015=
METAR LPPT 171630Z 31010KT 270V340 9999 FEW030 26/17 Q1015=
METAR LPPT 171700Z 32009KT 270V340 9999 FEW025 26/17 Q1015=
METAR LPPT 171730Z 29007KT 250V320 9999 FEW025 26/18 Q1016=
METAR LPPT 171800Z 29007KT 250V330 9999 FEW020 25/18 Q1016=
METAR LPPT 171830Z 29008KT 260V330 9999 FEW020 24/18 Q1016=
METAR LPPT 171900Z 30007KT 260V320 9999 FEW020 23/18 Q1016=
METAR LPPT 171930Z 30007KT 9999 FEW015 23/18 Q1016=
METAR LPPT 172000Z 30007KT 260V320 9999 FEW015 22/18 Q1016=
METAR LPPT 172030Z 29006KT 260V320 9999 FEW015 22/19 Q1016=
METAR LPPT 172100Z 30004KT 260V330 9999 FEW015 22/19 Q1016=
METAR LPPT 172130Z 30006KT 9999 FEW014 22/19 Q1017=
METAR LPPT 172200Z 30007KT 9999 FEW013 21/19 Q1017=
METAR LPPT 172230Z 30006KT 9999 FEW012 21/19 Q1017=
METAR LPPT 172300Z 30006KT 9999 SCT012 21/19 Q1017=
METAR LPPT 172330Z 29004KT 9999 SCT012 21/19 Q1017=
METAR LPPT 180000Z 30005KT 9999 SCT012 21/19 Q1017=
METAR LPPT 180030Z 24005KT 210V270 9999 SCT012 21/19 Q1016=
METAR LPPT 180100Z 23004KT 9999 SCT013 21/19 Q1015=
METAR LPPT 180130Z VRB02KT 9999 FEW013 21/19 Q1015=
METAR LPPT 180200Z 25004KT 9999 SCT012 21/19 Q1015=
METAR LPPT 180230Z 24004KT 9999 FEW011 SCT013 21/19 Q1015=
METAR LPPT 180300Z 23004KT 9999 SCT012 20/19 Q1015=
METAR LPPT 180330Z 22003KT 9999 SCT012 21/19 Q1015=
METAR LPPT 180400Z 25004KT 9999 FEW010 SCT015 21/19 Q1015=
METAR LPPT 180430Z 23003KT 9999 FEW018 21/19 Q1015=
METAR LPPT 180500Z 21005KT 9999 FEW006 SCT009 BKN011 21/19 Q1015=
METAR LPPT 180530Z 23005KT 9999 SCT006 BKN008 20/19 Q1015=
METAR LPPT 180600Z 24005KT 9999 SCT006 SCT009 20/19 Q1015=
METAR LPPT 180630Z 20004KT 9999 FEW005 SCT008 SCT011 20/19 Q1015=
METAR LPPT 180700Z 21006KT 170V230 9999 SCT004 BKN008 21/19 Q1016=
METAR LPPT 180730Z 20006KT 9999 4800SW SCT003 BKN007 21/20 Q1016=
METAR LPPT 180800Z 22006KT 9999 FEW003 SCT005 BKN009 21/20 Q1016=
METAR LPPT 180830Z 22007KT 9999 FEW007 SCT014 22/20 Q1016=
METAR LPPT 180900Z 24007KT 210V270 9999 SCT008 SCT015 22/19 Q1016=
METAR LPPT 180930Z 25007KT 210V280 9999 FEW007 SCT012 23/19 Q1016=
METAR LPPT 181000Z 22008KT 190V260 9999 FEW010 23/19 Q1017=
METAR LPPT 181030Z 22010KT 190V250 9999 FEW012 24/19 Q1017=
METAR LPPT 181100Z 22011KT 190V250 9999 FEW012 24/19 Q1017=
METAR LPPT 181130Z 23011KT 9999 FEW015 25/19 Q1017=
METAR LPPT 181200Z 23012KT 190V250 9999 FEW020 25/19 Q1017=
METAR LPPT 181230Z 22013KT 9999 FEW022 26/18 Q1017=
METAR LPPT 181300Z 23014KT 9999 FEW025 26/18 Q1017=
METAR LPPT 181330Z 23011KT 9999 FEW025 26/18 Q1017=
METAR LPPT 181400Z 22012KT 9999 FEW025 26/18 Q1017=
METAR LPPT 181430Z 23012KT 9999 FEW030 26/18 Q1016=
METAR LPPT 181500Z 22013KT 190V250 9999 FEW030 26/18 Q1016=
METAR LPPT 181530Z 22014KT 9999 FEW030 27/17 Q1016=
METAR LPPT 181600Z 22013KT 9999 FEW035 26/17 Q1016=
METAR LPPT 181630Z 22012KT 9999 FEW035 26/18 Q1016=
METAR LPPT 181700Z 23012KT 9999 FEW030 26/18 Q1016=
METAR LPPT 181730Z 22012KT 9999 FEW020 25/19 Q1016=
METAR LPPT 181800Z 24011KT 9999 FEW020 25/19 Q1016=
METAR LPPT 181830Z 24011KT 200V270 9999 FEW018 24/20 Q1016=
METAR LPPT 181900Z 26010KT 9999 FEW018 24/20 Q1016=
METAR LPPT 181930Z 24009KT 9999 FEW015 23/20 Q1016=
METAR LPPT 182000Z 26011KT 9999 FEW012 23/20 Q1017=
METAR LPPT 182030Z 26011KT 9999 FEW012 23/20 Q1017=
METAR LPPT 182100Z 27010KT 9999 FEW010 23/20 Q1017=
METAR LPPT 182130Z 27008KT 9999 FEW010 22/20 Q1017=
METAR LPPT 182200Z 26007KT 9999 FEW010 22/20 Q1017=
METAR LPPT 182230Z 25006KT 210V290 9999 FEW011 22/20 Q1018=
METAR LPPT 182300Z 26004KT 230V310 9999 FEW011 22/20 Q1017=
METAR LPPT 182330Z 29004KT 9999 FEW011 22/20 Q1017=
METAR LPPT 190000Z 27004KT 9999 FEW011 22/20 Q1017=
METAR LPPT 190030Z VRB02KT 9999 FEW011 22/20 Q1017=
METAR LPPT 190100Z 00000KT 9999 FEW012 21/20 Q1017=
METAR LPPT 190130Z 00000KT 9999 FEW012 21/19 Q1017=
METAR LPPT 190200Z 00000KT 9999 FEW008 21/19 Q1017=
METAR LPPT 190230Z 00000KT 9999 SCT008 21/19 Q1017=
METAR LPPT 190300Z 00000KT 9999 BKN007 21/20 Q1017=
METAR LPPT 190330Z 00000KT 9999 BKN007 21/20 Q1017=
METAR LPPT 190400Z VRB01KT 9999 BKN008 22/20 Q1017=
METAR LPPT 190430Z 00000KT 9999 BKN008 22/20 Q1017=
METAR LPPT 190500Z 00000KT 9999 BKN009 22/20 Q1017=
METAR LPPT 190530Z 00000KT 9999 BKN010 22/20 Q1017=
METAR LPPT 190600Z 00000KT 9999 BKN011 22/20 Q1018=
METAR LPPT 190630Z VRB02KT 9999 BKN012 22/20 Q1018=
METAR LPPT 190700Z 30003KT 240V340 9999 BKN012 22/20 Q1018=
METAR LPPT 190730Z VRB02KT 9999 BKN013 23/20 Q1018=
METAR LPPT 190800Z VRB02KT 9999 BKN014 23/20 Q1019=
METAR LPPT 190830Z 31003KT 260V030 9999 BKN014 23/20 Q1019=
METAR LPPT 190900Z 30003KT 260V350 9999 BKN015 24/20 Q1019=
METAR LPPT 190930Z VRB03KT 9999 BKN017 24/20 Q1019=
METAR LPPT 191000Z VRB04G14KT 9999 FEW016 BKN020 24/20 Q1019=
METAR LPPT 191030Z VRB06KT 9999 BKN021 25/20 Q1019=
METAR LPPT 191100Z 12006KT 050V160 9999 SCT020 26/20 Q1020=
METAR LPPT 191130Z 16008G21KT 110V270 9999 FEW023 SCT026 26/20 Q1020=
METAR LPPT 191200Z 15006KT 070V220 9999 FEW025 27/20 Q1019=
METAR LPPT 191230Z 14008G21KT 110V190 9999 FEW027 27/20 Q1019=
METAR LPPT 191300Z 21010KT 160V240 9999 FEW030 28/20 Q1019=
METAR LPPT 191330Z 20011KT 160V240 9999 FEW030 28/20 Q1019=
METAR LPPT 191400Z 20012KT 9999 FEW030 29/20 Q1019=
METAR LPPT 191430Z 26010KT 210V330 9999 FEW035 31/18 Q1019=
METAR LPPT 191500Z 29008KT 240V340 9999 FEW040 31/18 Q1019=
METAR LPPT 191530Z 32008KT 280V350 9999 FEW045 30/19 Q1019=
METAR LPPT 191600Z 31008KT 270V350 CAVOK 30/19 Q1018=
METAR LPPT 191630Z 30007KT 260V340 CAVOK 30/20 Q1018=
METAR LPPT 191700Z 30008KT 270V340 CAVOK 29/20 Q1018=
METAR LPPT 191730Z 31008KT 280V340 CAVOK 28/20 Q1018=
METAR LPPT 191800Z 29009KT 260V320 CAVOK 27/20 Q1018=
METAR LPPT 191830Z 30011KT 9999 FEW020 26/20 Q1018=
METAR LPPT 191900Z 31009KT 9999 FEW020 26/21 Q1018=
METAR LPPT 191930Z 30009KT 9999 FEW020 25/21 Q1019=
METAR LPPT 192000Z 30010KT 9999 FEW012 24/21 Q1019=
METAR LPPT 192030Z 31012KT 9999 FEW012 24/21 Q1019=
METAR LPPT 192100Z 31011KT 9999 FEW012 24/21 Q1019=
METAR LPPT 192130Z 31010KT 9999 FEW016 23/21 Q1019=
METAR LPPT 192200Z 31010KT 9999 FEW012 23/21 Q1019=
METAR LPPT 192230Z 31011KT 9999 FEW012 23/21 Q1019=
METAR LPPT 192300Z VRB05KT 9999 FEW012 23/21 Q1019=
METAR LPPT 192330Z 32006KT 280V350 9999 FEW012 23/21 Q1019=
METAR LPPT 200000Z 31008KT 9999 FEW012 23/21 Q1019=
METAR LPPT 200030Z 32007KT 290V350 9999 FEW012 23/21 Q1019=
METAR LPPT 200100Z 36004KT 300V030 9999 FEW012 22/21 Q1019=
METAR LPPT 200130Z VRB02KT 9999 FEW012 22/21 Q1019=
METAR LPPT 200200Z 35006KT 330V040 9999 BKN005 22/21 Q1019=
METAR LPPT 200230Z 34008KT 9999 BKN005 22/21 Q1019=
METAR LPPT 200300Z 34006KT 310V020 9999 BKN005 22/21 Q1019=
METAR LPPT 200330Z 30003KT 270V350 9999 FEW007 22/21 Q1019=
METAR LPPT 200400Z 33007KT 9999 FEW007 22/21 Q1019=
METAR LPPT 200430Z 33007KT 300V360 9999 FEW007 22/20 Q1019=
METAR LPPT 200500Z 33007KT 9999 FEW004 SCT007 21/20 Q1019=
METAR LPPT 200530Z 32007KT 290V350 9999 SCT005 21/20 Q1019=
METAR LPPT 200600Z 33008KT 9999 FEW005 20/19 Q1019=
METAR LPPT 200630Z 33007KT 9999 FEW006 20/19 Q1020=
METAR LPPT 200700Z 34006KT 9999 FEW007 20/19 Q1020=
METAR LPPT 200730Z 34005KT 290V010 9999 FEW007 21/19 Q1020=
METAR LPPT 200800Z 35008KT 9999 FEW007 23/18 Q1020=
METAR LPPT 200830Z 36008KT 9999 FEW009 24/18 Q1020=
METAR LPPT 200900Z 35007KT 300V040 9999 FEW015 25/18 Q1020=
METAR LPPT 200930Z 36005KT 300V050 9999 FEW015 25/18 Q1020=
METAR LPPT 201000Z 34007KT 280V070 9999 FEW020 27/18 Q1020=
METAR LPPT 201030Z 36007KT 290V070 CAVOK 27/18 Q1020=
METAR LPPT 201100Z VRB06KT CAVOK 28/17 Q1020=
METAR LPPT 201130Z VRB06KT CAVOK 30/16 Q1020=
METAR LPPT 201200Z 33008KT 290V360 CAVOK 30/15 Q1020=
METAR LPPT 201230Z 34007KT 290V050 CAVOK 31/14 Q1020=
METAR LPPT 201300Z 35010G21KT 300V030 CAVOK 32/11 Q1019=
METAR LPPT 201330Z 33010KT CAVOK 32/11 Q1019=
METAR LPPT 201400Z 33010KT 290V360 CAVOK 32/13 Q1019=
METAR LPPT 201430Z 31008KT 270V010 CAVOK 32/13 Q1019=
METAR LPPT 201500Z 31009KT 290V360 CAVOK 32/12 Q1018=
METAR LPPT 201530Z 33010KT 290V010 CAVOK 32/12 Q1018=
METAR LPPT 201600Z 31011KT CAVOK 31/13 Q1018=
METAR COR LPPT 201630Z 32010KT 290V350 CAVOK 31/13 Q1018=
METAR LPPT 201700Z 32010KT 290V350 CAVOK 30/12 Q1018=
METAR LPPT 201730Z 32011KT CAVOK 30/13 Q1018=
METAR LPPT 201800Z 31011KT 280V340 CAVOK 29/12 Q1018=
METAR LPPT 201830Z 31011KT CAVOK 28/13 Q1019=
METAR LPPT 201900Z 31012KT CAVOK 27/13 Q1019=
METAR LPPT 201930Z 32014KT CAVOK 25/14 Q1019=
METAR LPPT 202000Z 32014KT CAVOK 24/14 Q1019=
METAR LPPT 202030Z 33016KT CAVOK 23/14 Q1019=
METAR LPPT 202100Z 33016KT CAVOK 23/15 Q1020=
METAR LPPT 202130Z 32014KT CAVOK 23/14 Q1020=
METAR LPPT 202200Z 34014KT CAVOK 23/14 Q1020=
METAR LPPT 202230Z 01005KT 320V080 CAVOK 23/14 Q1020=
METAR LPPT 202300Z 36005KT 310V040 CAVOK 22/14 Q1020=
METAR LPPT 202330Z 32005KT 290V350 CAVOK 22/14 Q1020=
METAR LPPT 210000Z 34005KT 300V010 CAVOK 22/13 Q1020=
METAR LPPT 210030Z 01005KT 330V050 CAVOK 22/14 Q1020=
METAR LPPT 210100Z 34005KT 300V360 CAVOK 22/14 Q1019=
METAR LPPT 210130Z 34008KT CAVOK 22/14 Q1019=
METAR LPPT 210200Z 34006KT 310V010 CAVOK 22/15 Q1019=
METAR LPPT 210230Z 33009KT CAVOK 22/15 Q1019=
METAR LPPT 210300Z 33011KT CAVOK 21/15 Q1018=
METAR LPPT 210330Z 33009KT 290V350 CAVOK 21/16 Q1018=
METAR LPPT 210400Z 33007KT CAVOK 21/15 Q1018=
METAR LPPT 210430Z 32006KT 270V350 CAVOK 22/15 Q1018=
METAR LPPT 210500Z 34008KT 9999 FEW005 22/15 Q1018=
METAR LPPT 210530Z 33008KT 9999 FEW010 22/14 Q1018=
METAR LPPT 210600Z 34004KT CAVOK 22/14 Q1018=
METAR LPPT 210630Z 33005KT 300V360 CAVOK 22/15 Q1018=
METAR LPPT 210700Z 35004KT 330V030 CAVOK 23/15 Q1018=
METAR LPPT 210730Z 34005KT CAVOK 24/14 Q1018=
METAR LPPT 210800Z 02005KT 360V070 CAVOK 24/15 Q1018=
METAR LPPT 210830Z 35006KT 310V050 CAVOK 26/14 Q1018=
METAR LPPT 210900Z 34008KT CAVOK 27/15 Q1019=
METAR LPPT 210930Z 34007KT 300V010 CAVOK 28/15 Q1019=
METAR LPPT 211000Z 33008KT 300V360 CAVOK 29/16 Q1019=
METAR LPPT 211030Z 33009KT 300V360 CAVOK 30/16 Q1019=
METAR LPPT 211100Z 33008KT 270V010 CAVOK 31/15 Q1019=
METAR LPPT 211130Z 08005KT 010V120 CAVOK 32/16 Q1018=
METAR LPPT 211200Z VRB06G23KT CAVOK 33/16 Q1018=
METAR LPPT 211230Z 10007KT 030V120 CAVOK 33/15 Q1018=
METAR LPPT 211300Z 10005KT 360V160 CAVOK 34/15 Q1017=
METAR LPPT 211330Z VRB05KT CAVOK 36/15 Q1017=
METAR LPPT 211400Z 10005KT 030V160 CAVOK 36/15 Q1017=
METAR LPPT 211430Z 10005G17KT 020V150 CAVOK 37/14 Q1016=
METAR LPPT 211500Z VRB04KT CAVOK 38/14 Q1016=
METAR LPPT 211530Z 29004KT 200V320 CAVOK 38/14 Q1016=
METAR LPPT 211600Z 33008KT 290V360 CAVOK 37/16 Q1015=
METAR LPPT 211630Z 34009KT 300V360 CAVOK 37/13 Q1015=
METAR LPPT 211700Z 33013KT CAVOK 36/14 Q1015=
METAR LPPT 211730Z 32012KT CAVOK 33/16 Q1015=
METAR LPPT 211800Z 33015KT CAVOK 31/16 Q1016=
METAR LPPT 211830Z 32014KT 280V340 CAVOK 30/15 Q1016=
METAR LPPT 211900Z 33015KT CAVOK 28/16 Q1016=
METAR LPPT 211930Z 31015KT CAVOK 27/16 Q1016=
METAR LPPT 212000Z 32013KT CAVOK 26/16 Q1016=
METAR LPPT 212030Z 32012KT CAVOK 26/15 Q1016=
METAR LPPT 212100Z 33012KT CAVOK 26/13 Q1016=
METAR LPPT 212130Z 01006KT 330V040 CAVOK 27/12 Q1016=
METAR LPPT 212200Z 35006KT CAVOK 26/13 Q1016=
METAR LPPT 212230Z 33007KT CAVOK 26/12 Q1016=
METAR LPPT 212300Z 34007KT CAVOK 26/11 Q1016=
METAR LPPT 212330Z 34006KT CAVOK 26/10 Q1016=
METAR LPPT 220000Z 32006KT CAVOK 26/11 Q1015=
METAR LPPT 220030Z 32007KT CAVOK 26/11 Q1015=
METAR LPPT 220100Z 32007KT 290V350 CAVOK 27/11 Q1015=
METAR LPPT 220130Z 33006KT CAVOK 27/10 Q1014=
METAR LPPT 220200Z 33007KT CAVOK 27/10 Q1014=
METAR LPPT 220230Z 34005KT CAVOK 26/10 Q1014=
METAR LPPT 220300Z 34003KT CAVOK 25/11 Q1014=
METAR LPPT 220330Z 04003KT CAVOK 24/13 Q1014=
METAR LPPT 220400Z 34002KT CAVOK 23/16 Q1014=
METAR LPPT 220430Z 32003KT 290V350 CAVOK 25/11 Q1014=
METAR LPPT 220500Z VRB04KT CAVOK 24/16 Q1014=
METAR LPPT 220530Z 11004KT 360V140 CAVOK 23/17 Q1014=
METAR LPPT 220600Z VRB03KT CAVOK 23/16 Q1014=
METAR LPPT 220630Z 31002KT CAVOK 22/17 Q1014=
METAR LPPT 220700Z 33003KT 300V010 CAVOK 24/15 Q1014=
METAR LPPT 220730Z 00000KT CAVOK 26/14 Q1014=
METAR LPPT 220800Z VRB02KT CAVOK 28/12 Q1015=
METAR LPPT 220830Z 29003KT 260V330 CAVOK 29/11 Q1015=
METAR LPPT 220900Z 11004KT 060V220 CAVOK 30/14 Q1014=
METAR LPPT 220930Z 12004KT 050V200 CAVOK 31/15 Q1014=
METAR LPPT 221000Z VRB06G20KT CAVOK 32/16 Q1014=
METAR LPPT 221030Z 11009KT 080V150 CAVOK 29/13 Q1015=
METAR LPPT 221100Z 13006KT 090V190 CAVOK 31/13 Q1015=
METAR LPPT 221130Z 16005KT 110V250 CAVOK 33/12 Q1014=
METAR LPPT 221200Z 17006KT 110V210 CAVOK 34/12 Q1014=
METAR LPPT 221230Z 21009KT 170V250 CAVOK 35/12 Q1014=
METAR LPPT 221300Z 22011KT 180V260 CAVOK 35/10 Q1014=
METAR LPPT 221330Z 24014KT 220V280 CAVOK 34/10 Q1014=
METAR LPPT 221400Z 23013KT CAVOK 34/10 Q1014=
METAR LPPT 221430Z 23016KT CAVOK 33/09 Q1013=
METAR LPPT 221500Z 23015KT CAVOK 34/10 Q1013=
METAR LPPT 221530Z 23013KT CAVOK 35/11 Q1013=
METAR LPPT 221600Z 23011KT CAVOK 34/12 Q1013=
METAR LPPT 221630Z 22013KT CAVOK 34/12 Q1013=
METAR LPPT 221700Z 23013KT CAVOK 33/12 Q1013=
METAR LPPT 221730Z 24016KT CAVOK 33/10 Q1013=
METAR LPPT 221800Z 24013KT CAVOK 33/10 Q1013=
METAR LPPT 221830Z 25012KT CAVOK 32/10 Q1013=
METAR LPPT 221900Z 28008KT 250V310 CAVOK 31/13 Q1013=
METAR LPPT 221930Z 31007KT 270V330 CAVOK 29/14 Q1013=
METAR LPPT 222000Z 31009KT CAVOK 27/15 Q1013=
METAR LPPT 222030Z 32007KT 290V350 CAVOK 27/15 Q1013=
METAR LPPT 222100Z 33006KT 290V020 CAVOK 26/16 Q1013=
METAR LPPT 222130Z 34007KT CAVOK 26/17 Q1013=
METAR LPPT 222200Z 32007KT CAVOK 26/17 Q1013=
METAR LPPT 222230Z 31008KT CAVOK 26/17 Q1013=
METAR LPPT 222300Z 31007KT CAVOK 26/17 Q1013=
METAR LPPT 222330Z 32008KT CAVOK 27/16 Q1012=
METAR LPPT 230000Z 31008KT CAVOK 27/16 Q1012=
METAR LPPT 230030Z VRB02KT CAVOK 27/16 Q1012=
METAR LPPT 230100Z 33003KT 260V360 CAVOK 26/16 Q1012=
METAR LPPT 230130Z 32005KT CAVOK 26/16 Q1012=
METAR LPPT 230200Z 00000KT CAVOK 26/16 Q1012=
METAR LPPT 230230Z 00000KT CAVOK 25/16 Q1012=
METAR LPPT 230300Z 26004KT CAVOK 25/17 Q1012=
METAR LPPT 230330Z 00000KT CAVOK 24/17 Q1012=
METAR LPPT 230400Z 00000KT CAVOK 24/16 Q1012=
METAR LPPT 230430Z 00000KT CAVOK 22/16 Q1012=
METAR LPPT 230500Z 00000KT CAVOK 22/16 Q1012=
METAR LPPT 230530Z 00000KT CAVOK 22/16 Q1012=
METAR LPPT 230600Z 00000KT CAVOK 22/17 Q1012=
METAR LPPT 230630Z 00000KT CAVOK 23/16 Q1012=
METAR LPPT 230700Z VRB01KT CAVOK 25/17 Q1012=
METAR LPPT 230730Z 06004KT 360V090 CAVOK 26/17 Q1013=
METAR LPPT 230800Z 08006KT CAVOK 25/19 Q1013=
METAR LPPT 230830Z 08006KT 060V120 CAVOK 25/19 Q1013=
METAR LPPT 230900Z 10004KT 060V120 CAVOK 26/19 Q1013=
METAR LPPT 230930Z 07005G20KT 360V110 CAVOK 26/19 Q1013=
METAR LPPT 231000Z 08005KT 340V150 CAVOK 28/18 Q1013=
METAR LPPT 231030Z 07007KT 030V110 CAVOK 28/19 Q1014=
METAR LPPT 231100Z 08007KT 050V120 CAVOK 30/18 Q1014=
METAR LPPT 231130Z 07006G21KT 360V150 CAVOK 31/17 Q1014=
METAR LPPT 231200Z VRB06KT CAVOK 32/16 Q1013=
METAR LPPT 231230Z 10006KT 330V140 CAVOK 33/15 Q1013=
METAR LPPT 231300Z VRB03KT CAVOK 35/14 Q1013=
METAR LPPT 231330Z VRB03KT CAVOK 36/13 Q1013=
METAR LPPT 231400Z 18008KT 110V210 CAVOK 37/12 Q1013=
METAR LPPT 231430Z 21010KT 170V240 CAVOK 37/11 Q1013=
METAR LPPT 231500Z 23011KT 210V270 CAVOK 36/11 Q1012=
METAR LPPT 231530Z 23011KT CAVOK 36/11 Q1012=
METAR LPPT 231600Z 24010KT CAVOK 36/12 Q1012=
METAR LPPT 231630Z 24011KT CAVOK 35/14 Q1012=
METAR LPPT 231700Z 25011KT CAVOK 34/15 Q1012=
METAR LPPT 231730Z 29008KT 250V320 CAVOK 31/18 Q1012=
METAR LPPT 231800Z 32010KT CAVOK 28/18 Q1012=
METAR LPPT 231830Z 31012KT CAVOK 27/17 Q1012=
METAR LPPT 231900Z 32015KT CAVOK 26/17 Q1013=
METAR LPPT 231930Z 31014KT CAVOK 26/17 Q1013=
METAR LPPT 232000Z 31013KT CAVOK 25/16 Q1013=
METAR LPPT 232030Z 31014KT CAVOK 24/17 Q1013=
METAR LPPT 232100Z 31014KT CAVOK 24/17 Q1014=
METAR LPPT 232130Z 31013KT 290V350 CAVOK 23/18 Q1014=
METAR LPPT 232200Z VRB04KT CAVOK 22/18 Q1014=
METAR LPPT 232230Z 34009KT CAVOK 22/18 Q1014=
METAR LPPT 232300Z 36005KT CAVOK 22/17 Q1014=
METAR LPPT 232330Z 31006KT CAVOK 22/17 Q1014=
METAR LPPT 240000Z 32005KT 290V350 CAVOK 22/17 Q1014=
METAR LPPT 240030Z 31006KT CAVOK 22/17 Q1014=
METAR LPPT 240100Z 31007KT CAVOK 23/15 Q1014=
METAR LPPT 240130Z 31008KT CAVOK 23/14 Q1014=
METAR LPPT 240200Z 31007KT 280V340 CAVOK 22/16 Q1014=
METAR LPPT 240230Z 31008KT CAVOK 21/17 Q1014=
METAR LPPT 240300Z 32006KT 290V350 CAVOK 21/18 Q1014=
METAR LPPT 240330Z 31009KT CAVOK 20/18 Q1014=
METAR LPPT 240400Z 31011KT CAVOK 20/18 Q1014=
METAR LPPT 240430Z 32009KT CAVOK 20/17 Q1014=
METAR LPPT 240500Z 32010KT CAVOK 20/17 Q1014=
METAR LPPT 240530Z 32009KT CAVOK 20/17 Q1014=
METAR LPPT 240600Z 32009KT 9999 FEW010 20/17 Q1015=
METAR LPPT 240630Z 32009KT 9999 FEW010 20/17 Q1015=
METAR LPPT 240700Z 32007KT 9999 FEW010 20/17 Q1015=
METAR LPPT 240730Z 31008KT 9999 FEW010 21/17 Q1015=
METAR LPPT 240800Z 31007KT 9999 FEW010 22/17 Q1016=
METAR LPPT 240830Z 32008KT 290V350 CAVOK 23/17 Q1016=
METAR LPPT 240900Z 33008KT 290V360 CAVOK 24/17 Q1016=
METAR LPPT 240930Z 34007KT 300V360 CAVOK 25/17 Q1016=
METAR LPPT 241000Z 31006KT 280V360 CAVOK 27/17 Q1016=
METAR LPPT 241030Z 32006KT 280V010 CAVOK 28/17 Q1016=
METAR LPPT 241100Z 34006KT 310V040 CAVOK 29/16 Q1016=
METAR LPPT 241130Z 36006KT 300V060 CAVOK 31/15 Q1016=
METAR LPPT 241200Z VRB06G16KT CAVOK 31/16 Q1016=
METAR LPPT 241230Z 33006KT 280V030 CAVOK 32/14 Q1016=
METAR LPPT 241300Z 33007KT 290V010 CAVOK 33/14 Q1016=
METAR LPPT 241330Z 34006KT 280V030 CAVOK 33/13 Q1015=
METAR LPPT 241400Z 34007KT 290V020 CAVOK 34/13 Q1015=
METAR LPPT 241430Z 35009KT 310V020 CAVOK 34/13 Q1015=
METAR LPPT 241500Z 35009KT 320V020 CAVOK 34/13 Q1015=
METAR LPPT 241530Z 34011KT 310V010 CAVOK 33/14 Q1015=
METAR LPPT 241600Z 34011KT 310V010 CAVOK 33/13 Q1015=
METAR LPPT 241630Z 34013KT CAVOK 32/14 Q1015=
METAR LPPT 241700Z 33014KT CAVOK 31/14 Q1015=
METAR LPPT 241730Z 33012KT 290V350 CAVOK 30/16 Q1015=
METAR LPPT 241800Z 33012KT CAVOK 28/16 Q1015=
METAR LPPT 241830Z 32013KT CAVOK 27/16 Q1015=
METAR LPPT 241900Z 31013KT CAVOK 26/16 Q1015=
METAR LPPT 241930Z 32014KT CAVOK 25/16 Q1015=
METAR LPPT 242000Z 32013KT CAVOK 24/15 Q1016=
METAR LPPT 242030Z 33012KT CAVOK 24/15 Q1016=
METAR LPPT 242100Z 34010KT 310V010 CAVOK 23/15 Q1016=
METAR LPPT 242130Z 34007KT 310V010 CAVOK 23/15 Q1016=
METAR LPPT 242200Z 34009KT CAVOK 22/16 Q1017=
METAR LPPT 242230Z 34007KT 300V030 CAVOK 22/16 Q1017=
METAR LPPT 242300Z 32012KT CAVOK 22/16 Q1016=
METAR LPPT 242330Z 32011KT CAVOK 22/16 Q1016=
METAR LPPT 250000Z 32010KT CAVOK 22/16 Q1016=
METAR LPPT 250030Z 32011KT CAVOK 22/16 Q1016=
METAR LPPT 250100Z 32010KT CAVOK 21/16 Q1016=
METAR LPPT 250130Z 32010KT CAVOK 21/16 Q1016=
METAR LPPT 250200Z 33010KT CAVOK 21/16 Q1016=
METAR LPPT 250230Z 33011KT CAVOK 21/16 Q1016=
METAR LPPT 250300Z 36006KT 300V040 CAVOK 20/16 Q1016=
METAR LPPT 250330Z 34009KT CAVOK 20/16 Q1015=
METAR LPPT 250400Z 34010KT 310V010 CAVOK 20/16 Q1015=
METAR LPPT 250430Z 33014KT CAVOK 20/17 Q1015=
METAR LPPT 250500Z 33013KT CAVOK 20/17 Q1015=
METAR LPPT 250530Z 34010KT 300V360 CAVOK 19/17 Q1015=
METAR LPPT 250600Z 33010KT 9999 FEW012 19/17 Q1016=
METAR LPPT 250630Z 32008KT 9999 FEW012 19/17 Q1016=
METAR LPPT 250700Z 33009KT 9999 FEW012 20/17 Q1017=
METAR LPPT 250730Z 34011KT 9999 FEW012 20/17 Q1017=
METAR LPPT 250800Z 34007KT 310V010 9999 FEW012 20/17 Q1017=
METAR LPPT 250830Z 34010KT 9999 FEW012 21/17 Q1017=
METAR LPPT 250900Z 33006KT 290V360 CAVOK 22/17 Q1017=
METAR LPPT 250930Z 34006KT 300V010 CAVOK 24/16 Q1017=
METAR LPPT 251000Z 01008KT CAVOK 26/15 Q1017=
METAR LPPT 251030Z 04006KT 330V110 CAVOK 27/17 Q1017=
METAR LPPT 251100Z VRB05KT CAVOK 28/16 Q1017=
METAR LPPT 251130Z VRB04KT CAVOK 30/16 Q1016=
METAR LPPT 251200Z VRB05KT CAVOK 29/16 Q1016=
METAR LPPT 251230Z 36008KT 320V070 CAVOK 31/16 Q1016=
METAR LPPT 251300Z 35009KT 330V040 CAVOK 31/15 Q1015=
METAR LPPT 251330Z 34009KT 300V030 CAVOK 32/13 Q1016=
METAR LPPT 251400Z 32011KT 280V350 CAVOK 31/16 Q1016=
METAR LPPT 251430Z 32010KT 290V360 CAVOK 31/14 Q1015=
METAR LPPT 251500Z 33013KT 290V360 CAVOK 30/15 Q1015=
METAR LPPT 251530Z 33014KT 290V350 CAVOK 29/15 Q1015=
METAR LPPT 251600Z 33013KT CAVOK 29/15 Q1015=
METAR LPPT 251630Z 33013KT 300V360 CAVOK 29/15 Q1015=
METAR LPPT 251700Z 34012KT 290V360 CAVOK 29/15 Q1015=
METAR LPPT 251730Z 34013KT CAVOK 27/16 Q1015=
METAR LPPT 251800Z 33012KT CAVOK 26/15 Q1015=
METAR LPPT 251830Z 33012KT CAVOK 24/16 Q1015=
METAR LPPT 251900Z 33012KT CAVOK 23/16 Q1016=
METAR LPPT 251930Z 33014KT CAVOK 22/15 Q1016=
METAR LPPT 252000Z 34013KT CAVOK 21/15 Q1016=
METAR LPPT 252030Z 36010KT 320V040 CAVOK 21/15 Q1016=
METAR LPPT 252100Z 33015G25KT CAVOK 20/15 Q1017=
METAR LPPT 252130Z 01007KT 320V080 CAVOK 20/15 Q1016=
METAR LPPT 252200Z 05010KT 010V090 CAVOK 20/14 Q1015=
METAR LPPT 252230Z 04009KT 360V060 CAVOK 21/14 Q1016=
METAR LPPT 252300Z 32010KT 290V350 CAVOK 20/14 Q1017=
METAR LPPT 252330Z 36011KT CAVOK 20/14 Q1016=
METAR LPPT 260000Z 34013KT CAVOK 20/13 Q1016=
METAR LPPT 260030Z 32010KT 290V350 CAVOK 20/13 Q1017=
METAR LPPT 260100Z 34013KT 310V010 CAVOK 19/14 Q1016=
METAR LPPT 260130Z 34013G25KT 300V360 CAVOK 19/14 Q1016=
METAR LPPT 260200Z 35010KT CAVOK 19/14 Q1016=
METAR LPPT 260230Z 35011KT 320V020 CAVOK 19/15 Q1016=
METAR LPPT 260300Z 34012KT CAVOK 19/15 Q1016=
METAR LPPT 260330Z 35015KT 310V010 CAVOK 19/15 Q1016=
METAR LPPT 260400Z 35012KT CAVOK 19/15 Q1016=
METAR LPPT 260430Z 01015KT 320V050 9999 -RA NSC 19/15 Q1015=
METAR LPPT 260500Z 35011KT CAVOK 19/15 Q1016=
METAR LPPT 260530Z 35012KT 9999 -RA NSC 19/15 Q1016=
METAR LPPT 260600Z 35013KT CAVOK 19/14 Q1016=
METAR LPPT 260630Z 36011KT 330V030 CAVOK 19/14 Q1016=
METAR LPPT 260700Z 36014KT CAVOK 19/13 Q1016=
METAR LPPT 260730Z 36009KT CAVOK 19/13 Q1016=
METAR LPPT 260800Z 35011KT CAVOK 19/13 Q1016=
METAR LPPT 260830Z 35015KT 320V020 CAVOK 20/13 Q1016=
METAR LPPT 260900Z 35017KT 310V010 9999 FEW020 21/13 Q1017=
METAR LPPT 260930Z 34015KT 310V010 CAVOK 22/13 Q1017=
METAR LPPT 261000Z 34017KT CAVOK 22/11 Q1017=
METAR LPPT 261030Z 35017KT 9999 FEW030 24/11 Q1017=
METAR LPPT 261100Z 35018KT CAVOK 24/12 Q1017=
METAR LPPT 261130Z 35017KT 320V020 CAVOK 24/11 Q1017=
METAR LPPT 261200Z 34016KT CAVOK 24/10 Q1017=
METAR LPPT 261230Z 36016KT CAVOK 25/10 Q1017=
METAR LPPT 261300Z 34014KT 310V020 CAVOK 25/10 Q1017=
METAR LPPT 261330Z 35017KT CAVOK 25/09 Q1017=
METAR LPPT 261400Z 35017KT 310V010 CAVOK 25/09 Q1017=
METAR LPPT 261430Z 35020KT CAVOK 25/10 Q1017=
METAR LPPT 261500Z 35020KT CAVOK 25/09 Q1017=
METAR LPPT 261530Z 35017G29KT CAVOK 24/09 Q1017=
METAR LPPT 261600Z 34019KT CAVOK 24/10 Q1017=
METAR LPPT 261630Z 34019KT CAVOK 23/10 Q1017=
METAR LPPT 261700Z 33019KT 9999 FEW020 23/10 Q1017=
METAR LPPT 261730Z 34018KT 9999 FEW025 22/12 Q1017=
METAR LPPT 261800Z 33019KT 9999 FEW038 21/12 Q1017=
METAR LPPT 261830Z 34017KT 9999 FEW035 21/12 Q1018=
METAR LPPT 261900Z 35019KT 310V010 9999 FEW025 20/13 Q1018=
METAR LPPT 261930Z 34017KT 9999 FEW025 20/12 Q1018=
METAR LPPT 262000Z 34016KT 310V010 9999 FEW025 19/13 Q1018=
METAR LPPT 262030Z 35014KT 9999 FEW025 19/13 Q1019=
METAR LPPT 262100Z 35013KT 320V020 9999 FEW025 19/14 Q1019=
METAR LPPT 262130Z 35014KT 9999 FEW023 19/14 Q1019=
METAR LPPT 262200Z 35016KT 9999 FEW023 19/14 Q1019=
METAR LPPT 262230Z 35015KT 9999 FEW023 18/14 Q1019=
METAR LPPT 262300Z 34014KT 9999 FEW022 18/14 Q1019=
METAR LPPT 262330Z 35013KT 9999 BKN020 18/14 Q1019=
METAR LPPT 270000Z 35016KT 9999 BKN020 18/14 Q1019=
METAR LPPT 270030Z 34014KT 9999 SCT020 18/14 Q1019=
METAR LPPT 270100Z 35013KT 9999 SCT018 18/14 Q1019=
METAR LPPT 270130Z 35015KT 320V020 9999 SCT018 18/14 Q1019=
METAR LPPT 270200Z 35014KT 9999 FEW020 18/13 Q1019=
METAR LPPT 270230Z 35014KT 9999 FEW020 17/14 Q1019=
METAR LPPT 270300Z 35016KT 9999 FEW020 17/14 Q1020=
METAR LPPT 270330Z 34015KT 9999 FEW020 17/13 Q1020=
METAR LPPT 270400Z 35011KT CAVOK 17/13 Q1020=
METAR LPPT 270430Z 34017KT 310V010 CAVOK 17/13 Q1020=
METAR LPPT 270500Z 33016KT CAVOK 17/13 Q1020=
METAR LPPT 270530Z 33017KT CAVOK 17/13 Q1020=
METAR LPPT 270600Z 33017KT 310V010 9999 FEW012 17/13 Q1021=
METAR LPPT 270630Z 33018G29KT 9999 FEW012 17/13 Q1021 WS R02=
METAR LPPT 270700Z 34017KT 9999 FEW012 17/13 Q1021 WS R02=
METAR LPPT 270730Z 34013KT 300V360 9999 FEW012 18/13 Q1022 WS R02=
METAR LPPT 270800Z 35012G24KT 9999 FEW012 19/13 Q1022 WS R02=
METAR LPPT 270830Z 35020KT 9999 FEW012 20/12 Q1022 WS R02=
METAR LPPT 270900Z 36019KT 9999 FEW012 21/11 Q1022 WS R02=
METAR LPPT 270930Z 01017KT 9999 FEW015 22/11 Q1022 WS R02=
METAR LPPT 271000Z 35016KT 320V020 9999 FEW015 23/10 Q1022=
METAR LPPT 271030Z 36019KT 330V030 9999 FEW018 23/09 Q1022=
METAR LPPT 271100Z 35016KT 320V020 9999 FEW018 24/09 Q1022=
METAR LPPT 271130Z 35018KT 9999 FEW018 24/09 Q1022 WS R02=
METAR LPPT 271200Z 35017KT 320V030 9999 FEW025 25/09 Q1022=
METAR LPPT 271230Z 34021KT 9999 FEW025 24/09 Q1022 WS R02=
METAR LPPT 271300Z 35023G35KT 9999 FEW025 25/09 Q1021 WS R02=
METAR LPPT 271330Z 35022KT 320V020 CAVOK 24/09 Q1021 WS R02=
METAR LPPT 271400Z 35022KT CAVOK 24/09 Q1021 WS R02=
METAR LPPT 271430Z 35020KT 310V010 CAVOK 25/08 Q1021=
METAR LPPT 271500Z 35022KT CAVOK 24/08 Q1021=
METAR LPPT 271530Z 35022KT CAVOK 24/09 Q1021=
METAR LPPT 271600Z 35022KT CAVOK 24/08 Q1021=
METAR LPPT 271630Z 36024KT CAVOK 23/08 Q1021=
METAR LPPT 271700Z 35020G30KT CAVOK 23/09 Q1022=
METAR LPPT 271730Z 35019G29KT CAVOK 22/10 Q1022=
METAR LPPT 271800Z 35019G31KT CAVOK 22/10 Q1022=
METAR LPPT 271830Z 34023KT CAVOK 21/11 Q1022=
METAR LPPT 271900Z 34022G32KT 9999 FEW020 20/11 Q1022 WS R02=
METAR LPPT 271930Z 34019KT 9999 FEW018 19/12 Q1022 WS R02=
METAR LPPT 272000Z 34020KT 9999 FEW016 19/12 Q1022 WS R02=
METAR LPPT 272030Z 34018G30KT 9999 FEW015 19/12 Q1023 WS R02=
METAR LPPT 272100Z 34013KT 310V020 9999 FEW015 19/12 Q1023 WS R02=
METAR LPPT 272130Z 34011KT 300V020 9999 FEW012 18/13 Q1024 WS R02=
METAR LPPT 272200Z 35011KT 310V020 9999 FEW012 18/13 Q1023=
METAR LPPT 272230Z 34010KT 9999 FEW012 18/13 Q1023=
METAR LPPT 272300Z 34016KT 9999 FEW012 18/13 Q1023=
METAR LPPT 272330Z 34018KT 9999 FEW012 18/13 Q1023=
METAR LPPT 280000Z 34016KT 9999 FEW012 18/13 Q1023=
METAR LPPT 280030Z 33015KT 9999 FEW012 18/13 Q1023=
METAR LPPT 280100Z 33014KT 9999 FEW012 18/14 Q1023=
METAR LPPT 280130Z 33016KT 9999 FEW012 18/14 Q1023=
METAR LPPT 280200Z 33012KT 9999 FEW012 18/14 Q1022=
METAR LPPT 280230Z 33006KT 270V030 9999 FEW012 18/14 Q1022=
METAR LPPT 280300Z 36005KT 310V050 9999 FEW012 18/13 Q1022=
METAR LPPT 280330Z VRB05KT 9999 FEW012 18/13 Q1022=
METAR LPPT 280400Z 17005KT 140V230 9999 FEW012 18/13 Q1022=
METAR LPPT 280430Z VRB02KT 9999 FEW012 18/13 Q1022=
METAR LPPT 280500Z VRB04KT 9999 FEW012 18/13 Q1022=
METAR LPPT 280530Z 03004KT 310V120 9999 FEW015 17/12 Q1022=
METAR LPPT 280600Z VRB03KT CAVOK 18/12 Q1022=
METAR LPPT 280630Z VRB04KT CAVOK 18/12 Q1023=
METAR LPPT 280700Z VRB04KT CAVOK 19/11 Q1023 WS R02=
METAR LPPT 280730Z 34009G20KT 300V100 CAVOK 19/11 Q1023 WS R02=
METAR LPPT 280800Z 34013KT 310V010 CAVOK 20/12 Q1023 WS R02=
METAR LPPT 280830Z 35017KT CAVOK 21/12 Q1023=
METAR LPPT 280900Z 35015KT CAVOK 22/12 Q1023 WS R02=
METAR LPPT 280930Z 35015KT CAVOK 23/11 Q1023 WS R02=
METAR LPPT 281000Z 35012KT CAVOK 23/11 Q1023 WS R02=
METAR LPPT 281030Z 35012KT 320V020 CAVOK 25/12 Q1023 WS R02=
METAR LPPT 281100Z 35014KT 320V030 CAVOK 25/12 Q1023 WS R02=
METAR LPPT 281130Z 34012KT 310V010 CAVOK 26/13 Q1022 WS R02=
METAR LPPT 281200Z 34016KT CAVOK 26/13 Q1022=
METAR LPPT 281230Z 35012KT 310V050 CAVOK 26/12 Q1022=
METAR LPPT 281300Z 35013KT 310V030 CAVOK 26/12 Q1022=
METAR LPPT 281330Z 34013KT 290V020 CAVOK 26/11 Q1021=
METAR LPPT 281400Z 34014KT 300V020 CAVOK 26/12 Q1021=
METAR LPPT 281430Z 34016KT 300V010 CAVOK 26/12 Q1021=
METAR LPPT 281500Z 34018KT CAVOK 25/13 Q1021=
METAR LPPT 281530Z 34021KT 9999 FEW030 25/13 Q1021=
METAR LPPT 281600Z 33021G31KT 9999 FEW030 24/12 Q1020=
METAR LPPT 281630Z 32020KT 9999 FEW030 24/13 Q1020=
METAR LPPT 281700Z 33023G33KT 9999 FEW030 23/14 Q1020=
METAR LPPT 281730Z 33022KT 9999 FEW025 22/14 Q1020=
METAR LPPT 281800Z 33021KT 9999 FEW020 22/14 Q1019=
METAR LPPT 281830Z 33021KT 9999 FEW020 21/14 Q1020=
METAR LPPT 281900Z 33020KT 9999 FEW020 20/15 Q1020=
METAR LPPT 281930Z 34020KT 9999 FEW018 20/15 Q1020 WS R02=
METAR LPPT 282000Z 34019KT 9999 FEW016 19/15 Q1020 WS R02=
METAR LPPT 282030Z 34022KT CAVOK 19/15 Q1020 WS R02=
METAR LPPT 282100Z 34023KT CAVOK 19/15 Q1020 WS R02=
METAR LPPT 282130Z 34022G32KT CAVOK 19/15 Q1020 WS R02=
METAR LPPT 282200Z 35020KT CAVOK 19/15 Q1020 WS R02=
METAR LPPT 282230Z 35023KT 9999 FEW015 19/15 Q1020 WS R02=
METAR LPPT 282300Z 35023KT 9999 FEW015 19/15 Q1020 WS R02=
METAR LPPT 282330Z 34024KT 9999 FEW012 19/15 Q1020 WS R02=
METAR LPPT 290000Z 34022KT 9999 FEW012 19/15 Q1020 WS R02=
METAR LPPT 290030Z 33021G33KT CAVOK 19/15 Q1020 WS R02=
METAR LPPT 290100Z 34022G35KT CAVOK 19/15 Q1020 WS R02=
METAR LPPT 290130Z 33019KT CAVOK 18/15 Q1020 WS R02=
METAR LPPT 290200Z 34013KT 290V010 9999 FEW012 18/15 Q1020 WS R02=
METAR LPPT 290230Z 34019KT 9999 FEW012 18/15 Q1019 WS R02=
METAR LPPT 290300Z 34022G34KT 9999 FEW012 18/15 Q1019 WS R02=
METAR LPPT 290330Z 34022G34KT 9999 FEW012 18/15 Q1019 WS R02=
METAR LPPT 290400Z 34020KT 9999 FEW012 18/15 Q1019 WS R02=
METAR LPPT 290430Z 34022KT 9999 FEW012 18/15 Q1018=
METAR LPPT 290500Z 33023G34KT 9999 FEW012 18/15 Q1018=
METAR LPPT 290530Z 34021KT 9999 FEW012 18/15 Q1018=
METAR LPPT 290600Z 34016G26KT 300V360 9999 FEW012 18/15 Q1019=
METAR LPPT 290630Z 34015KT 9999 FEW012 18/14 Q1019=
METAR LPPT 290700Z 34014KT 300V010 9999 FEW015 18/14 Q1019=
METAR LPPT 290730Z 35011KT 310V080 9999 FEW016 19/14 Q1019 WS R02=
METAR LPPT 290800Z VRB07KT 9999 FEW018 19/14 Q1019 WS R02=
METAR LPPT 290830Z VRB07KT 9999 FEW020 20/15 Q1019 WS R02=
METAR LPPT 290900Z VRB08KT 9999 FEW022 21/15 Q1019 WS R02=
METAR LPPT 290930Z 01008KT 320V040 9999 FEW025 22/14 Q1019 WS R02=
METAR LPPT 291000Z 33018KT 9999 FEW030 22/14 Q1019 WS R02=
METAR LPPT 291030Z 34020KT 9999 FEW030 23/14 Q1019 WS R02=
METAR LPPT 291100Z 35017KT 9999 FEW032 24/14 Q1018 WS R02=
METAR LPPT 291130Z 35015KT 9999 FEW032 24/14 Q1018 WS R02=
METAR LPPT 291200Z 34018KT 9999 FEW035 25/14 Q1017=
METAR LPPT 291230Z 35019KT 310V010 9999 FEW035 26/14 Q1017=
METAR LPPT 291300Z 34021KT 9999 FEW035 25/14 Q1017=
METAR LPPT 291330Z 33022KT 9999 FEW035 25/13 Q1017=
METAR LPPT 291400Z 34023KT 9999 FEW035 26/13 Q1017=
METAR LPPT 291430Z 34020KT 9999 FEW035 26/13 Q1016=
METAR LPPT 291500Z 33021KT CAVOK 25/13 Q1016=
METAR LPPT 291530Z 33019KT CAVOK 25/12 Q1016=
METAR LPPT 291600Z 33019KT 290V350 CAVOK 25/12 Q1016=
METAR LPPT 291630Z 33019KT 290V350 9999 FEW030 25/13 Q1016=
METAR LPPT 291700Z 33021KT 9999 FEW030 24/14 Q1015=
METAR LPPT 291730Z 33019G31KT 9999 FEW030 23/14 Q1015=
METAR LPPT 291800Z 34022KT 9999 FEW025 22/14 Q1015=
METAR LPPT 291830Z 34020KT 9999 FEW025 22/14 Q1015=
METAR LPPT 291900Z 33015KT 9999 FEW020 21/14 Q1015 WS R02=
METAR LPPT 291930Z 32014KT 290V350 9999 FEW015 20/15 Q1016 WS R02=
METAR LPPT 292000Z 33010KT 290V350 9999 FEW015 19/15 Q1016 WS R02=
METAR LPPT 292030Z 34011G22KT 290V040 CAVOK 19/14 Q1017 WS R02=
METAR LPPT 292100Z 33011G21KT 280V030 CAVOK 19/15 Q1017=
METAR LPPT 292130Z 32013KT 290V350 CAVOK 19/15 Q1016=
METAR LPPT 292200Z 32014KT CAVOK 19/15 Q1016=
METAR LPPT 292230Z 32013KT CAVOK 19/15 Q1016=
METAR LPPT 292300Z 32013KT CAVOK 19/15 Q1016=
METAR LPPT 292330Z 33017G27KT CAVOK 19/15 Q1016=
METAR LPPT 300000Z 33019KT CAVOK 19/16 Q1016=
METAR COR LPPT 300030Z 33021G31KT 300V360 9999 FEW012 19/16 Q1016=
METAR LPPT 300100Z 34018KT 9999 FEW012 19/16 Q1016=
METAR LPPT 300130Z 34018KT 9999 FEW012 19/16 Q1015=
METAR LPPT 300200Z 33015G25KT 9999 FEW012 19/16 Q1015=
METAR LPPT 300230Z VRB06G18KT 9999 FEW012 19/15 Q1015=
METAR LPPT 300300Z VRB07KT 9999 FEW012 19/16 Q1015=
METAR LPPT 300330Z 35013KT 9999 FEW016 19/16 Q1015=
METAR LPPT 300400Z 35011KT 9999 FEW016 18/16 Q1015=
METAR LPPT 300430Z 34013KT 9999 FEW016 18/16 Q1014 WS R02=
METAR LPPT 300500Z 32012KT 9999 FEW016 18/15 Q1014 WS R02=
METAR LPPT 300530Z 33015KT 9999 FEW012 18/15 Q1014=
METAR LPPT 300600Z 33015KT 9999 FEW012 18/15 Q1014=
METAR LPPT 300630Z 33012KT 9999 FEW012 18/15 Q1014=
METAR LPPT 300700Z 33008KT 300V360 9999 FEW012 18/16 Q1015=
METAR LPPT 300730Z 32012KT 9999 FEW014 19/16 Q1015=
METAR LPPT 300800Z 34022KT 9999 FEW014 19/16 Q1015=
METAR LPPT 300830Z 33018KT 9999 FEW014 20/16 Q1015=
METAR LPPT 300900Z 34021KT 9999 FEW016 20/15 Q1015=
METAR LPPT 300930Z 32017G27KT 9999 FEW016 21/15 Q1015=
METAR LPPT 301000Z 33019KT 9999 FEW020 22/15 Q1015=
METAR LPPT 301030Z 31014KT 9999 FEW025 23/14 Q1015=
METAR LPPT 301100Z 33016KT 290V360 9999 FEW030 24/14 Q1015=
METAR LPPT 301130Z 34013KT 310V020 9999 FEW035 25/13 Q1015=
METAR LPPT 301200Z 33011KT 290V010 9999 FEW040 26/14 Q1015=
METAR LPPT 301230Z 32012KT 280V360 9999 FEW045 26/13 Q1015=
METAR LPPT 301300Z 32013KT 290V350 9999 FEW045 26/13 Q1014=
METAR LPPT 301330Z 33014KT 300V360 9999 FEW045 26/12 Q1015=
METAR LPPT 301400Z 33013KT 280V360 9999 FEW045 26/12 Q1015=
METAR LPPT 301430Z 34016KT CAVOK 26/10 Q1014=
METAR LPPT 301500Z 33015KT CAVOK 26/11 Q1014=
METAR LPPT 301530Z 31015KT CAVOK 25/12 Q1014=
METAR LPPT 301600Z 32017KT 9999 FEW040 24/12 Q1014=
METAR LPPT 301630Z 33021KT 9999 FEW040 23/12 Q1014=
METAR LPPT 301700Z 32017KT 9999 FEW040 23/12 Q1014=
METAR LPPT 301730Z 32017KT 9999 FEW035 22/12 Q1013=
METAR LPPT 301800Z 32016KT CAVOK 22/13 Q1014=
METAR LPPT 301830Z 32014KT CAVOK 21/13 Q1014=
METAR LPPT 301900Z 33016KT CAVOK 21/12 Q1014=
METAR LPPT 301930Z 33017G28KT CAVOK 20/11 Q1014=
METAR LPPT 302000Z 33016G27KT 9999 FEW020 19/13 Q1015=
METAR LPPT 302030Z 34016KT 9999 FEW020 19/13 Q1015=
METAR LPPT 302100Z 34018KT CAVOK 19/14 Q1016=
METAR LPPT 302130Z 33016G27KT 9999 FEW015 19/14 Q1016=
METAR LPPT 302200Z 34015KT CAVOK 19/14 Q1016=
METAR LPPT 302230Z 34015KT 9999 FEW015 19/15 Q1016=
METAR LPPT 302300Z 34015KT 9999 FEW015 19/15 Q1016=
METAR LPPT 302330Z 34012KT 310V010 9999 FEW015 19/15 Q1015=
METAR LPPT 310000Z 33012KT 290V360 9999 FEW015 18/15 Q1015=
METAR LPPT 310030Z 34007KT 290V030 9999 FEW015 18/16 Q1015=
METAR LPPT 310100Z 33011KT 290V010 9999 FEW015 19/16 Q1015=
METAR LPPT 310130Z 34010KT 300V360 9999 FEW015 19/16 Q1015=
METAR LPPT 310200Z 33008KT 300V360 9999 FEW015 19/16 Q1015=
METAR LPPT 310230Z 35007KT 300V040 9999 FEW015 19/16 Q1015=
METAR LPPT 310300Z 01007KT CAVOK 18/15 Q1015=
METAR LPPT 310330Z 01008KT CAVOK 19/15 Q1015=
METAR LPPT 310400Z 34009KT 310V010 CAVOK 19/15 Q1015=
METAR LPPT 310430Z 33010KT CAVOK 19/15 Q1014=
METAR LPPT 310500Z 33010KT CAVOK 19/15 Q1015=
METAR LPPT 310530Z 33007KT 290V010 CAVOK 19/15 Q1015=
METAR LPPT 310600Z 34008KT 320V020 9999 FEW005 18/15 Q1015=
METAR LPPT 310630Z 33010KT 9999 FEW012 18/15 Q1015=
METAR LPPT 310700Z 32010KT 9999 FEW012 19/15 Q1016=
METAR LPPT 310730Z 33010KT 290V350 9999 FEW012 19/16 Q1016=
METAR LPPT 310800Z 32010KT CAVOK 20/15 Q1016=
METAR LPPT 310830Z 32011KT CAVOK 22/15 Q1016=
METAR LPPT 310900Z 33012KT CAVOK 23/16 Q1016=
METAR LPPT 310930Z 35010KT CAVOK 24/15 Q1017=
METAR LPPT 311000Z 35010KT 310V010 CAVOK 25/15 Q1017=
METAR LPPT 311030Z 34010KT 300V020 9999 FEW012 26/15 Q1017=
METAR LPPT 311100Z 31007KT 280V340 9999 FEW012 27/15 Q1017=
METAR LPPT 311130Z 34008KT 300V030 CAVOK 27/14 Q1017=
METAR LPPT 311200Z 35007KT 290V020 CAVOK 27/14 Q1016=
METAR LPPT 311230Z 31007KT 250V010 CAVOK 28/14 Q1016=
METAR LPPT 311300Z 32007KT 260V020 CAVOK 29/13 Q1016=
METAR LPPT 311330Z 32006KT 270V360 CAVOK 29/13 Q1016=
METAR LPPT 311400Z 31007KT 270V340 CAVOK 29/13 Q1016=
METAR LPPT 311430Z 32009KT 290V350 CAVOK 29/14 Q1016=
METAR LPPT 311500Z 32010KT 280V360 CAVOK 28/15 Q1016=
METAR LPPT 311530Z 32012KT CAVOK 28/15 Q1016=
METAR LPPT 311600Z 33014KT 9999 FEW040 26/16 Q1016=
METAR LPPT 311630Z 32011KT 280V360 9999 FEW040 26/16 Q1016=
METAR LPPT 311700Z 32012KT 300V360 9999 FEW035 25/15 Q1016=
METAR LPPT 311730Z 33014KT 9999 FEW035 25/15 Q1016=
METAR LPPT 311800Z 33014KT 9999 FEW035 24/15 Q1016=
METAR LPPT 311830Z 33016KT 9999 FEW030 23/15 Q1016=
METAR LPPT 311900Z 33017KT 9999 FEW025 22/15 Q1016=
METAR LPPT 311930Z 33018KT 9999 FEW020 21/15 Q1016=
METAR LPPT 312000Z 32018G28KT 9999 FEW020 20/15 Q1016=
METAR LPPT 312030Z 32015KT CAVOK 20/15 Q1017=
METAR LPPT 312100Z 33015KT CAVOK 20/16 Q1017=
METAR LPPT 312130Z 33015KT CAVOK 19/16 Q1017=
METAR LPPT 312200Z 33011KT CAVOK 19/16 Q1017=
METAR LPPT 312230Z 33011KT 300V360 CAVOK 19/15 Q1018=
METAR LPPT 312300Z 33012KT 300V360 9999 FEW014 19/16 Q1018=
METAR LPPT 312330Z 34010KT 9999 FEW014 19/16 Q1018=
