METAR LPPT 010000Z VRB02KT 9999 FEW009 SCT028 15/15 Q1016=
METAR LPPT 010030Z 34002KT 9999 FEW010 15/14 Q1016=
METAR LPPT 010100Z 00000KT 9999 FEW009 SCT028 15/14 Q1016=
METAR LPPT 010130Z VRB02KT 9999 SCT007 15/15 Q1016=
METAR LPPT 010200Z VRB02KT 9999 SCT004 SCT030 15/15 Q1016=
METAR LPPT 010230Z VRB01KT 9999 FEW002 BKN004 15/15 Q1016=
METAR LPPT 010300Z 00000KT 5000 1500S BR FEW001 BKN003 15/15 Q1015=
METAR LPPT 010330Z VRB02KT 4000 BR FEW001 BKN003 15/15 Q1015=
METAR LPPT 010400Z VRB02KT 6000 FEW001 BKN003 15/15 Q1015=
METAR LPPT 010430Z VRB02KT 6000 FEW001 BKN003 15/15 Q1015=
METAR LPPT 010500Z VRB02KT 7000 FEW002 BKN004 15/15 Q1015=
METAR LPPT 010530Z 04004KT 7000 FEW002 BKN004 15/15 Q1015=
METAR LPPT 010600Z 05004KT 360V150 8000 FEW003 BKN005 15/15 Q1015=
METAR LPPT 010630Z VRB02KT 8000 FEW004 BKN005 15/15 Q1015=
METAR LPPT 010700Z 06003KT 010V130 5000 BR FEW004 BKN005 15/15 Q1016=
METAR LPPT 010730Z 06003KT 360V120 7000 FEW004 BKN005 15/15 Q1016=
METAR LPPT 010800Z VRB03KT 6000 FEW002 BKN004 15/15 Q1016=
METAR LPPT 010830Z VRB02KT 7000 FEW004 SCT006 15/15 Q1016=
METAR LPPT 010900Z 07004KT 010V130 8000 FEW004 BKN009 16/15 Q1017=
METAR LPPT 010930Z VRB03KT 9000 SCT005 16/16 Q1017=
METAR LPPT 011000Z VRB05KT 9000 FEW006 BKN012 17/15 Q1017=
METAR LPPT 011030Z VRB05G18KT 9000 FEW004 BKN008 16/16 Q1017=
METAR LPPT 011100Z VRB04KT 9000 FEW004 SCT008 BKN018 17/16 Q1016=
METAR LPPT 011130Z VRB05G20KT 9000 FEW006 BKN018 17/15 Q1017=
METAR LPPT 011200Z 12005KT 070V200 9999 FEW008 BKN014 18/15 Q1017=
METAR LPPT 011230Z VRB04KT 9999 FEW009 SCT012 FEW020TCU 19/16 Q1016=
METAR LPPT 011300Z 11006KT 070V150 9999 FEW009 SCT012 FEW020TCU 19/16 Q1016=
METAR LPPT 011330Z 14007KT 100V250 9999 FEW012 SCT018 FEW020TCU 20/15 Q1015=
METAR LPPT 011400Z 10005G18KT 050V200 9999 SCT016 FEW020TCU 19/15 Q1015=
METAR LPPT 011430Z VRB07KT 9999 FEW016 BKN022 FEW025CB 20/15 Q1015=
METAR LPPT 011500Z 08009KT 050V110 9999 FEW018 BKN022 FEW025CB 19/16 Q1015=
METAR LPPT 011530Z 09006KT 060V120 9999 -SHRA FEW012 SCT018 SCT022CB 17/17 Q1015=
METAR LPPT 011600Z 08004KT 050V110 9999 4000S TS VCSH FEW010 SCT012 FEW022CB 17/17 Q1015 RESHRA=
METAR LPPT 011630Z 12008KT 9999 4500S VCSH FEW009 SCT012 FEW022CB 18/17 Q1016 RETS=
METAR LPPT 011700Z 14008KT 110V210 9999 VCSH FEW008 FEW025CB 18/16 Q1016=
METAR LPPT 011730Z VRB06KT 9999 VCSH FEW007 SCT025 FEW028CB 17/16 Q1016=
METAR LPPT 011800Z 15006KT 130V210 9999 SCT015 SCT022 FEW025CB 17/16 Q1016=
METAR LPPT 011830Z 14006KT 120V210 9999 -SHRA FEW006 SCT025 FEW030TCU 17/16 Q1017=
METAR LPPT 011900Z 14006KT 110V200 9999 -RA FEW006 SCT008 FEW025CB 17/16 Q1017=
METAR LPPT 011930Z VRB07KT 9999 FEW006 SCT008 FEW025TCU 16/16 Q1017=
METAR LPPT 012000Z 14004KT 090V180 9999 -RA FEW006 16/16 Q1017=
METAR LPPT 012030Z VRB04KT 9999 FEW005 16/16 Q1018=
METAR LPPT 012100Z 09004KT 050V110 9999 FEW006 16/16 Q1018=
METAR LPPT 012130Z 07005KT 9999 FEW010 16/16 Q1018=
METAR LPPT 012200Z 07004KT 9999 FEW010 SCT032 16/16 Q1018=
METAR LPPT 012230Z 08006G18KT 030V120 9999 FEW010 SCT030 16/15 Q1018=
METAR LPPT 012300Z 08005KT 9999 FEW016 16/15 Q1018=
METAR LPPT 012330Z 05005KT 300V070 9999 FEW016 15/15 Q1018=
METAR LPPT 020000Z 05005KT 290V080 9999 FEW016 15/14 Q1018=
METAR LPPT 020030Z 05006KT 9999 FEW034 15/14 Q1017=
METAR LPPT 020100Z 05006KT 9999 FEW034 15/14 Q1017=
METAR LPPT 020130Z 06005KT 040V100 9999 BKN016 15/15 Q1017=
METAR LPPT 020200Z 06006KT 9999 BKN018 15/15 Q1017=
METAR LPPT 020230Z 04005KT 9999 BKN016 15/15 Q1017=
METAR LPPT 020300Z 06004KT 9999 BKN018 15/14 Q1017=
METAR LPPT 020330Z 07003KT 040V110 9999 FEW018 15/14 Q1017=
METAR LPPT 020400Z 05005KT 9999 SCT016 15/14 Q1017=
METAR LPPT 020430Z 08004KT 9999 FEW046 15/14 Q1017=
METAR LPPT 020500Z 07005KT 9999 FEW038 15/14 Q1017=
METAR LPPT 020530Z 06005KT 9999 FEW036 14/14 Q1017=
METAR LPPT 020600Z 07005KT 030V100 9999 FEW010 14/14 Q1017=
METAR LPPT 020630Z 08005KT 9999 FEW036 14/14 Q1017=
METAR LPPT 020700Z 04006KT 020V080 9999 FEW010 14/14 Q1017=
METAR LPPT 020730Z 03004KT 010V080 9999 FEW010 14/14 Q1018=
METAR LPPT 020800Z 05005KT 340V080 9999 FEW009 15/14 Q1018=
METAR LPPT 020830Z 05009KT 9999 FEW006 15/14 Q1018=
METAR LPPT 020900Z 06007KT 9999 FEW010 16/15 Q1018=
METAR LPPT 020930Z 05007G19KT 330V090 9999 FEW015 16/15 Q1019=
METAR LPPT 021000Z 05006KT 310V100 9999 FEW018 17/15 Q1019=
METAR LPPT 021030Z 07007G17KT 340V110 9999 FEW020 17/15 Q1019=
METAR LPPT 021100Z VRB05G19KT 9999 FEW020 18/15 Q1019=
METAR LPPT 021130Z 07006KT 040V100 9999 FEW025 19/16 Q1018=
METAR LPPT 021200Z VRB07G18KT 9999 FEW025 19/16 Q1018=
METAR LPPT 021230Z 08005KT 030V110 9999 FEW025 20/16 Q1017=
METAR LPPT 021300Z 09006KT 040V110 9999 FEW025 21/16 Q1017=
METAR LPPT 021330Z 07007KT 020V170 9999 FEW025 FEW030TCU 21/16 Q1016=
METAR LPPT 021400Z 08006G24KT 020V120 9999 FEW025 FEW030TCU 22/16 Q1016=
METAR LPPT 021430Z VRB05KT 9999 FEW030 FEW035TCU 21/15 Q1016=
METAR LPPT 021500Z 08005G16KT 310V110 9999 SCT030 FEW035TCU 22/15 Q1016=
METAR LPPT 021530Z 07005KT 010V130 9999 FEW033 22/15 Q1016=
METAR LPPT 021600Z 04006KT 010V080 9999 FEW035 22/15 Q1016=
METAR LPPT 021630Z 05006KT 9999 FEW035 22/15 Q1016=
METAR LPPT 021700Z 02004KT 9999 FEW035 21/15 Q1016=
METAR LPPT 021730Z 04004KT 330V120 9999 FEW030 21/15 Q1016=
METAR LPPT 021800Z 03004KT 300V100 9999 FEW030 21/14 Q1017=
METAR LPPT 021830Z 03004KT 360V060 9999 FEW030 20/14 Q1017=
METAR LPPT 021900Z 04003KT CAVOK 19/14 Q1017=
METAR LPPT 021930Z VRB03KT CAVOK 19/15 Q1017=
METAR LPPT 022000Z 03003KT 350V050 CAVOK 18/14 Q1017=
METAR LPPT 022030Z 00000KT 9999 FEW048 17/15 Q1018=
METAR LPPT 022100Z VRB03KT 9999 FEW048 19/14 Q1017=
METAR LPPT 022130Z 03003KT 350V100 9999 FEW045 18/14 Q1017=
METAR LPPT 022200Z 02003KT 9999 FEW045 17/14 Q1017=
METAR LPPT 022230Z 04003KT 330V070 9999 FEW044 17/14 Q1018=
METAR LPPT 022300Z VRB02KT 9999 FEW044 16/14 Q1017=
METAR LPPT 022330Z 36002KT CAVOK 16/13 Q1017=
METAR LPPT 030000Z VRB02KT CAVOK 15/13 Q1018=
METAR LPPT 030030Z 01002KT CAVOK 16/13 Q1017=
METAR LPPT 030100Z 05004KT CAVOK 15/13 Q1017=
METAR LPPT 030130Z 03002KT CAVOK 15/14 Q1017=
METAR LPPT 030200Z 04004KT CAVOK 15/14 Q1017=
METAR LPPT 030230Z 04005KT CAVOK 15/14 Q1016=
METAR LPPT 030300Z 05004KT CAVOK 15/14 Q1016=
METAR LPPT 030330Z 06005KT CAVOK 15/14 Q1016=
METAR LPPT 030400Z 05005KT CAVOK 15/14 Q1016=
METAR LPPT 030430Z 05006KT CAVOK 14/14 Q1016=
METAR LPPT 030500Z 05004KT CAVOK 14/14 Q1017=
METAR LPPT 030530Z 06006KT CAVOK 14/14 Q1016=
METAR LPPT 030600Z 05005KT CAVOK 14/13 Q1016=
METAR LPPT 030630Z 05005KT CAVOK 14/13 Q1017=
METAR LPPT 030700Z 05007KT 350V070 CAVOK 14/13 Q1017=
METAR LPPT 030730Z 06006G18KT 350V080 CAVOK 14/13 Q1017=
METAR LPPT 030800Z 06006KT 9999 FEW012 14/14 Q1017=
METAR LPPT 030830Z 06008KT 020V080 9999 FEW012 15/14 Q1017=
METAR LPPT 030900Z 05010KT 350V080 9999 FEW012 15/14 Q1017=
METAR LPPT 030930Z 06008G19KT 360V090 9999 FEW012 16/14 Q1018=
METAR LPPT 031000Z 05007KT 330V100 9999 FEW012 16/14 Q1018=
METAR LPPT 031030Z 06010KT 020V080 CAVOK 16/14 Q1018=
METAR LPPT 031100Z 07008G24KT 290V100 CAVOK 17/15 Q1017=
METAR LPPT 031130Z 06007G18KT 010V090 CAVOK 18/15 Q1017=
METAR LPPT 031200Z 06008G19KT 360V100 CAVOK 19/15 Q1017=
METAR LPPT 031230Z 06006KT 030V090 CAVOK 20/16 Q1016=
METAR LPPT 031300Z 12005KT 050V210 9999 FEW025 20/15 Q1016=
METAR LPPT 031330Z 10005G20KT 050V190 9999 FEW025 20/15 Q1016=
METAR LPPT 031400Z 10006KT 9999 FEW025 21/15 Q1015=
METAR LPPT 031430Z 09009KT CAVOK 21/15 Q1015=
METAR LPPT 031500Z 10010KT 9999 FEW025 21/14 Q1015=
METAR LPPT 031530Z 10008KT 9999 FEW030 21/14 Q1015=
METAR LPPT 031600Z 11008KT 9999 SCT040 21/15 Q1015=
METAR LPPT 031630Z 10007KT 9999 FEW044 21/14 Q1015=
METAR LPPT 031700Z 09007KT 050V110 9999 FEW045 21/14 Q1015=
METAR LPPT 031730Z 09007KT 9999 FEW045 20/15 Q1015=
METAR LPPT 031800Z 09006KT 020V110 9999 BKN044 20/15 Q1015=
METAR LPPT 031830Z 08005G17KT 030V110 9999 BKN044 20/15 Q1015=
METAR LPPT 031900Z 10004KT 060V150 9999 SCT045 20/15 Q1015=
METAR LPPT 031930Z VRB04KT CAVOK 20/15 Q1015=
METAR LPPT 032000Z VRB04KT CAVOK 20/14 Q1015=
METAR LPPT 032030Z VRB04KT CAVOK 19/15 Q1015=
METAR LPPT 032100Z 13004KT 100V270 CAVOK 20/14 Q1016=
METAR LPPT 032130Z VRB03G16KT CAVOK 20/14 Q1016=
METAR LPPT 032200Z 06003KT 020V100 CAVOK 19/15 Q1016=
METAR LPPT 032230Z 04005KT CAVOK 18/15 Q1015=
METAR LPPT 032300Z VRB04G17KT CAVOK 18/15 Q1015=
METAR LPPT 032330Z VRB04KT 9999 SCT039 18/15 Q1016=
METAR LPPT 040000Z VRB03KT 9999 SCT046 18/15 Q1016=
METAR LPPT 040030Z 08003KT 9999 FEW044 BKN046 17/15 Q1016=
METAR LPPT 040100Z 09004KT 9999 FEW042 SCT046 17/15 Q1015=
METAR LPPT 040130Z 07004KT 9999 FEW034 17/15 Q1015=
METAR LPPT 040200Z 08003KT CAVOK 17/15 Q1015=
METAR LPPT 040230Z 08005KT CAVOK 17/15 Q1015=
METAR LPPT 040300Z 08004KT 9999 FEW025 17/15 Q1015=
METAR LPPT 040330Z 07005KT 9999 FEW027 17/16 Q1015=
METAR LPPT 040400Z 09004KT 9999 SCT022 17/16 Q1015=
METAR LPPT 040430Z 11004KT 9999 BKN020 17/15 Q1015=
METAR LPPT 040500Z 10006KT 9999 FEW017 BKN022 17/15 Q1015=
METAR LPPT 040530Z 11005G17KT 060V130 9999 FEW017 16/15 Q1015=
METAR LPPT 040600Z 11006KT 9999 FEW018 BKN020 16/15 Q1015=
METAR LPPT 040630Z 09005KT 9999 FEW016 BKN018 16/15 Q1015=
METAR LPPT 040700Z VRB05KT 9999 FEW015 SCT017 16/15 Q1016=
METAR LPPT 040730Z VRB05KT 9999 FEW014 16/15 Q1016=
METAR LPPT 040800Z 09006KT 060V120 9999 FEW008 SCT015 16/16 Q1016=
METAR LPPT 040830Z 10006KT 040V130 9999 FEW008 16/16 Q1016=
METAR LPPT 040900Z 10007KT 080V140 9999 FEW007 17/16 Q1017=
METAR LPPT 040930Z 12007G17KT 100V170 9999 FEW007 BKN045 17/16 Q1017=
METAR LPPT 041000Z 13006KT 080V170 9999 VCSH FEW007 FEW020TCU BKN042 18/16 Q1017=
METAR LPPT 041030Z 13006G16KT 090V180 9999 -RA FEW008 FEW020TCU BKN044 18/16 Q1017=
METAR LPPT 041100Z 12005KT 100V160 8000 -RA FEW008 FEW020TCU BKN040 18/16 Q1017=
METAR LPPT 041130Z 12005G16KT 060V180 8000 -RA FEW009 FEW020TCU BKN038 18/17 Q1017=
METAR LPPT 041200Z 12004KT 080V190 5000 -RA BR FEW009 FEW018CB BKN026 18/17 Q1017=
METAR LPPT 041230Z 16007KT 130V190 2500 SHRA BR FEW009 FEW018CB BKN036 18/17 Q1017=
METAR LPPT 041300Z 15007KT 120V180 5000 SHRA FEW008 FEW018CB BKN024 18/17 Q1017 RETSRA=
METAR LPPT 041330Z 15013KT 8000 -RA FEW010 FEW018CB BKN028 18/16 Q1016 RESHRA=
METAR LPPT 041400Z 13007KT 9000 FEW012 FEW018TCU BKN026 17/17 Q1016=
METAR LPPT 041430Z 16008KT 3000 +SHRA FEW010 FEW018CB BKN022 18/17 Q1016=
METAR LPPT 041500Z 15007KT 120V180 6000 SHRA FEW010 FEW018CB BKN024 18/17 Q1016 RESHRA=
METAR LPPT 041530Z 14005KT 110V180 7000 2500SW SHRA FEW012 SCT018CB BKN024 18/17 Q1016 RESHRA=
METAR LPPT 041600Z 15007KT 120V180 8000 -SHRA FEW007 FEW018CB BKN022 18/18 Q1016 RESHRA=
METAR LPPT 041630Z 16009KT 120V180 9999 FEW008 FEW020TCU BKN024 19/18 Q1016=
METAR LPPT 041700Z 16007KT 120V180 9999 SCT006 BKN016 FEW020CB 18/18 Q1016 RESHRA=
METAR LPPT 041730Z 15005KT 120V180 9999 FEW003 SCT010 BKN014 FEW020CB 18/18 Q1017=
METAR LPPT 041800Z 18009KT 140V220 8000 -SHRA BKN006 FEW018TCU 19/18 Q1017 RESHRA=
METAR LPPT 041830Z 18012KT 9999 FEW003 BKN006 FEW020CB 19/19 Q1017=
METAR LPPT 041900Z 18012KT 9999 BKN006 FEW020TCU 19/19 Q1017=
METAR LPPT 041930Z 16010KT 9999 BKN006 19/18 Q1017=
METAR LPPT 042000Z 16009KT 9999 BKN006 19/19 Q1017=
METAR LPPT 042030Z 16009KT 9999 BKN006 19/19 Q1018=
METAR LPPT 042100Z 16009KT 9999 BKN006 FEW020CB 19/18 Q1018=
METAR LPPT 042130Z 16010KT 9999 BKN006 FEW020TCU 19/19 Q1018=
METAR LPPT 042200Z 16009KT 9999 FEW004 BKN006 19/19 Q1018=
METAR LPPT 042230Z 16009KT 9999 FEW005 BKN007 19/18 Q1018=
METAR LPPT 042300Z 16008KT 9999 FEW004 BKN006 19/18 Q1018=
METAR LPPT 042330Z 16010KT 9999 FEW003 BKN006 FEW020TCU 19/18 Q1018=
METAR LPPT 050000Z 15007G18KT 9999 FEW003 BKN006 19/18 Q1018=
METAR LPPT 050030Z 16010KT 9999 FEW004 BKN006 19/19 Q1018=
METAR LPPT 050100Z 16012KT 9999 FEW002 SCT006 BKN008 19/19 Q1017=
METAR LPPT 050130Z 17010KT 9999 FEW005 BKN008 FEW020TCU 19/19 Q1017=
METAR LPPT 050200Z 17011KT 9999 -SHRA FEW006 BKN008 19/19 Q1017=
METAR LPPT 050230Z 17012KT 9999 FEW005 BKN008 FEW020TCU 19/19 Q1017=
METAR LPPT 050300Z 17012KT 9999 VCSH FEW006 BKN008 FEW020TCU 19/19 Q1018=
METAR LPPT 050330Z 17013KT 9999 VCSH FEW002 BKN006 FEW020TCU 19/19 Q1017 RESHRA=
METAR LPPT 050400Z 19015KT 9999 FEW005 BKN007 19/19 Q1017=
METAR LPPT 050430Z 19016KT 9999 FEW005 BKN007 19/19 Q1018=
METAR LPPT 050500Z 19016KT 9999 VCSH FEW005 BKN007 19/19 Q1018=
METAR LPPT 050530Z 20015KT 9999 FEW005 BKN007 19/19 Q1018=
METAR LPPT 050600Z 20015KT 9999 BKN007 19/19 Q1018=
METAR LPPT 050630Z 20013KT 9999 SCT006 BKN009 19/19 Q1018=
METAR LPPT 050700Z 20013KT 9999 SCT006 BKN009 19/19 Q1019=
METAR LPPT 050730Z 19014KT 9999 FEW005 BKN007 19/19 Q1019=
METAR LPPT 050800Z 19013KT 9999 SCT005 BKN008 19/19 Q1019=
METAR LPPT 050830Z 19013KT 9999 FEW006 BKN008 19/19 Q1020=
METAR LPPT 050900Z 19014KT 4000 -SHRA SCT007 BKN009 19/19 Q1020=
METAR LPPT 050930Z 19015KT 2500 DZRA SCT006 BKN008 19/19 Q1020=
METAR LPPT 051000Z 19016KT 3000 DZRA BR FEW002 SCT004 BKN006 19/19 Q1020=
METAR LPPT 051030Z 20013KT 3000 DZRA BR BKN002 BKN004 19/19 Q1020=
METAR LPPT 051100Z 22011KT 9999 FEW004 SCT010 BKN020 19/19 Q1021 REDZ=
METAR LPPT 051130Z 22010KT 190V260 9999 SCT006 BKN010 20/19 Q1021=
METAR LPPT 051200Z 22010KT 9999 FEW008 SCT012 BKN015 20/18 Q1021=
METAR LPPT 051230Z 23012KT 9999 SCT009 BKN014 20/18 Q1021=
METAR LPPT 051300Z 22011KT 9999 SCT010 BKN018 20/18 Q1020=
METAR LPPT 051330Z 22013KT 9999 SCT011 BKN014 21/18 Q1020=
METAR LPPT 051400Z 21013KT 9999 -SHRA FEW010 SCT014 BKN018 20/18 Q1020=
METAR LPPT 051430Z 23009KT 9999 FEW008 SCT012 BKN016 20/19 Q1020=
METAR LPPT 051500Z 22008KT 190V260 9999 FEW008 SCT012 BKN020 20/18 Q1021=
METAR LPPT 051530Z 22008KT 9999 FEW010 BKN016 20/18 Q1021=
METAR LPPT 051600Z 23009KT 9999 FEW010 BKN016 20/18 Q1021=
METAR LPPT 051630Z 23008KT 9999 FEW008 BKN016 19/18 Q1021=
METAR LPPT 051700Z 22007KT 180V250 9999 FEW008 BKN012 19/18 Q1021=
METAR LPPT 051730Z 22007KT 9999 FEW007 BKN012 19/18 Q1021=
METAR LPPT 051800Z 21004KT 9999 FEW006 BKN010 18/18 Q1022=
METAR LPPT 051830Z 21005KT 9999 FEW005 SCT008 BKN014 18/18 Q1022=
METAR LPPT 051900Z 23003KT 9999 FEW006 BKN010 18/18 Q1022=
METAR LPPT 051930Z 24005KT 9999 FEW008 BKN020 18/18 Q1022=
METAR LPPT 052000Z 23002KT 9999 FEW006 SCT016 18/17 Q1022=
METAR LPPT 052030Z 24004KT 9999 FEW008 BKN016 17/17 Q1022=
METAR LPPT 052100Z 24004KT 9999 FEW008 BKN016 18/17 Q1022=
METAR LPPT 052130Z 21004KT 9999 FEW010 BKN020 18/17 Q1022=
METAR LPPT 052200Z VRB01KT 9999 FEW012 BKN020 18/17 Q1023=
METAR LPPT 052230Z 25003KT 9999 FEW010 18/17 Q1023=
METAR LPPT 052300Z 26002KT 9999 FEW005 SCT018 17/17 Q1022=
METAR LPPT 052330Z VRB02KT 9999 FEW002 BKN018 17/17 Q1023=
METAR LPPT 060000Z 23002KT 9999 FEW003 BKN018 17/17 Q1022=
METAR LPPT 060030Z 14003KT 9999 FEW005 BKN016 17/17 Q1022=
METAR LPPT 060100Z 00000KT 9999 FEW003 BKN016 17/17 Q1022=
METAR LPPT 060130Z 19002KT 9999 FEW006 BKN014 17/17 Q1022=
METAR LPPT 060200Z VRB01KT 9999 FEW003 BKN012 17/17 Q1022=
METAR LPPT 060230Z VRB02KT 9999 FEW003 BKN012 17/17 Q1022=
METAR LPPT 060300Z 08004KT 040V110 9999 2000E BCFG FEW001 SCT003 BKN010 17/17 Q1022=
METAR LPPT 060330Z 06005KT 0300 R20/0400N FG VV001 16/16 Q1022=
METAR LPPT 060400Z 03003KT 0300 R20/0400N FG VV001 16/16 Q1022=
METAR LPPT 060430Z 06004KT 0300 R20/0450N FG VV001 16/16 Q1022=
METAR LPPT 060500Z 07003KT 040V100 0400 R20/0600N FG VV001 16/16 Q1022=
METAR LPPT 060530Z 05004KT 340V090 0300 R20/0450N FG VV001 16/16 Q1022=
METAR LPPT 060600Z 06004KT 010V100 0300 R20/0375N FG VV001 16/16 Q1022=
METAR LPPT 060630Z 05005KT 330V090 0400 R20/0375N FG VV001 16/16 Q1022=
METAR LPPT 060700Z 04004KT 010V090 0200 R20/0450N FG VV001 16/16 Q1022=
METAR LPPT 060730Z 05003KT 0500 R20/0400N PRFG BKN001 16/16 Q1022=
METAR LPPT 060800Z 04005KT 320V080 0500 R20/0650 PRFG BKN001 16/16 Q1023=
METAR LPPT 060830Z 05005KT 360V120 0400 R20/0550 PRFG BKN001 16/16 Q1023=
METAR LPPT 060900Z 06007KT 010V170 0600 R20/0900 PRFG BKN001 16/16 Q1023=
METAR LPPT 060930Z 06006G17KT 360V090 7000 BKN002 BKN004 17/17 Q1023=
METAR LPPT 061000Z 06008KT 360V120 9999 BKN005 17/17 Q1023=
METAR LPPT 061030Z 05007KT 010V090 9999 BKN005 18/18 Q1023=
METAR LPPT 061100Z 06008KT 040V100 9999 BKN006 18/18 Q1023=
METAR LPPT 061130Z 05007KT 300V070 9999 FEW006 BKN008 19/18 Q1023=
METAR LPPT 061200Z 04008KT 010V080 9999 SCT007 19/18 Q1022=
METAR LPPT 061230Z 07008G21KT 050V110 9999 FEW010 20/18 Q1022=
METAR LPPT 061300Z 06007KT 360V090 9999 FEW010 21/18 Q1021=
METAR LPPT 061330Z 07006KT 040V110 9999 FEW015 21/18 Q1021=
METAR LPPT 061400Z 06006KT 020V110 9999 FEW015 22/18 Q1020=
METAR LPPT 061430Z 05005KT 330V100 9999 FEW015 22/18 Q1020=
METAR LPPT 061500Z 05004G17KT 300V110 9999 FEW020 23/18 Q1020=
METAR LPPT 061530Z 03004KT 340V090 9999 FEW022 23/18 Q1020=
METAR LPPT 061600Z 33003KT 280V020 CAVOK 23/18 Q1020=
METAR LPPT 061630Z VRB03KT CAVOK 23/18 Q1020=
METAR LPPT 061700Z VRB04KT CAVOK 23/18 Q1019=
METAR LPPT 061730Z VRB02KT CAVOK 22/18 Q1020=
METAR LPPT 061800Z 02004KT 350V100 CAVOK 22/17 Q1019=
METAR LPPT 061830Z 02004KT 350V050 CAVOK 20/16 Q1020=
METAR LPPT 061900Z 03004KT 300V060 CAVOK 21/16 Q1020=
METAR LPPT 061930Z 05005KT 010V070 CAVOK 21/16 Q1020=
METAR LPPT 062000Z 03004KT 350V090 CAVOK 20/15 Q1020=
METAR LPPT 062030Z VRB03KT CAVOK 20/15 Q1020=
METAR LPPT 062100Z 03004KT 360V090 CAVOK 19/15 Q1020=
METAR LPPT 062130Z 04004KT 350V100 CAVOK 19/15 Q1020=
METAR LPPT 062200Z 05004KT CAVOK 19/15 Q1020=
METAR LPPT 062230Z VRB04KT CAVOK 18/15 Q1020=
METAR LPPT 062300Z 04004KT CAVOK 18/15 Q1020=
METAR LPPT 062330Z VRB03KT CAVOK 17/15 Q1019=
METAR LPPT 070000Z VRB04G15KT CAVOK 18/15 Q1019=
METAR LPPT 070030Z 05003KT CAVOK 16/14 Q1019=
METAR LPPT 070100Z 03004KT 360V060 CAVOK 16/14 Q1019=
METAR LPPT 070130Z 04004KT CAVOK 17/14 Q1019=
METAR LPPT 070200Z 05006KT CAVOK 16/14 Q1019=
METAR LPPT 070230Z 06007KT CAVOK 16/14 Q1019=
METAR LPPT 070300Z 05005KT CAVOK 15/14 Q1019=
METAR LPPT 070330Z 05005KT 9999 FEW005 15/14 Q1019=
METAR COR LPPT 070400Z 06005KT 6000 VCFG SCT003 15/15 Q1019=
METAR LPPT 070430Z 07006KT 0400 R20/P2000 FG VV001 15/15 Q1019=
METAR LPPT 070500Z 04004KT 0300 R20/0375N FG VV001 15/15 Q1019=
METAR LPPT 070530Z 03003KT 350V090 0500 R20/1000D FG VV001 15/15 Q1019=
METAR LPPT 070600Z 06005KT 0500 R20/0500 FG VV001 15/15 Q1019=
METAR LPPT 070630Z 07005KT 040V100 3000 BR SCT001 BKN003 15/15 Q1019=
METAR LPPT 070700Z 06006KT 010V140 8000 SCT001 14/14 Q1019=
METAR LPPT 070730Z 06005KT 350V090 8000 FEW006 14/14 Q1019=
METAR LPPT 070800Z 06006KT 030V090 9000 FEW004 14/14 Q1019=
METAR LPPT 070830Z 06006KT 360V080 9999 FEW004 15/15 Q1020=
METAR LPPT 070900Z 06006G18KT 290V090 9999 FEW006 15/15 Q1020=
METAR LPPT 070930Z 07006KT 310V100 9999 FEW008 16/15 Q1020=
METAR LPPT 071000Z 06005G18KT 330V090 9999 FEW012 16/15 Q1020=
METAR LPPT 071030Z 08006KT 050V110 CAVOK 17/15 Q1020=
METAR LPPT 071100Z VRB05G16KT CAVOK 18/15 Q1020=
METAR LPPT 071130Z 08006G23KT 020V110 CAVOK 18/16 Q1019=
METAR LPPT 071200Z 08006KT 050V110 CAVOK 19/16 Q1019=
METAR LPPT 071230Z VRB06G17KT CAVOK 19/16 Q1018=
METAR LPPT 071300Z 11006KT CAVOK 21/16 Q1018=
METAR LPPT 071330Z 14008KT 080V160 CAVOK 21/15 Q1018=
METAR LPPT 071400Z 14008KT 110V170 CAVOK 22/15 Q1018=
METAR LPPT 071430Z 15009KT 120V190 CAVOK 22/15 Q1017=
METAR LPPT 071500Z 13007KT 100V160 CAVOK 22/15 Q1017=
METAR LPPT 071530Z 12005KT 070V150 CAVOK 22/15 Q1017=
METAR LPPT 071600Z 10006KT CAVOK 22/15 Q1017=
METAR LPPT 071630Z 09005KT 050V170 CAVOK 22/15 Q1017=
METAR LPPT 071700Z VRB04KT CAVOK 21/16 Q1017=
METAR LPPT 071730Z VRB03KT CAVOK 21/15 Q1017=
METAR LPPT 071800Z 03004KT 310V090 CAVOK 21/15 Q1017=
METAR LPPT 071830Z 03004KT 300V070 CAVOK 20/15 Q1017=
METAR LPPT 071900Z 06003KT CAVOK 20/15 Q1018=
METAR LPPT 071930Z 07004KT 360V100 CAVOK 20/15 Q1018=
METAR LPPT 072000Z 07005KT 300V100 CAVOK 20/15 Q1018=
METAR LPPT 072030Z 07005KT CAVOK 19/15 Q1018=
METAR LPPT 072100Z 08004KT CAVOK 19/15 Q1018=
METAR LPPT 072130Z VRB05KT CAVOK 18/16 Q1018=
METAR LPPT 072200Z 08005KT CAVOK 18/16 Q1018=
METAR LPPT 072230Z 07003KT CAVOK 17/16 Q1018=
METAR LPPT 072300Z 07004KT CAVOK 17/15 Q1018=
METAR LPPT 072330Z 06004KT CAVOK 17/15 Q1018=
METAR LPPT 080000Z 06004G16KT 040V100 CAVOK 17/15 Q1018=
METAR LPPT 080030Z 05003KT CAVOK 17/15 Q1018=
METAR LPPT 080100Z 03003KT 340V100 CAVOK 16/15 Q1017=
METAR LPPT 080130Z 07004KT CAVOK 17/15 Q1017=
METAR LPPT 080200Z VRB02KT CAVOK 16/15 Q1017=
METAR LPPT 080230Z 06002KT CAVOK 16/15 Q1017=
METAR LPPT 080300Z 35003KT CAVOK 16/15 Q1017=
METAR LPPT 080330Z 07005KT CAVOK 16/15 Q1016=
METAR LPPT 080400Z 29002KT 9999 SCT020 15/15 Q1017=
METAR LPPT 080430Z 04003KT 9999 SCT020 BKN038 16/15 Q1017=
METAR LPPT 080500Z 02003KT 360V090 9999 SCT020 BKN038 16/15 Q1017=
METAR LPPT 080530Z 04005KT 350V110 9999 BKN016 16/15 Q1017=
METAR LPPT 080600Z 04004KT 360V090 9999 BKN015 16/15 Q1017=
METAR LPPT 080630Z 03005KT 350V100 9999 BKN015 16/15 Q1017=
METAR LPPT 080700Z 06005KT 340V100 9999 SCT015 BKN042 16/15 Q1017=
METAR LPPT 080730Z 04004KT 9999 SCT014 16/15 Q1017=
METAR LPPT 080800Z 05004KT 310V100 9000 BKN015 16/15 Q1018=
METAR LPPT 080830Z VRB03KT 9000 BKN014 16/16 Q1019=
METAR LPPT 080900Z 34004KT 9000 BKN013 16/16 Q1019=
METAR LPPT 080930Z 06004KT 360V130 9999 FEW010 BKN012 BKN024 17/16 Q1019=
METAR LPPT 081000Z 05004KT 340V120 9999 FEW009 BKN011 18/16 Q1020=
METAR LPPT 081030Z 09004KT 030V140 9999 FEW010 SCT024 19/17 Q1019=
METAR LPPT 081100Z VRB01KT 9999 FEW011 SCT013 20/17 Q1020=
METAR LPPT 081130Z 09005G16KT 360V150 9999 BKN015 19/17 Q1020=
METAR LPPT 081200Z VRB04G14KT 9999 FEW015 BKN017 20/17 Q1020=
METAR LPPT 081230Z VRB04KT 9999 FEW017 BKN020 20/17 Q1020=
METAR LPPT 081300Z VRB04G20KT 9999 FEW018 SCT024 BKN040 20/17 Q1020=
METAR LPPT 081330Z VRB03KT 9999 FEW018 SCT022 BKN035 22/18 Q1020=
METAR LPPT 081400Z VRB04KT 9999 SCT026 BKN042 22/18 Q1020=
METAR LPPT 081430Z 10004KT 040V180 9999 FEW022 SCT026 21/17 Q1020=
METAR LPPT 081500Z VRB04KT 9999 VCSH FEW022 SCT030 21/17 Q1020=
METAR LPPT 081530Z 06004KT 020V100 9999 VCSH FEW022 BKN028 21/18 Q1020=
METAR LPPT 081600Z VRB03KT 9999 FEW022 SCT028 21/18 Q1020=
METAR LPPT 081630Z 30006KT 260V320 9999 FEW020 21/16 Q1021=
METAR LPPT 081700Z 29004KT 9999 FEW020 21/16 Q1021=
METAR LPPT 081730Z 28004KT 9999 FEW015 20/16 Q1022=
METAR LPPT 081800Z 30005KT 9999 FEW015 19/16 Q1022=
METAR LPPT 081830Z 30007KT 9999 FEW012 19/16 Q1022=
METAR LPPT 081900Z 30007KT 280V340 9999 FEW012 18/17 Q1023=
METAR LPPT 081930Z 30007KT 9999 FEW012 SCT042 18/17 Q1023=
METAR LPPT 082000Z 29006KT 9999 FEW012 BKN042 18/17 Q1023=
METAR LPPT 082030Z 29005KT 9999 FEW012 SCT042 18/17 Q1023=
METAR LPPT 082100Z 31003KT 260V350 9999 FEW012 SCT040 18/17 Q1024=
METAR LPPT 082130Z 31005KT 9999 FEW012 17/17 Q1024=
METAR LPPT 082200Z 32005KT 9999 FEW007 17/16 Q1024=
METAR LPPT 082230Z 36003KT 330V040 9999 FEW006 16/16 Q1024=
METAR LPPT 082300Z 32003KT 9999 FEW008 16/16 Q1024=
METAR LPPT 082330Z VRB02KT 9999 FEW008 16/16 Q1024=
METAR LPPT 090000Z 02003KT 350V060 9999 SCT010 15/15 Q1024=
METAR LPPT 090030Z VRB02KT 9999 SCT010 14/14 Q1024=
METAR LPPT 090100Z 35003KT 9999 FEW009 15/15 Q1024=
METAR LPPT 090130Z 33004KT 9999 BKN007 15/15 Q1024=
METAR LPPT 090200Z 01002KT 9999 SCT008 15/15 Q1024=
METAR LPPT 090230Z 32002KT 9999 SCT008 15/15 Q1025=
METAR LPPT 090300Z 31003KT 9999 FEW008 15/15 Q1025=
METAR LPPT 090330Z 30002KT 9999 FEW008 15/15 Q1025=
METAR LPPT 090400Z 32005KT 9999 FEW008 15/15 Q1025=
METAR LPPT 090430Z 32004KT 9999 FEW008 15/15 Q1025=
METAR COR LPPT 090500Z 32006KT 9999 FEW007 15/15 Q1025=
METAR LPPT 090530Z 34007KT 9999 FEW006 15/15 Q1026=
METAR LPPT 090600Z 34004KT 9999 FEW006 14/14 Q1026=
METAR LPPT 090630Z 33004KT 9999 FEW006 14/14 Q1026=
METAR LPPT 090700Z 33004KT 9999 FEW008 13/13 Q1026=
METAR LPPT 090730Z 35002KT 9999 FEW008 13/13 Q1026=
METAR LPPT 090800Z 34004KT 9999 FEW009 13/13 Q1026=
METAR LPPT 090830Z 36003KT 9999 FEW015 15/15 Q1026=
METAR LPPT 090900Z 36006KT 9999 FEW010 16/14 Q1027=
METAR LPPT 090930Z 01006KT 330V070 9999 FEW012 16/14 Q1027=
METAR LPPT 091000Z 36008KT 9999 FEW018 17/13 Q1027=
METAR LPPT 091030Z 04007KT 360V090 9999 FEW018 17/13 Q1027=
METAR LPPT 091100Z 02005KT 350V100 9999 FEW020 18/13 Q1027=
METAR LPPT 091130Z 02005KT 340V060 9999 FEW022 18/13 Q1027=
METAR LPPT 091200Z 05005KT 300V100 9999 FEW025 18/13 Q1027=
METAR LPPT 091230Z 01007KT 330V050 9999 FEW025 19/12 Q1027=
METAR LPPT 091300Z VRB04KT 9999 FEW030 20/14 Q1026=
METAR LPPT 091330Z 35006KT 290V070 9999 FEW040 20/12 Q1026=
METAR LPPT 091400Z 32006KT 280V360 9999 FEW040 20/12 Q1026=
METAR LPPT 091430Z 33007KT 290V360 9999 FEW040 20/12 Q1026=
METAR LPPT 091500Z 35008KT 300V010 9999 FEW040 20/12 Q1026=
METAR LPPT 091530Z 33009KT 300V360 9999 FEW040 20/12 Q1026=
METAR LPPT 091600Z 34010KT 9999 FEW030 19/12 Q1026=
METAR LPPT 091630Z 34011KT 9999 FEW030 19/12 Q1026=
METAR LPPT 091700Z 34010KT CAVOK 17/12 Q1026=
METAR LPPT 091730Z 33009KT CAVOK 17/13 Q1026=
METAR LPPT 091800Z 33010KT CAVOK 16/12 Q1026=
METAR LPPT 091830Z 32008KT CAVOK 16/12 Q1027=
METAR LPPT 091900Z 33011KT CAVOK 16/13 Q1027=
METAR LPPT 091930Z 33011KT CAVOK 15/12 Q1027=
METAR LPPT 092000Z 32011KT CAVOK 15/12 Q1027=
METAR LPPT 092030Z 32010KT CAVOK 15/12 Q1028=
METAR LPPT 092100Z 32006KT CAVOK 15/11 Q1028=
METAR LPPT 092130Z 33007KT CAVOK 15/11 Q1028=
METAR LPPT 092200Z 31004KT 280V340 CAVOK 15/10 Q1028=
METAR LPPT 092230Z 33007KT CAVOK 15/10 Q1028=
METAR LPPT 092300Z 35006KT CAVOK 14/10 Q1028=
METAR LPPT 092330Z 33004KT CAVOK 14/10 Q1028=
METAR LPPT 100000Z 32004KT CAVOK 14/10 Q1028=
METAR LPPT 100030Z 32007KT CAVOK 15/10 Q1028=
METAR LPPT 100100Z 31006KT CAVOK 15/10 Q1028=
METAR LPPT 100130Z 32004KT CAVOK 15/10 Q1028=
METAR LPPT 100200Z 32006KT CAVOK 15/10 Q1028=
METAR LPPT 100230Z 32007KT CAVOK 15/10 Q1028=
METAR LPPT 100300Z 33008KT CAVOK 14/10 Q1028=
METAR LPPT 100330Z 34006KT CAVOK 13/10 Q1027=
METAR LPPT 100400Z 32005KT CAVOK 15/11 Q1027=
METAR LPPT 100430Z 33003KT 290V010 CAVOK 14/10 Q1027=
METAR LPPT 100500Z 35003KT 300V060 CAVOK 14/10 Q1027=
METAR LPPT 100530Z 34006KT CAVOK 14/11 Q1028=
METAR LPPT 100600Z 33008KT CAVOK 15/12 Q1028=
METAR LPPT 100630Z 33006KT CAVOK 15/12 Q1028=
METAR LPPT 100700Z 33007KT CAVOK 15/12 Q1028=
METAR LPPT 100730Z 33008KT CAVOK 15/12 Q1028=
METAR LPPT 100800Z 35008KT CAVOK 15/12 Q1028=
METAR LPPT 100830Z 04005KT 360V140 CAVOK 16/12 Q1028=
METAR LPPT 100900Z 06005KT 340V130 CAVOK 17/13 Q1028=
METAR LPPT 100930Z 36008KT CAVOK 19/13 Q1028=
METAR LPPT 101000Z 34007KT CAVOK 19/13 Q1028=
METAR LPPT 101030Z 33007KT CAVOK 19/14 Q1029=
METAR LPPT 101100Z 36007KT CAVOK 20/13 Q1028=
METAR LPPT 101130Z 35007KT 320V030 CAVOK 21/14 Q1028=
METAR LPPT 101200Z VRB05KT 9999 FEW025 21/14 Q1028=
METAR LPPT 101230Z 33010KT 9999 FEW025 21/14 Q1027=
METAR LPPT 101300Z 33008KT 300V020 9999 FEW025 21/14 Q1027=
METAR LPPT 101330Z 35012KT 320V020 9999 FEW025 22/15 Q1027=
METAR LPPT 101400Z 34012KT 9999 FEW022 22/15 Q1027=
METAR LPPT 101430Z 34016KT 9999 FEW022 21/15 Q1026=
METAR LPPT 101500Z 33016KT 9999 FEW022 21/16 Q1026=
METAR LPPT 101530Z 33014KT 9999 FEW022 20/16 Q1026=
METAR LPPT 101600Z 34014KT 9999 FEW022 20/15 Q1026=
METAR LPPT 101630Z 35009KT 300V020 9999 FEW018 19/15 Q1026=
METAR LPPT 101700Z 36012KT 9999 FEW018 19/15 Q1026=
METAR LPPT 101730Z 35011KT 330V030 9999 FEW018 18/15 Q1027=
METAR LPPT 101800Z 36006KT 270V070 9999 FEW016 18/15 Q1027=
METAR LPPT 101830Z 01006KT 300V110 9999 SCT016 18/15 Q1027=
METAR LPPT 101900Z 02007KT 340V070 9999 BKN016 18/15 Q1027=
METAR LPPT 101930Z 35006KT 290V050 9999 SCT015 18/15 Q1027=
METAR LPPT 102000Z 33007KT 290V030 9999 FEW015 17/15 Q1027=
METAR LPPT 102030Z 33013KT 9999 FEW015 17/15 Q1027=
METAR LPPT 102100Z 35012KT 9999 FEW014 18/15 Q1027=
METAR LPPT 102130Z 36009KT 310V060 9999 FEW014 17/15 Q1027=
METAR LPPT 102200Z 35007KT 290V060 9999 FEW014 18/16 Q1027=
METAR LPPT 102230Z 32008KT 9999 FEW014 17/16 Q1027=
METAR LPPT 102300Z 33012KT 300V360 9999 FEW014 17/15 Q1026=
METAR LPPT 102330Z 32011KT 9999 FEW014 17/16 Q1026=
METAR LPPT 110000Z 32009KT 9999 FEW014 17/15 Q1026=
METAR LPPT 110030Z 32011KT 9999 FEW012 17/15 Q1026=
METAR LPPT 110100Z 33012G22KT 300V360 9999 FEW010 17/15 Q1025=
METAR LPPT 110130Z 33014KT 9999 FEW010 17/15 Q1025=
METAR LPPT 110200Z 32013KT 9999 FEW010 17/15 Q1025=
METAR LPPT 110230Z 34012KT 300V360 9999 FEW008 17/15 Q1025=
METAR LPPT 110300Z 35009KT 9999 FEW008 17/15 Q1025=
METAR LPPT 110330Z 35010KT 9999 FEW008 17/15 Q1025=
METAR LPPT 110400Z 33006KT 290V360 9999 FEW008 16/15 Q1025=
METAR LPPT 110430Z 34007KT 9999 FEW008 16/15 Q1025=
METAR LPPT 110500Z 35010KT 9999 FEW008 16/15 Q1025=
METAR LPPT 110530Z 34009KT 9999 FEW008 16/15 Q1025=
METAR LPPT 110600Z 33007KT 9999 FEW008 16/15 Q1025=
METAR LPPT 110630Z 34010KT 9999 FEW008 16/15 Q1024=
METAR LPPT 110700Z 34008KT 9999 FEW008 16/15 Q1024=
METAR LPPT 110730Z 34006KT 9999 FEW006 16/14 Q1024=
METAR LPPT 110800Z 34008KT 9999 FEW003 16/15 Q1025=
METAR LPPT 110830Z 34008KT 9999 FEW003 17/15 Q1025=
METAR LPPT 110900Z 34007KT 9999 FEW009 18/15 Q1025=
METAR LPPT 110930Z 36007KT 9999 FEW012 18/15 Q1025=
METAR LPPT 111000Z 04007KT 010V080 9999 FEW012 20/15 Q1025=
METAR LPPT 111030Z 05010KT 340V090 9999 FEW012 20/14 Q1025=
METAR LPPT 111100Z 03011G22KT 360V080 9999 FEW020 20/14 Q1025=
METAR LPPT 111130Z 06011G21KT 350V090 9999 FEW020 20/14 Q1025=
METAR LPPT 111200Z 07010KT 020V100 9999 FEW020 20/14 Q1024=
METAR LPPT 111230Z 07010KT 9999 FEW020 20/15 Q1024=
METAR LPPT 111300Z 06011KT 9999 FEW020 21/15 Q1023=
METAR LPPT 111330Z 05010KT 360V080 9999 FEW020 21/15 Q1023=
METAR LPPT 111400Z 05009KT 9999 FEW020 21/15 Q1023=
METAR LPPT 111430Z 05008KT 020V080 9999 FEW025 21/15 Q1023=
METAR LPPT 111500Z 05007KT 010V080 9999 FEW025 22/15 Q1023=
METAR LPPT 111530Z 04007KT 9999 FEW025 22/15 Q1023=
METAR LPPT 111600Z 02006KT 350V050 9999 FEW025 21/15 Q1022=
METAR LPPT 111630Z 04006KT 9999 FEW025 21/15 Q1022=
METAR LPPT 111700Z 02005KT 350V080 9999 FEW020 20/15 Q1022=
METAR LPPT 111730Z 01006KT 340V050 9999 FEW018 19/14 Q1022=
METAR LPPT 111800Z 35006KT 9999 FEW018 18/14 Q1023=
METAR LPPT 111830Z 32007KT CAVOK 19/15 Q1023=
METAR LPPT 111900Z 33007KT CAVOK 19/15 Q1023=
METAR LPPT 111930Z 34007KT CAVOK 18/14 Q1023=
METAR LPPT 112000Z 35007KT CAVOK 17/14 Q1023=
METAR LPPT 112030Z 33007KT CAVOK 18/14 Q1023=
METAR LPPT 112100Z 36005KT 330V060 CAVOK 18/13 Q1023=
METAR LPPT 112130Z 02010G21KT 350V050 CAVOK 18/12 Q1024=
METAR LPPT 112200Z 03011KT CAVOK 17/11 Q1024=
METAR LPPT 112230Z 04010KT CAVOK 17/10 Q1024=
METAR LPPT 112300Z 03009KT 350V050 CAVOK 17/10 Q1024=
METAR LPPT 112330Z 03008KT CAVOK 16/10 Q1024=
METAR LPPT 120000Z 02007KT CAVOK 16/10 Q1023=
METAR LPPT 120030Z 01006KT CAVOK 15/09 Q1023=
METAR LPPT 120100Z 01006KT CAVOK 15/09 Q1023=
METAR LPPT 120130Z 03008KT CAVOK 15/09 Q1023=
METAR LPPT 120200Z 04009KT CAVOK 15/09 Q1023=
METAR LPPT 120230Z 03009KT CAVOK 15/09 Q1023=
METAR LPPT 120300Z 04007KT CAVOK 15/09 Q1022=
METAR LPPT 120330Z 04009KT CAVOK 15/08 Q1022=
METAR LPPT 120400Z 04010KT CAVOK 15/09 Q1022=
METAR LPPT 120430Z 05009KT CAVOK 14/08 Q1022=
METAR LPPT 120500Z 04010KT CAVOK 14/08 Q1022=
METAR LPPT 120530Z 04010KT CAVOK 14/08 Q1022=
METAR LPPT 120600Z 02007KT 350V050 CAVOK 14/08 Q1022=
METAR LPPT 120630Z 03008KT CAVOK 14/07 Q1022=
METAR LPPT 120700Z 03007KT 360V070 CAVOK 13/07 Q1022=
METAR LPPT 120730Z 03008KT CAVOK 13/07 Q1022=
METAR LPPT 120800Z 04009KT CAVOK 14/07 Q1022=
METAR LPPT 120830Z 03009KT CAVOK 14/07 Q1022=
METAR LPPT 120900Z 04011KT CAVOK 14/08 Q1022=
METAR LPPT 120930Z 04011G21KT 350V080 CAVOK 15/08 Q1022=
METAR LPPT 121000Z 03010KT CAVOK 15/08 Q1022=
METAR LPPT 121030Z 04009KT 360V070 CAVOK 16/08 Q1022=
METAR LPPT 121100Z 06011KT CAVOK 16/08 Q1022=
METAR LPPT 121130Z 05011KT CAVOK 17/08 Q1021=
METAR LPPT 121200Z 05010G20KT 340V100 CAVOK 17/09 Q1021=
METAR LPPT 121230Z 06009KT 030V090 CAVOK 17/09 Q1020=
METAR LPPT 121300Z 06009KT 020V080 CAVOK 18/10 Q1019=
METAR LPPT 121330Z 06009KT CAVOK 18/10 Q1019=
METAR LPPT 121400Z 05012KT CAVOK 19/10 Q1018=
METAR LPPT 121430Z 05011G24KT 340V080 CAVOK 19/10 Q1018=
METAR LPPT 121500Z 04010KT 9999 FEW035 19/09 Q1018=
METAR LPPT 121530Z 04011KT 340V060 9999 FEW035 19/09 Q1018=
METAR LPPT 121600Z 04009KT 9999 FEW035 19/09 Q1017=
METAR LPPT 121630Z 02009KT CAVOK 18/09 Q1017=
METAR LPPT 121700Z 02009KT CAVOK 18/09 Q1017=
METAR LPPT 121730Z 35005KT CAVOK 16/09 Q1017=
METAR LPPT 121800Z 33007KT CAVOK 16/09 Q1017=
METAR LPPT 121830Z 32007KT CAVOK 16/10 Q1017=
METAR LPPT 121900Z 33009KT CAVOK 15/10 Q1017=
METAR LPPT 121930Z 32008KT CAVOK 15/10 Q1017=
METAR LPPT 122000Z 33010KT CAVOK 15/11 Q1017=
METAR LPPT 122030Z 32009KT CAVOK 15/11 Q1016=
METAR LPPT 122100Z 33010KT CAVOK 15/11 Q1016=
METAR LPPT 122130Z 33010KT CAVOK 15/11 Q1016=
METAR LPPT 122200Z 32008KT CAVOK 15/11 Q1016=
METAR LPPT 122230Z 32006KT CAVOK 15/10 Q1016=
METAR LPPT 122300Z 34008KT CAVOK 14/09 Q1015=
METAR LPPT 122330Z 33007KT CAVOK 15/09 Q1015=
METAR LPPT 130000Z 33007KT CAVOK 15/09 Q1015=
METAR LPPT 130030Z 32007KT CAVOK 15/08 Q1014=
METAR LPPT 130100Z 33007KT CAVOK 14/08 Q1014=
METAR LPPT 130130Z 01005KT CAVOK 13/08 Q1014=
METAR LPPT 130200Z 05009KT CAVOK 14/07 Q1014=
METAR LPPT 130230Z 03011KT CAVOK 13/06 Q1014=
METAR LPPT 130300Z 04011KT CAVOK 14/06 Q1013=
METAR LPPT 130330Z 04012KT 360V060 CAVOK 13/06 Q1013=
METAR LPPT 130400Z 04012KT CAVOK 13/06 Q1013=
METAR LPPT 130430Z 04015KT CAVOK 13/03 Q1013=
METAR LPPT 130500Z 04013KT CAVOK 12/03 Q1013=
METAR LPPT 130530Z 03011KT CAVOK 12/02 Q1013=
METAR LPPT 130600Z 02011KT CAVOK 11/02 Q1013=
METAR LPPT 130630Z 03011KT 360V060 CAVOK 11/01 Q1013=
METAR LPPT 130700Z 03014KT CAVOK 11/01 Q1013=
METAR LPPT 130730Z 02011KT 360V060 CAVOK 10/01 Q1013=
METAR LPPT 130800Z 03013KT CAVOK 11/01 Q1013=
METAR LPPT 130830Z 03015KT CAVOK 11/02 Q1014=
METAR LPPT 130900Z 03014KT CAVOK 12/02 Q1014=
METAR LPPT 130930Z 03016KT CAVOK 12/02 Q1014=
METAR LPPT 131000Z 04014KT CAVOK 13/03 Q1014=
METAR LPPT 131030Z 04014KT CAVOK 13/03 Q1014=
METAR LPPT 131100Z 05014KT CAVOK 13/03 Q1013=
METAR LPPT 131130Z 04012KT 010V080 CAVOK 14/04 Q1013=
METAR LPPT 131200Z 04011KT 010V080 CAVOK 14/04 Q1013=
METAR LPPT 131230Z 04013KT 360V070 9999 FEW040 14/04 Q1012=
METAR LPPT 131300Z 04012KT 010V080 9999 FEW040 14/04 Q1012=
METAR LPPT 131330Z 02011KT 350V060 9999 FEW040 15/05 Q1011=
METAR LPPT 131400Z 03011KT 360V060 9999 FEW045 14/04 Q1011=
METAR LPPT 131430Z 02009KT 350V050 9999 FEW048 15/04 Q1011=
METAR LPPT 131500Z 04010KT 010V080 9999 FEW048 15/04 Q1010=
METAR LPPT 131530Z 04012KT 360V060 9999 FEW048 14/03 Q1010=
METAR LPPT 131600Z 04009KT 9999 FEW048 15/04 Q1011=
METAR LPPT 131630Z 03011KT 360V060 9999 FEW045 14/04 Q1011=
METAR LPPT 131700Z 05010KT 9999 FEW045 13/04 Q1011=
METAR LPPT 131730Z 03008KT 360V060 9999 FEW035 13/04 Q1011=
METAR LPPT 131800Z 01007KT 340V060 9999 FEW035 12/04 Q1011=
METAR LPPT 131830Z 03009KT 9999 FEW030 12/05 Q1011=
METAR LPPT 131900Z 03010KT CAVOK 11/06 Q1011=
METAR LPPT 131930Z 03016KT CAVOK 11/06 Q1011=
METAR LPPT 132000Z 03014KT CAVOK 11/06 Q1012=
METAR LPPT 132030Z 04011KT CAVOK 10/06 Q1012=
METAR LPPT 132100Z 04011KT CAVOK 10/06 Q1012=
METAR LPPT 132130Z 04008G18KT CAVOK 10/06 Q1013=
METAR LPPT 132200Z 04009KT 9999 FEW012 09/07 Q1013=
METAR LPPT 132230Z 04009KT CAVOK 09/06 Q1013=
METAR LPPT 132300Z 05008KT 9999 FEW012 09/06 Q1013=
METAR LPPT 132330Z 05007KT 9999 FEW012 09/07 Q1013=
METAR LPPT 140000Z 05009KT 9999 FEW012 09/07 Q1013=
METAR LPPT 140030Z 06009KT 9999 FEW010 09/07 Q1012=
METAR LPPT 140100Z 06008KT 9999 FEW010 08/07 Q1012=
METAR LPPT 140130Z 05008KT 9999 FEW008 08/07 Q1012=
METAR LPPT 140200Z 06010KT 9999 FEW005 08/07 Q1013=
METAR LPPT 140230Z 07008KT 9999 FEW004 08/07 Q1013=
METAR LPPT 140300Z 06009KT 9999 FEW005 08/08 Q1013=
METAR LPPT 140330Z 06007KT 9999 SCT010 08/08 Q1013=
METAR LPPT 140400Z 06007KT 9999 SCT014 08/08 Q1012=
METAR LPPT 140430Z 05008KT 9999 FEW014 08/08 Q1012=
METAR LPPT 140500Z 06009KT 9999 FEW014 08/08 Q1012=
METAR LPPT 140530Z 06010KT 9999 FEW008 09/08 Q1012=
METAR LPPT 140600Z 05009KT 9999 FEW008 08/08 Q1012=
METAR LPPT 140630Z 06009KT 9999 FEW006 09/08 Q1012=
METAR LPPT 140700Z 06008KT 9999 FEW006 09/08 Q1012=
METAR LPPT 140730Z 05010KT 9999 FEW006 09/09 Q1012=
METAR LPPT 140800Z 05010KT 9999 SCT006 09/09 Q1013=
METAR LPPT 140830Z 05010KT 9999 FEW007 SCT012 09/09 Q1013=
METAR LPPT 140900Z 05010KT 9999 FEW010 10/09 Q1013=
METAR LPPT 140930Z 06010G25KT 350V100 9999 FEW008 10/09 Q1013=
METAR LPPT 141000Z 05011KT 350V080 9999 FEW008 11/09 Q1013=
METAR LPPT 141030Z 06013KT 9999 FEW010 11/10 Q1013=
METAR LPPT 141100Z 06010KT 030V090 9999 FEW010 12/11 Q1013=
METAR LPPT 141130Z 05010G21KT 360V070 9999 FEW015 SCT020 14/12 Q1012=
METAR LPPT 141200Z 05012KT 9999 FEW018 SCT023 14/11 Q1012=
METAR LPPT 141230Z 05013KT 9999 FEW018 BKN020 14/11 Q1011=
METAR LPPT 141300Z 08011KT 030V100 9999 FEW015 SCT018 BKN035 15/12 Q1011=
METAR LPPT 141330Z 06011KT 330V090 9999 -SHRA FEW015 SCT020 14/12 Q1011=
METAR LPPT 141400Z 06012KT 9999 FEW018 14/12 Q1011=
METAR LPPT 141430Z 06010KT 9999 FEW012 SCT020 14/12 Q1011=
METAR LPPT 141500Z 07011KT 9999 -SHRA FEW012 BKN015 14/12 Q1011=
METAR LPPT 141530Z 07011KT 9999 -RA FEW007 BKN009 14/13 Q1011=
METAR LPPT 141600Z 07011KT 9999 VCSH FEW005 13/13 Q1011=
METAR LPPT 141630Z 07011KT 9999 SCT004 SCT007 13/13 Q1010=
METAR LPPT 141700Z 06008KT 9999 FEW002 BKN004 13/13 Q1010=
METAR LPPT 141730Z 06006KT 360V090 9999 FEW002 BKN004 13/13 Q1011=
METAR LPPT 141800Z VRB06KT 9999 FEW005 BKN009 13/13 Q1011=
METAR LPPT 141830Z 07005KT 010V100 9999 FEW005 BKN007 13/13 Q1011=
METAR LPPT 141900Z VRB05KT 9999 FEW003 BKN005 13/13 Q1012=
METAR LPPT 141930Z 04004KT 360V100 9999 SCT004 BKN005 14/14 Q1012=
METAR LPPT 142000Z 06004KT 9999 FEW003 BKN004 14/14 Q1012=
METAR LPPT 142030Z VRB07G17KT 9999 FEW003 BKN004 14/14 Q1013=
METAR LPPT 142100Z 11007KT 9999 BKN003 14/14 Q1013=
METAR LPPT 142130Z VRB05KT 9999 FEW002 14/14 Q1013=
METAR LPPT 142200Z VRB05KT 9999 FEW002 14/14 Q1013=
METAR LPPT 142230Z VRB05KT 9999 SCT004 13/13 Q1013=
METAR LPPT 142300Z 10008KT 9999 FEW004 13/13 Q1013=
METAR LPPT 142330Z 09006KT 060V120 9999 FEW006 13/13 Q1013=
METAR LPPT 150000Z 11009KT 080V140 9999 BKN005 14/14 Q1013=
METAR LPPT 150030Z 12008KT 9999 BKN004 14/14 Q1013=
METAR LPPT 150100Z 11008KT 070V130 9999 SCT004 14/14 Q1013=
METAR LPPT 150130Z 10007KT 9999 FEW003 BKN004 14/14 Q1013=
METAR LPPT 150200Z 07007KT 9999 BKN003 13/13 Q1013=
METAR LPPT 150230Z 08005KT 9000 BKN003 13/13 Q1013=
METAR LPPT 150300Z 07005KT 040V100 9000 BKN003 13/13 Q1013=
METAR LPPT 150330Z 08005KT 9999 BKN004 13/13 Q1013=
METAR LPPT 150400Z 08004KT 040V110 9000 BKN004 13/13 Q1013=
METAR LPPT 150430Z 09008KT 9999 BKN004 13/13 Q1013=
METAR LPPT 150500Z 07006G16KT 360V090 9000 FEW002 BKN004 13/13 Q1013=
METAR LPPT 150530Z 08006KT 050V120 9000 SCT002 BKN004 13/13 Q1012=
METAR LPPT 150600Z 06007KT 030V100 8000 SCT001 BKN003 13/13 Q1012=
METAR LPPT 150630Z 05007KT 010V090 9000 SCT002 BKN004 12/12 Q1012=
METAR LPPT 150700Z 05007KT 020V080 9000 FEW001 SCT006 12/12 Q1012=
METAR LPPT 150730Z 08009KT 9999 FEW002 SCT005 13/13 Q1013=
METAR LPPT 150800Z 08007KT 9999 FEW008 13/13 Q1013=
METAR LPPT 150830Z 07007KT 9999 FEW005 13/13 Q1013=
METAR LPPT 150900Z 06008KT 010V090 9999 FEW007 FEW020CB 13/13 Q1013=
METAR LPPT 150930Z 05009KT 9999 FEW005 FEW020TCU 14/14 Q1013=
METAR LPPT 151000Z 08008KT 9999 FEW010 FEW020TCU 14/14 Q1013=
METAR LPPT 151030Z VRB08G19KT 9999 FEW016 FEW020CB 16/15 Q1013=
METAR LPPT 151100Z 10009KT 9999 FEW016 FEW020CB 16/14 Q1013=
METAR LPPT 151130Z VRB07KT 9999 FEW018 FEW020CB 17/14 Q1013=
METAR LPPT 151200Z 13009KT 9999 FEW018 18/13 Q1013=
METAR LPPT 151230Z VRB08G20KT 9999 FEW020 18/13 Q1013=
METAR LPPT 151300Z 13010KT 100V160 9999 FEW015 SCT020 BKN042 18/13 Q1012=
METAR LPPT 151330Z 12009KT 100V160 9999 FEW015 FEW020TCU SCT035 18/14 Q1012=
METAR LPPT 151400Z 12011KT 090V150 9999 FEW015 FEW020TCU SCT030 18/13 Q1012=
METAR LPPT 151430Z 12014KT 9999 FEW015 SCT024 18/13 Q1012=
METAR LPPT 151500Z 11011KT 9999 FEW018 SCT032 17/14 Q1012=
METAR LPPT 151530Z 11011KT 9999 FEW014 SCT016 17/14 Q1012=
METAR LPPT 151600Z 11009KT 060V150 9999 FEW012 16/14 Q1012=
METAR LPPT 151630Z 11010KT 9999 FEW012 16/13 Q1012=
METAR LPPT 151700Z 11008KT 080V140 9999 FEW012 SCT043 16/13 Q1012=
METAR LPPT 151730Z 10008KT 070V180 9999 FEW012 SCT033 16/13 Q1012=
METAR LPPT 151800Z 10010KT 9999 FEW012 SCT033 15/13 Q1012=
METAR LPPT 151830Z 10010KT 9999 FEW012 SCT035 15/13 Q1012=
METAR LPPT 151900Z 08008KT 9999 FEW012 14/13 Q1012=
METAR LPPT 151930Z 08007KT 050V110 9999 FEW012 14/13 Q1012=
METAR LPPT 152000Z 08007KT 9999 FEW012 14/13 Q1012=
METAR LPPT 152030Z 09008KT 9999 FEW012 14/13 Q1013=
METAR LPPT 152100Z 09007KT 9999 FEW012 14/12 Q1013=
METAR LPPT 152130Z 09009G24KT 9999 FEW012 14/12 Q1012=
METAR LPPT 152200Z 09007G20KT 060V120 9999 FEW012 14/13 Q1013=
METAR LPPT 152230Z 07006KT 9999 FEW013 14/13 Q1013=
METAR LPPT 152300Z 07007KT 9999 FEW013 14/13 Q1013=
METAR LPPT 152330Z 09006KT 9999 FEW009 14/13 Q1013=
METAR LPPT 160000Z 09007G17KT 020V140 9999 FEW011 14/13 Q1013=
METAR LPPT 160030Z 07007KT 320V100 9999 FEW012 13/13 Q1013=
METAR LPPT 160100Z 09005KT 9999 BKN028 14/13 Q1013=
METAR LPPT 160130Z 09005KT 9999 -RA SCT028 FEW035CB 14/13 Q1013=
METAR LPPT 160200Z 09006KT 9999 -RA FEW016 BKN020 FEW030CB 14/13 Q1013=
METAR LPPT 160230Z 09006KT 9999 RA SCT010 BKN012 FEW030CB 14/13 Q1013=
METAR LPPT 160300Z 08005KT 9999 -RA FEW008 BKN014 FEW025CB 14/14 Q1013 RERA=
METAR LPPT 160330Z 07006KT 9999 FEW009 SCT012 FEW025CB 14/14 Q1012=
METAR LPPT 160400Z 06005KT 9999 FEW008 SCT040 13/13 Q1012=
METAR LPPT 160430Z 09006KT 9999 FEW008 14/14 Q1012=
METAR LPPT 160500Z 08006KT 9999 FEW010 14/14 Q1012=
METAR LPPT 160530Z 08006KT 9999 FEW010 13/13 Q1012=
METAR LPPT 160600Z 09007KT 9999 FEW010 14/14 Q1013=
METAR LPPT 160630Z 08007KT 9999 FEW010 14/13 Q1013=
METAR LPPT 160700Z 08005KT 9999 VCTS SCT020 FEW025CB 13/13 Q1012=
METAR LPPT 160730Z 08005KT 9999 FEW025 FEW030CB 13/13 Q1012=
METAR LPPT 160800Z 08006KT 050V110 9999 FEW025 FEW030CB 14/13 Q1013=
METAR LPPT 160830Z 10006KT 9999 FEW025 FEW030CB 14/13 Q1013=
METAR LPPT 160900Z 10006G20KT 060V150 9999 FEW025 FEW030CB 15/13 Q1014=
METAR LPPT 160930Z 10006G21KT 050V150 9999 FEW025 15/13 Q1014=
METAR LPPT 161000Z 07007KT 050V110 9999 FEW025 15/14 Q1014=
METAR LPPT 161030Z 06009G24KT 330V090 9999 FEW025 16/14 Q1014=
METAR LPPT 161100Z 07009KT CAVOK 16/14 Q1014=
METAR LPPT 161130Z 06009KT 030V090 CAVOK 18/14 Q1014=
METAR LPPT 161200Z 07009G20KT 310V100 CAVOK 19/15 Q1013=
METAR LPPT 161230Z VRB08G21KT CAVOK 19/14 Q1013=
METAR LPPT 161300Z VRB07G18KT 9999 FEW035 19/14 Q1012=
METAR LPPT 161330Z 08008G18KT 340V120 9999 FEW035 20/14 Q1012=
METAR LPPT 161400Z 11009KT 9999 FEW032 21/15 Q1012=
METAR LPPT 161430Z 12010KT 9999 FEW032 21/15 Q1012=
METAR LPPT 161500Z 11011KT 9999 FEW030 21/15 Q1012=
METAR LPPT 161530Z 09007KT 9999 FEW030 20/15 Q1012=
METAR LPPT 161600Z 11006KT 9999 SCT035 21/15 Q1012=
METAR LPPT 161630Z VRB05G19KT 9999 BKN036 FEW040TCU 21/15 Q1012=
METAR LPPT 161700Z VRB06KT 9999 VCSH SCT036 FEW040CB 20/15 Q1012=
METAR LPPT 161730Z VRB05KT 9999 SCT036 FEW040TCU 20/15 Q1012=
METAR LPPT 161800Z VRB04KT 9999 BKN036 FEW040TCU 19/15 Q1013=
METAR LPPT 161830Z VRB06KT 9999 FEW036 19/15 Q1013=
METAR LPPT 161900Z 11006KT 340V140 9999 SCT040 19/15 Q1013=
METAR LPPT 161930Z 08005KT 310V110 9999 SCT038 18/15 Q1013=
METAR LPPT 162000Z 05005KT 020V080 9999 SCT038 17/15 Q1013=
METAR LPPT 162030Z 04005KT 9999 BKN034 17/15 Q1013=
METAR LPPT 162100Z 05007G17KT 340V080 9999 BKN032 17/15 Q1014=
METAR LPPT 162130Z VRB06G17KT 9999 SCT032 17/15 Q1014=
METAR LPPT 162200Z 06007KT 9999 SCT028 17/15 Q1014=
METAR LPPT 162230Z 06007KT 9999 SCT025 16/15 Q1014=
METAR LPPT 162300Z 06007G22KT 290V100 9999 SCT025 16/15 Q1014=
METAR LPPT 162330Z 06007G19KT 310V090 9999 FEW025 16/14 Q1014=
METAR LPPT 170000Z 06007KT 9999 FEW022 15/14 Q1014=
METAR LPPT 170030Z 07007KT 9999 FEW022 15/14 Q1015=
METAR LPPT 170100Z 07006KT 9999 FEW022 15/14 Q1014=
METAR LPPT 170130Z 07005KT 9999 FEW018 15/14 Q1014=
METAR LPPT 170200Z 07006KT 9999 FEW015 15/14 Q1015=
METAR LPPT 170230Z 06005KT 9999 FEW015 SCT020 15/14 Q1015=
METAR LPPT 170300Z 05006KT 9999 FEW015 SCT020 14/14 Q1015=
METAR LPPT 170330Z 05005KT 9999 FEW015 BKN020 15/14 Q1014=
METAR LPPT 170400Z 06006KT 9999 BKN020 15/14 Q1014=
METAR LPPT 170430Z 06005KT 9999 BKN020 15/13 Q1015=
METAR LPPT 170500Z 05007KT 9999 FEW020 14/13 Q1015=
METAR LPPT 170530Z 05006KT 9999 FEW020 14/13 Q1015=
METAR LPPT 170600Z 06006KT 9999 FEW020 14/13 Q1015=
METAR LPPT 170630Z 06007KT 9999 FEW020 14/12 Q1015=
METAR LPPT 170700Z 05005KT 9999 SCT028 FEW032TCU 14/12 Q1015=
METAR LPPT 170730Z 05004KT 9999 FEW028 14/12 Q1016=
METAR LPPT 170800Z 06006G17KT 020V090 9999 FEW028 14/12 Q1016=
METAR LPPT 170830Z 05005KT 9999 FEW029 FEW035TCU 14/12 Q1017=
METAR LPPT 170900Z 05006KT 9999 FEW024 FEW030CB 14/12 Q1017=
METAR LPPT 170930Z 05008KT 9999 FEW026 FEW030CB 15/12 Q1017=
METAR LPPT 171000Z 05011KT 020V080 9999 FEW030 FEW040CB 15/12 Q1018=
METAR LPPT 171030Z 04010KT 020V090 9999 FEW025 FEW040CB 16/12 Q1017=
METAR LPPT 171100Z 05009G23KT 360V090 9999 FEW025 FEW035TCU 17/13 Q1017=
METAR LPPT 171130Z 07009KT 9999 FEW025 18/13 Q1017=
METAR LPPT 171200Z 06009KT 030V090 9999 FEW025 17/13 Q1017=
METAR LPPT 171230Z 05008KT 360V080 9999 FEW025 17/14 Q1017=
METAR LPPT 171300Z 07007KT 040V120 9999 FEW025 18/14 Q1016=
METAR LPPT 171330Z 07006KT 360V100 9999 FEW025 19/15 Q1016=
METAR LPPT 171400Z 06007KT 040V110 9999 FEW033 20/15 Q1016=
METAR LPPT 171430Z 09006KT 9999 FEW030 SCT032 20/14 Q1016=
METAR LPPT 171500Z 12005KT 070V160 9999 FEW035 BKN038 20/14 Q1016=
METAR LPPT 171530Z 14006KT 110V200 9999 FEW038 BKN044 20/14 Q1016=
METAR LPPT 171600Z 13006KT 100V190 9999 BKN046 20/14 Q1016=
METAR LPPT 171630Z VRB05KT 9999 SCT040 20/14 Q1017=
METAR LPPT 171700Z 15003KT 130V200 9999 SCT040 19/14 Q1017=
METAR LPPT 171730Z VRB02KT 9999 FEW020 19/14 Q1017=
METAR LPPT 171800Z VRB03KT CAVOK 19/14 Q1017=
METAR LPPT 171830Z VRB02KT CAVOK 19/14 Q1017=
METAR LPPT 171900Z 10003KT 060V120 CAVOK 18/14 Q1017=
METAR LPPT 171930Z 03004KT 330V060 CAVOK 18/14 Q1017=
METAR LPPT 172000Z 05005KT 330V090 9999 VCSH FEW040TCU 18/15 Q1018=
METAR LPPT 172030Z 06006KT 9999 FEW040TCU 17/15 Q1018=
METAR LPPT 172100Z 03007KT CAVOK 16/15 Q1018=
METAR LPPT 172130Z 02006KT CAVOK 16/14 Q1018=
METAR LPPT 172200Z 04007KT 360V060 CAVOK 16/14 Q1018=
METAR LPPT 172230Z 03003KT 350V050 9999 FEW038 16/13 Q1019=
METAR LPPT 172300Z 01004KT 9999 FEW036 16/13 Q1019=
METAR LPPT 172330Z 35003KT 300V050 9999 SCT034 15/14 Q1019=
METAR LPPT 180000Z 36002KT 9999 SCT034 16/14 Q1019=
METAR LPPT 180030Z VRB02KT 9999 FEW036 15/13 Q1019=
METAR LPPT 180100Z VRB02KT 9999 FEW036 15/14 Q1019=
METAR LPPT 180130Z 33003KT 220V360 CAVOK 15/13 Q1018=
METAR LPPT 180200Z 36003KT CAVOK 15/14 Q1018=
METAR LPPT 180230Z 35002KT CAVOK 15/14 Q1018=
METAR LPPT 180300Z VRB02KT CAVOK 15/14 Q1018=
METAR LPPT 180330Z 05002KT CAVOK 14/14 Q1018=
METAR LPPT 180400Z VRB02KT CAVOK 14/13 Q1018=
METAR LPPT 180430Z 00000KT CAVOK 13/12 Q1018=
METAR LPPT 180500Z 32002KT 9999 SCT010 13/12 Q1018=
METAR LPPT 180530Z 34003KT 9999 SCT011 13/13 Q1018=
METAR LPPT 180600Z 04005KT 350V110 9999 FEW006 SCT010 14/14 Q1018=
METAR LPPT 180630Z 01004KT 320V040 9999 FEW006 SCT012 14/13 Q1018=
METAR LPPT 180700Z 01003KT 9000 VCFG FEW004 SCT008 13/13 Q1019=
METAR LPPT 180730Z 00000KT 9000 VCFG FEW003 SCT006 13/13 Q1019=
METAR LPPT 180800Z 04005KT 350V080 5000 1000E BR VCFG FEW002 SCT005 14/14 Q1019=
METAR LPPT 180830Z 09003KT 030V170 2000 0300E R20/1200 BR PRFG FEW001 SCT003 BKN005 14/14 Q1020=
METAR LPPT 180900Z 05004KT 360V100 5000 1800E BR VCFG FEW001 SCT003 BKN005 14/14 Q1020=
METAR LPPT 180930Z VRB03KT 6000 1800SE FEW001 BKN004 14/14 Q1020=
METAR LPPT 181000Z 11003KT 060V180 6000 FEW002 BKN004 15/15 Q1020=
METAR LPPT 181030Z 11004KT 080V190 4500 BR SCT002 BKN004 15/15 Q1021=
METAR LPPT 181100Z 12004KT 060V180 4500 BR SCT002 BKN004 16/15 Q1020=
METAR LPPT 181130Z VRB02KT 5000 BR FEW002 BKN004 16/16 Q1020=
METAR LPPT 181200Z VRB02KT 7000 FEW003 SCT005 18/16 Q1020=
METAR LPPT 181230Z VRB02KT 9000 FEW003 BKN010 18/16 Q1020=
METAR LPPT 181300Z 08003KT 020V160 9999 FEW004 SCT010 19/16 Q1019=
METAR LPPT 181330Z 11005KT 080V150 9999 FEW008 19/16 Q1019=
METAR LPPT 181400Z 12004KT 080V160 9999 FEW010 19/16 Q1019=
METAR LPPT 181430Z 08004KT 330V130 9999 FEW015 19/16 Q1018=
METAR LPPT 181500Z 08004KT 030V180 9999 FEW015 19/16 Q1018=
METAR LPPT 181530Z 08004KT 350V160 9999 FEW015 19/16 Q1018=
METAR LPPT 181600Z VRB05KT 9999 FEW015 19/16 Q1018=
METAR LPPT 181630Z VRB03KT 9999 FEW015 18/15 Q1018=
METAR LPPT 181700Z VRB02KT 9999 FEW020 18/15 Q1018=
METAR LPPT 181730Z VRB01KT 9999 FEW020 17/15 Q1018=
METAR LPPT 181800Z 19003KT 140V250 9999 BKN021 17/15 Q1018=
METAR LPPT 181830Z 27004KT 9999 FEW019 17/14 Q1018=
METAR LPPT 181900Z 34003KT CAVOK 16/14 Q1018=
METAR LPPT 181930Z 29004KT 9999 SCT035 17/15 Q1018=
METAR LPPT 182000Z 32004KT 270V360 CAVOK 16/14 Q1019=
METAR LPPT 182030Z 32006KT CAVOK 16/15 Q1019=
METAR LPPT 182100Z 32006KT CAVOK 16/15 Q1019=
METAR LPPT 182130Z VRB02KT CAVOK 16/15 Q1019=
METAR LPPT 182200Z 31003KT 290V350 9999 FEW022 15/14 Q1019=
METAR LPPT 182230Z 32006KT 9999 FEW020 15/14 Q1019=
METAR LPPT 182300Z 31006KT CAVOK 15/14 Q1019=
METAR LPPT 182330Z 31007KT CAVOK 15/14 Q1019=
METAR LPPT 190000Z VRB02KT CAVOK 15/13 Q1019=
METAR LPPT 190030Z VRB02KT CAVOK 14/13 Q1019=
METAR LPPT 190100Z VRB02KT CAVOK 14/13 Q1019=
METAR LPPT 190130Z 30003KT CAVOK 14/14 Q1019=
METAR LPPT 190200Z 36003KT 9999 FEW002 13/13 Q1019=
METAR LPPT 190230Z 01003KT 8000 0400E SCT001 13/13 Q1019=
METAR LPPT 190300Z 00000KT 0800 0400E R20/0650 PRFG SCT000 BKN001 12/12 Q1019=
METAR COR LPPT 190330Z 00000KT 0800 0400E R20/0450N PRFG BKN000 13/13 Q1019=
METAR LPPT 190400Z VRB02KT 1100 0400E R20/0550 BR PRFG SCT000 12/12 Q1019=
METAR LPPT 190430Z 35002KT 0400 R20/0400N FG BKN000 12/12 Q1019=
METAR LPPT 190500Z 31003KT 270V340 9999 3000E VCFG FEW001 12/12 Q1019=
METAR LPPT 190530Z VRB02KT 9999 3000E FEW002 12/12 Q1019=
METAR LPPT 190600Z VRB02KT 9999 3000E VCFG FEW002 12/12 Q1019=
METAR LPPT 190630Z VRB02KT 9999 3000E VCFG FEW002 13/13 Q1020=
METAR LPPT 190700Z 02003KT 330V090 9999 0800E R20/1400D PRFG SCT001 12/12 Q1020=
METAR LPPT 190730Z 02004KT 350V080 0800 0300E R20/1600 PRFG SCT000 11/11 Q1020=
METAR LPPT 190800Z 10003KT 030V160 3000 0500E R20/0900 BR VCFG SCT001 12/12 Q1021=
METAR LPPT 190830Z VRB02KT 4000 0300E R20/0550N PRFG BR FEW001 13/13 Q1021=
METAR LPPT 190900Z 03003KT 350V160 8000 0800E VCFG FEW001 13/13 Q1022=
METAR LPPT 190930Z 06005KT 020V100 9000 1000E VCFG FEW003 15/15 Q1022=
METAR LPPT 191000Z 09004KT 360V120 9999 FEW005 15/15 Q1022=
METAR LPPT 191030Z 09005KT 040V120 9000 0300NE VCFG FEW001 15/14 Q1022=
METAR LPPT 191100Z 08004KT 360V150 9000 0600NE VCFG FEW001 15/14 Q1022=
METAR LPPT 191130Z 10004G15KT 020V160 9999 VCFG FEW001 15/14 Q1022=
METAR LPPT 191200Z 09004KT 040V120 9999 VCFG FEW002 16/14 Q1022=
METAR LPPT 191230Z VRB05G15KT 9999 VCFG FEW002 17/14 Q1021=
METAR LPPT 191300Z 07005G18KT 030V110 9999 VCFG FEW003 17/14 Q1021=
METAR LPPT 191330Z 07004KT 340V140 9999 VCFG FEW006 17/14 Q1021=
METAR LPPT 191400Z 07004G15KT 340V110 9999 FEW002 SCT025 18/14 Q1021=
METAR LPPT 191430Z VRB05KT 9999 SCT028 18/14 Q1021=
METAR LPPT 191500Z VRB03KT 9999 SCT026 18/14 Q1021=
METAR LPPT 191530Z 11003KT 040V180 9999 FEW024 SCT030 18/14 Q1021=
METAR LPPT 191600Z 20003KT 100V260 9999 FEW022 BKN030 18/15 Q1021=
METAR LPPT 191630Z VRB02KT 9999 FEW020 BKN026 19/15 Q1022=
METAR LPPT 191700Z 33010KT 9999 FEW020 FEW022TCU SCT026 18/14 Q1022=
METAR LPPT 191730Z 34010KT 9999 FEW020 SCT026 17/14 Q1022=
METAR LPPT 191800Z 33007KT 300V360 9999 FEW020 16/13 Q1023=
METAR LPPT 191830Z 33008KT 9999 FEW018 16/13 Q1023=
METAR LPPT 191900Z 31004KT 270V350 9999 FEW015 16/13 Q1023=
METAR LPPT 191930Z 34007KT 9999 FEW012 15/13 Q1024=
METAR LPPT 192000Z 33005KT 300V360 CAVOK 15/13 Q1024=
METAR LPPT 192030Z 33006KT CAVOK 15/13 Q1024=
METAR LPPT 192100Z 33005KT 260V010 CAVOK 15/13 Q1024=
METAR LPPT 192130Z 33003KT 270V010 9999 FEW018 14/12 Q1024=
METAR LPPT 192200Z 34006KT 9999 FEW016 14/12 Q1024=
METAR LPPT 192230Z VRB01KT 9999 FEW016 13/12 Q1024=
METAR LPPT 192300Z VRB02KT CAVOK 13/11 Q1024=
METAR LPPT 192330Z 29001KT 9999 FEW015 12/11 Q1025=
METAR LPPT 200000Z VRB01KT 9999 FEW015 12/11 Q1025=
METAR LPPT 200030Z VRB02KT 9999 FEW015 12/11 Q1025=
METAR LPPT 200100Z 27003KT 9999 FEW015 12/12 Q1024=
METAR LPPT 200130Z 26002KT 9999 FEW027 12/11 Q1024=
METAR LPPT 200200Z 27003KT CAVOK 11/11 Q1024=
METAR LPPT 200230Z 26004KT CAVOK 12/12 Q1024=
METAR LPPT 200300Z 27003KT 9999 FEW029 12/11 Q1024=
METAR LPPT 200330Z 28003KT 9999 BKN031 13/11 Q1024=
METAR LPPT 200400Z 27003KT 9999 BKN030 13/12 Q1024=
METAR LPPT 200430Z VRB02KT 9999 BKN031 14/12 Q1024=
METAR LPPT 200500Z VRB02KT 9999 BKN031 13/11 Q1025=
METAR LPPT 200530Z 00000KT 9999 BKN031 14/11 Q1025=
METAR LPPT 200600Z VRB01KT 9999 BKN030 14/12 Q1025=
METAR LPPT 200630Z VRB02KT 9999 BKN029 14/11 Q1025=
METAR LPPT 200700Z VRB02KT 9999 BKN030 14/11 Q1025=
METAR LPPT 200730Z VRB02KT 9999 BKN030 15/11 Q1025=
METAR LPPT 200800Z 23003KT 200V300 9999 BKN028 14/12 Q1026=
METAR LPPT 200830Z 28003KT 9999 FEW028 BKN032 15/11 Q1026=
METAR LPPT 200900Z VRB02KT 9999 FEW028 BKN031 15/12 Q1026=
METAR LPPT 200930Z 27003KT 230V320 9999 BKN030 16/12 Q1026=
METAR LPPT 201000Z 30005KT 9999 BKN030 16/11 Q1026=
METAR LPPT 201030Z 30007KT 260V350 9999 BKN028 17/11 Q1026=
METAR LPPT 201100Z 31006KT 9999 FEW025 BKN028 17/11 Q1026=
METAR LPPT 201130Z 33008KT 9999 FEW025 BKN030 17/12 Q1026=
METAR LPPT 201200Z 32005KT 290V350 9999 FEW025 BKN028 17/12 Q1026=
METAR LPPT 201230Z 31005KT 280V350 9999 FEW025 BKN028 17/12 Q1026=
METAR LPPT 201300Z 31007KT 9999 FEW027 BKN030 17/11 Q1025=
METAR LPPT 201330Z 31007KT 9999 FEW027 BKN032 17/11 Q1025=
METAR LPPT 201400Z 29005KT 250V320 9999 FEW027 BKN032 17/11 Q1025=
METAR LPPT 201430Z 27006KT 240V310 9999 BKN028 17/11 Q1025=
METAR LPPT 201500Z 30006KT 270V340 9999 SCT020 BKN028 16/12 Q1025=
METAR LPPT 201530Z 29006KT 270V330 9999 FEW020 BKN028 16/12 Q1025=
METAR LPPT 201600Z 27005KT 250V310 9999 FEW022 BKN028 16/12 Q1025=
METAR LPPT 201630Z 29005KT 250V330 9999 FEW020 BKN026 16/12 Q1025=
METAR LPPT 201700Z 28004KT 260V320 9999 FEW018 SCT024 BKN026 16/12 Q1025=
METAR LPPT 201730Z 31005KT 270V350 9999 FEW018 BKN025 16/12 Q1025=
METAR LPPT 201800Z 32004KT 280V340 9999 FEW020 BKN024 15/12 Q1025=
METAR LPPT 201830Z 30003KT 250V350 9999 BKN026 15/12 Q1025=
METAR LPPT 201900Z VRB02KT 9999 BKN028 15/12 Q1025=
METAR LPPT 201930Z VRB02KT 9999 BKN027 16/12 Q1025=
METAR LPPT 202000Z 27004KT 230V310 9999 BKN024 16/12 Q1025=
METAR LPPT 202030Z 27003KT 220V310 9999 BKN024 16/12 Q1025=
METAR LPPT 202100Z 26003KT 230V310 9999 BKN024 15/12 Q1025=
METAR LPPT 202130Z 24003KT 200V270 9999 BKN025 15/12 Q1025=
METAR LPPT 202200Z 24004KT 9999 BKN024 16/12 Q1025=
METAR LPPT 202230Z 23004KT 9999 BKN025 15/12 Q1025=
METAR LPPT 202300Z 24005KT 9999 BKN026 16/12 Q1025=
METAR LPPT 202330Z 26004KT 9999 BKN027 16/12 Q1025=
METAR LPPT 210000Z 24004KT 210V290 9999 BKN028 16/12 Q1025=
METAR LPPT 210030Z 28003KT 9999 BKN026 16/12 Q1024=
METAR LPPT 210100Z 26004KT 9999 FEW026 BKN032 15/12 Q1024=
METAR LPPT 210130Z 26005KT 9999 BKN028 15/11 Q1024=
METAR LPPT 210200Z 25004KT 9999 BKN026 15/11 Q1024=
METAR LPPT 210230Z 25005KT 9999 FEW026 BKN030 15/11 Q1023=
METAR LPPT 210300Z 27005KT 240V300 9999 BKN030 16/11 Q1023=
METAR LPPT 210330Z 26005KT 230V290 9999 BKN030 16/11 Q1023=
METAR LPPT 210400Z 26004KT 230V290 9999 BKN034 15/11 Q1023=
METAR LPPT 210430Z 27002KT 9999 BKN032 15/11 Q1023=
METAR LPPT 210500Z 22005KT 200V270 9999 FEW027 BKN034 15/11 Q1023=
METAR LPPT 210530Z 23005KT 9999 FEW028 BKN036 15/11 Q1023=
METAR LPPT 210600Z 24005KT 9999 FEW030 BKN036 15/11 Q1023=
METAR LPPT 210630Z 24005KT 9999 FEW030 BKN038 15/11 Q1023=
METAR LPPT 210700Z 24005KT 9999 FEW032 BKN040 15/11 Q1023=
METAR LPPT 210730Z 23005KT 9999 FEW032 BKN040 15/12 Q1023=
METAR LPPT 210800Z 23005KT 9999 FEW030 BKN040 16/12 Q1022=
METAR COR LPPT 210830Z 24005KT 9999 FEW020 BKN036 16/12 Q1023=
METAR LPPT 210900Z 23003KT 210V290 9999 FEW020 BKN042 16/12 Q1022=
METAR LPPT 210930Z 25004KT 220V290 9999 FEW020 BKN040 16/12 Q1022=
METAR LPPT 211000Z 25005KT 9999 FEW020 BKN038 17/12 Q1023=
METAR LPPT 211030Z 26007KT 220V290 9999 FEW020 BKN038 17/11 Q1023=
METAR LPPT 211100Z 24007KT 220V280 9999 FEW030 BKN042 17/12 Q1022=
METAR LPPT 211130Z 26009KT 230V300 9999 FEW024 BKN035 17/11 Q1022=
METAR LPPT 211200Z 30005KT 270V340 9999 FEW030 BKN042 17/13 Q1022=
METAR LPPT 211230Z 27007KT 250V310 9999 FEW020 BKN035 16/13 Q1022=
METAR LPPT 211300Z 28007KT 260V330 9999 FEW018 SCT046 18/13 Q1021=
METAR LPPT 211330Z 27009KT 230V300 9999 SCT018 SCT030 17/12 Q1021=
METAR LPPT 211400Z 27011KT 230V300 9999 SCT024 SCT042 18/12 Q1021=
METAR LPPT 211430Z 28009KT 250V320 9999 VCSH SCT020 BKN030 17/12 Q1020=
METAR LPPT 211500Z 29008KT 240V320 6000 -RA SCT008 BKN012 15/14 Q1021=
METAR LPPT 211530Z 27007KT 230V320 9999 FEW010 BKN042 17/14 Q1020=
METAR LPPT 211600Z 25009KT 220V280 9999 FEW018 BKN045 16/13 Q1020=
METAR LPPT 211630Z 25008KT 9999 FEW020 SCT048 16/13 Q1020=
METAR LPPT 211700Z 24008KT 9999 FEW020 SCT042 16/14 Q1020=
METAR LPPT 211730Z 24007KT 9999 FEW015 SCT042 16/13 Q1020=
METAR LPPT 211800Z 24008KT 9999 FEW015 SCT045 16/13 Q1020=
METAR LPPT 211830Z 23009KT 9999 FEW012 BKN045 16/13 Q1020=
METAR LPPT 211900Z 24008KT 9999 FEW012 BKN044 16/13 Q1020=
METAR LPPT 211930Z 24007KT 9999 FEW012 BKN040 16/14 Q1020=
METAR LPPT 212000Z 24007KT 9999 FEW012 BKN040 16/14 Q1020=
METAR LPPT 212030Z 24007KT 9999 FEW012 BKN040 16/14 Q1020=
METAR LPPT 212100Z 23007KT 9999 FEW015 BKN042 16/14 Q1020=
METAR LPPT 212130Z 24007KT 9999 FEW015 SCT018 BKN042 16/14 Q1020=
METAR LPPT 212200Z 24008KT 9999 FEW015 BKN040 16/14 Q1020=
METAR LPPT 212230Z 24008KT 9999 FEW015 BKN042 16/14 Q1020=
METAR LPPT 212300Z 24007KT 9999 FEW015 SCT044 16/13 Q1020=
METAR LPPT 212330Z 24009KT 9999 FEW015 BKN026 16/14 Q1020=
METAR LPPT 220000Z 23009KT 9999 FEW016 SCT040 16/14 Q1020=
METAR LPPT 220030Z 24006KT 9999 FEW016 BKN034 16/14 Q1019=
METAR LPPT 220100Z 24009KT 9999 FEW015 17/14 Q1019=
METAR LPPT 220130Z 25009KT 9999 FEW015 SCT034 17/14 Q1019=
METAR LPPT 220200Z 25010KT 9999 FEW013 SCT022 17/14 Q1019=
METAR LPPT 220230Z 25009KT 220V280 9999 FEW013 SCT020 BKN040 17/15 Q1019=
METAR LPPT 220300Z 27008KT 9999 FEW014 SCT020 BKN034 17/15 Q1019=
METAR LPPT 220330Z 26008KT 230V290 9999 FEW015 17/15 Q1019=
METAR LPPT 220400Z 26007KT 240V300 9999 FEW017 BKN032 17/15 Q1019=
METAR LPPT 220430Z 27007KT 230V300 9999 FEW014 SCT036 17/15 Q1018=
METAR LPPT 220500Z 28007KT 9999 FEW015 16/14 Q1019=
METAR LPPT 220530Z 26007KT 9999 FEW014 SCT030 16/15 Q1019=
METAR LPPT 220600Z 26006KT 9999 -RA FEW013 BKN040 16/15 Q1019=
METAR LPPT 220630Z 26008KT 9999 FEW016 16/14 Q1019=
METAR LPPT 220700Z 25007KT 230V290 9999 FEW012 SCT025 16/15 Q1019=
METAR LPPT 220730Z 25005KT 230V290 9999 FEW015 SCT025 16/14 Q1019=
METAR LPPT 220800Z 26005KT 220V300 9999 FEW018 16/15 Q1019=
METAR LPPT 220830Z 28007KT 9999 FEW018 16/14 Q1020=
METAR LPPT 220900Z 27008KT 240V300 9999 FEW015 17/15 Q1020=
METAR LPPT 220930Z 28005KT 240V320 9999 FEW015 18/15 Q1021=
METAR LPPT 221000Z 27007KT 240V310 9999 SCT016 18/15 Q1021=
METAR LPPT 221030Z 28008KT 250V310 9999 FEW018 BKN036 18/14 Q1021=
METAR LPPT 221100Z 26005KT 220V300 9999 SCT020 BKN044 18/15 Q1021=
METAR LPPT 221130Z 27007KT 230V300 9999 FEW020 SCT044 18/14 Q1021=
METAR LPPT 221200Z 29007KT 240V320 9999 FEW020 SCT036 18/14 Q1020=
METAR LPPT 221230Z 27006KT 230V330 9999 FEW022 BKN048 18/14 Q1020=
METAR LPPT 221300Z 26007KT 230V310 9999 FEW024 SCT046 20/14 Q1020=
METAR LPPT 221330Z 24011KT 9999 SCT024 BKN046 19/14 Q1020=
METAR LPPT 221400Z 26007KT 9999 FEW020 BKN046 18/15 Q1020=
METAR LPPT 221430Z 25008KT 210V290 9999 FEW015 SCT046 19/15 Q1019=
METAR LPPT 221500Z 25007KT 220V290 9999 SCT018 SCT042 19/15 Q1019=
METAR LPPT 221530Z 22007KT 200V260 9999 SCT018 18/15 Q1019=
METAR LPPT 221600Z 25009KT 220V280 9999 SCT018 18/14 Q1019=
METAR LPPT 221630Z 25008KT 230V290 9999 FEW020 18/14 Q1020=
METAR LPPT 221700Z 25006KT 9999 SCT018 SCT048 18/15 Q1020=
METAR LPPT 221730Z 23007KT 210V270 9999 FEW014 17/15 Q1020=
METAR LPPT 221800Z 24006KT 9999 FEW015 17/15 Q1020=
METAR LPPT 221830Z 23006KT 9999 FEW011 16/14 Q1020=
METAR LPPT 221900Z 23003KT 9999 FEW012 16/15 Q1021=
METAR LPPT 221930Z 22003KT 9999 FEW012 15/14 Q1021=
METAR LPPT 222000Z 20004KT 9999 FEW012 15/14 Q1021=
METAR LPPT 222030Z 21002KT 9999 FEW012 14/13 Q1021=
METAR LPPT 222100Z 17003KT 110V230 9999 FEW012 14/13 Q1021=
METAR LPPT 222130Z VRB02KT 9999 FEW012 14/13 Q1021=
METAR LPPT 222200Z VRB02KT 9999 FEW012 14/14 Q1021=
METAR LPPT 222230Z VRB02KT 9999 FEW012 13/13 Q1020=
METAR LPPT 222300Z 21004KT 9999 FEW010 14/14 Q1020=
METAR LPPT 222330Z 20003KT 160V220 9999 FEW008 14/14 Q1021=
METAR LPPT 230000Z 15003KT 110V200 9999 FEW005 14/14 Q1020=
METAR LPPT 230030Z 16005KT 130V200 9999 FEW002 15/14 Q1020=
METAR LPPT 230100Z 14003KT 9999 FEW002 14/14 Q1020=
METAR LPPT 230130Z VRB01KT 8000 3000E VCFG FEW002 12/12 Q1020=
METAR LPPT 230200Z 00000KT 0500 R20/1900D PRFG FEW001 BKN003 12/12 Q1019=
METAR LPPT 230230Z 15003KT 0500 R20/0500 FG VV001 14/14 Q1019=
METAR LPPT 230300Z 14004KT 5000 1000E BR VCFG FEW001 BKN004 14/14 Q1019=
METAR LPPT 230330Z 11003KT 9000 FEW002 14/14 Q1019=
METAR LPPT 230400Z 11003KT 9000 FEW003 13/13 Q1019=
METAR LPPT 230430Z 09005KT 9999 FEW003 13/13 Q1019=
METAR LPPT 230500Z 11004KT 080V210 9999 FEW002 13/13 Q1018=
METAR LPPT 230530Z 10004KT 080V150 9999 FEW002 13/13 Q1018=
METAR LPPT 230600Z 09005KT 9999 FEW003 13/13 Q1018=
METAR LPPT 230630Z VRB05KT 9999 FEW003 13/13 Q1018=
METAR LPPT 230700Z 07005G15KT 360V110 9999 FEW003 13/13 Q1018=
METAR LPPT 230730Z 08005KT 340V110 9999 FEW003 13/13 Q1018=
METAR LPPT 230800Z 09006KT 030V130 9999 FEW005 13/13 Q1018=
METAR LPPT 230830Z 09006G17KT 050V130 9999 FEW012 13/13 Q1018=
METAR LPPT 230900Z 09007KT 060V120 9999 FEW006 13/13 Q1019=
METAR LPPT 230930Z 10007G17KT 060V130 9999 FEW006 14/13 Q1019=
METAR LPPT 231000Z VRB07KT 9999 FEW007 15/13 Q1019=
METAR LPPT 231030Z 11008KT 070V160 9999 FEW012 16/13 Q1018=
METAR LPPT 231100Z 10006KT 020V140 CAVOK 17/13 Q1018=
METAR LPPT 231130Z 12008KT 090V150 9999 FEW015 17/13 Q1018=
METAR LPPT 231200Z 11007KT 080V140 9999 FEW015 18/13 Q1018=
METAR LPPT 231230Z 13008KT 100V170 CAVOK 19/13 Q1017=
METAR LPPT 231300Z 11009G19KT 080V170 CAVOK 20/14 Q1017=
METAR LPPT 231330Z 13008KT 100V170 CAVOK 20/14 Q1016=
METAR LPPT 231400Z 12011KT 100V210 CAVOK 21/14 Q1016=
METAR LPPT 231430Z 11009KT 080V140 CAVOK 21/14 Q1016=
METAR LPPT 231500Z 12008KT CAVOK 21/14 Q1016=
METAR LPPT 231530Z 13009KT CAVOK 21/14 Q1015=
METAR LPPT 231600Z 13010KT 060V150 CAVOK 21/14 Q1015=
METAR LPPT 231630Z 12006KT 090V150 CAVOK 21/14 Q1015=
METAR LPPT 231700Z 11007KT 080V150 CAVOK 20/14 Q1015=
METAR LPPT 231730Z 12006KT 090V150 CAVOK 20/13 Q1015=
METAR LPPT 231800Z 11007KT CAVOK 19/13 Q1015=
METAR LPPT 231830Z 11007KT 090V160 CAVOK 19/13 Q1015=
METAR LPPT 231900Z 11007G18KT 080V150 CAVOK 18/14 Q1015=
METAR LPPT 231930Z 11008KT 040V140 CAVOK 18/13 Q1015=
METAR LPPT 232000Z 10007KT 050V130 CAVOK 17/13 Q1015=
METAR LPPT 232030Z 11007KT 070V140 CAVOK 17/13 Q1015=
METAR LPPT 232100Z 11005KT 030V170 CAVOK 17/12 Q1015=
METAR LPPT 232130Z 11008KT CAVOK 17/13 Q1015=
METAR LPPT 232200Z 12009KT CAVOK 17/12 Q1015=
METAR LPPT 232230Z 11009KT 080V140 CAVOK 17/12 Q1014=
METAR LPPT 232300Z 11007KT 080V150 CAVOK 17/12 Q1014=
METAR LPPT 232330Z 10007KT CAVOK 17/12 Q1014=
METAR LPPT 240000Z 11008KT 090V160 CAVOK 17/11 Q1014=
METAR LPPT 240030Z 10007KT CAVOK 17/11 Q1014=
METAR LPPT 240100Z 12008KT 070V150 CAVOK 18/10 Q1013=
METAR LPPT 240130Z 11009KT 090V150 CAVOK 18/10 Q1013=
METAR LPPT 240200Z 11006KT CAVOK 17/10 Q1012=
METAR LPPT 240230Z 11011KT CAVOK 17/11 Q1012=
METAR LPPT 240300Z 11009KT CAVOK 17/12 Q1012=
METAR LPPT 240330Z 12009KT 090V150 CAVOK 17/12 Q1012=
METAR LPPT 240400Z 12008KT CAVOK 17/12 Q1011=
METAR LPPT 240430Z 12009KT CAVOK 17/12 Q1011=
METAR LPPT 240500Z 12008G20KT CAVOK 16/12 Q1011=
METAR LPPT 240530Z 12005KT 070V190 CAVOK 16/12 Q1011=
METAR LPPT 240600Z 12006KT 090V150 CAVOK 17/12 Q1011=
METAR LPPT 240630Z 12007KT 080V150 CAVOK 17/12 Q1011=
METAR LPPT 240700Z 10010KT 070V140 CAVOK 17/12 Q1010=
METAR LPPT 240730Z 10011KT CAVOK 16/12 Q1010=
METAR LPPT 240800Z 10010G23KT 080V150 CAVOK 16/12 Q1011=
METAR LPPT 240830Z 08007KT 040V140 CAVOK 16/12 Q1011=
METAR LPPT 240900Z 08007KT 040V130 CAVOK 16/12 Q1011=
METAR LPPT 240930Z 08007KT CAVOK 17/12 Q1011=
METAR LPPT 241000Z 09006KT 010V130 CAVOK 17/12 Q1011=
METAR LPPT 241030Z 10008KT 080V140 CAVOK 18/13 Q1010=
METAR LPPT 241100Z 12009KT 090V160 CAVOK 18/13 Q1010=
METAR LPPT 241130Z 13006KT 090V180 CAVOK 18/13 Q1010=
METAR LPPT 241200Z 12007G17KT 040V180 CAVOK 18/13 Q1010=
METAR LPPT 241230Z 15007KT 090V260 CAVOK 20/13 Q1009=
METAR LPPT 241300Z 09006KT 010V160 CAVOK 19/14 Q1009=
METAR LPPT 241330Z 12006KT 040V200 CAVOK 20/14 Q1009=
METAR LPPT 241400Z 17018KT CAVOK 22/14 Q1009=
METAR LPPT 241430Z 17021KT 9999 FEW040 22/14 Q1008=
METAR LPPT 241500Z 18020KT 9999 FEW040 22/15 Q1008=
METAR LPPT 241530Z 18021G31KT 9999 FEW015 22/16 Q1008=
METAR LPPT 241600Z 19022KT 9999 SCT024 21/16 Q1008=
METAR LPPT 241630Z 19020KT 9999 SCT020 21/17 Q1008=
METAR LPPT 241700Z 18019KT 9999 FEW020 21/17 Q1008=
METAR LPPT 241730Z 18020KT 9999 FEW020 21/17 Q1008=
METAR LPPT 241800Z 18021G31KT 9999 FEW022 BKN024 21/17 Q1009=
METAR LPPT 241830Z 19023KT 9999 BKN016 20/17 Q1009=
METAR LPPT 241900Z 19024KT 9999 BKN016 20/17 Q1009=
METAR LPPT 241930Z 18020KT 9999 -RA SCT014 BKN017 20/18 Q1009=
METAR LPPT 242000Z 18022KT 9999 SCT012 BKN015 20/18 Q1009 WS R20=
METAR LPPT 242030Z 18021KT 9999 FEW011 BKN013 20/18 Q1009 WS R20=
METAR LPPT 242100Z 19021G33KT 6000 RA SCT010 BKN012 FEW020CB 19/19 Q1009 WS R20=
METAR LPPT 242130Z 21020G30KT 9999 FEW007 SCT012 BKN018 18/17 Q1009 RERA WS R20=
METAR LPPT 242200Z 20020KT 9999 FEW012 BKN030 19/17 Q1010 WS R20=
METAR LPPT 242230Z 21015KT 9999 FEW010 BKN015 18/18 Q1010 WS R20=
METAR LPPT 242300Z 21018KT 9999 FEW010 BKN012 19/18 Q1010 WS R20=
METAR LPPT 242330Z 20019KT 9999 VCSH FEW008 SCT012 19/18 Q1009=
METAR LPPT 250000Z 20017KT 9999 SCT008 BKN012 19/18 Q1009=
METAR LPPT 250030Z 20017G27KT 2500 +RA SCT002 BKN006 FEW020TCU 18/17 Q1009=
METAR LPPT 250100Z 21017KT 9999 -RA FEW006 BKN012 FEW020TCU 18/18 Q1009 RERA=
METAR LPPT 250130Z 20019KT 180V240 2000 +RA SCT004 BKN006 FEW020CB 18/18 Q1009=
METAR LPPT 250200Z 29008KT 260V320 8000 -SHRA SCT004 FEW020CB SCT030 16/16 Q1010=
METAR LPPT 250230Z 30007KT 270V330 8000 -RA FEW005 SCT008 16/16 Q1011=
METAR LPPT 250300Z 30007KT 9999 FEW008 BKN010 15/15 Q1011=
METAR LPPT 250330Z 32010KT 8000 -RA FEW008 BKN010 15/14 Q1012=
METAR LPPT 250400Z 32008KT 280V010 9999 FEW010 SCT045 14/13 Q1013=
METAR LPPT 250430Z 32007KT 280V340 9999 FEW015 14/13 Q1013=
METAR LPPT 250500Z 29004KT 260V320 9999 FEW015 14/13 Q1014=
METAR LPPT 250530Z 29005KT 260V330 9999 FEW015 14/13 Q1014=
METAR LPPT 250600Z 29006KT 250V320 9999 FEW015 14/12 Q1015=
METAR LPPT 250630Z 29005KT 260V320 CAVOK 14/10 Q1016=
METAR LPPT 250700Z 30006KT 260V330 CAVOK 14/10 Q1016=
METAR LPPT 250730Z 29003KT 9999 FEW015 13/09 Q1017=
METAR LPPT 250800Z 27003KT 9999 FEW015 13/09 Q1018=
METAR LPPT 250830Z 23003KT 9999 FEW018 13/11 Q1018=
METAR LPPT 250900Z 23003KT 9999 FEW018 14/10 Q1019=
METAR LPPT 250930Z 21003KT 120V280 9999 FEW020 15/11 Q1019=
METAR LPPT 251000Z 27003KT 230V310 9999 FEW020 16/11 Q1020=
METAR LPPT 251030Z 26004KT 220V290 9999 FEW020 16/11 Q1020=
METAR LPPT 251100Z 26005KT 230V290 9999 FEW022 17/11 Q1021=
METAR LPPT 251130Z 27005KT 240V310 9999 FEW028 17/09 Q1020=
METAR LPPT 251200Z 27006KT 220V310 9999 FEW033 17/10 Q1020=
METAR LPPT 251230Z 26009KT 230V310 9999 FEW035 18/10 Q1020=
METAR LPPT 251300Z 29007KT 250V330 9999 FEW035 17/10 Q1020=
METAR LPPT 251330Z 30005KT 260V350 9999 FEW035 17/10 Q1020=
METAR LPPT 251400Z 27007KT 240V300 9999 FEW035 17/10 Q1021=
METAR LPPT 251430Z 28006KT 250V310 9999 FEW035 17/10 Q1020=
METAR LPPT 251500Z 30006KT 270V330 9999 FEW033 17/09 Q1021=
METAR LPPT 251530Z 28006KT 240V320 9999 FEW040 18/09 Q1021=
METAR LPPT 251600Z 29005KT 260V320 9999 FEW040 17/09 Q1021=
METAR LPPT 251630Z 28004KT 9999 FEW035 17/09 Q1021=
METAR LPPT 251700Z 28004KT 9999 FEW030 16/09 Q1021=
METAR LPPT 251730Z 28003KT 9999 FEW025 16/09 Q1021=
METAR LPPT 251800Z 30003KT 9999 FEW020 15/09 Q1022=
METAR LPPT 251830Z 27003KT CAVOK 14/10 Q1022=
METAR LPPT 251900Z 30002KT CAVOK 12/09 Q1022=
METAR LPPT 251930Z 28003KT 9999 FEW020 14/10 Q1022=
METAR LPPT 252000Z 28002KT 9999 FEW020 13/10 Q1023=
METAR LPPT 252030Z VRB02KT 9999 FEW015 12/09 Q1023=
METAR LPPT 252100Z 25002KT CAVOK 12/10 Q1023=
METAR LPPT 252130Z VRB02KT 9999 FEW048 13/10 Q1023=
METAR LPPT 252200Z 27002KT CAVOK 13/10 Q1023=
METAR LPPT 252230Z VRB02KT CAVOK 14/11 Q1024=
METAR LPPT 252300Z VRB01KT 9999 FEW048 14/11 Q1024=
METAR LPPT 252330Z VRB02KT 9999 FEW044 14/11 Q1023=
METAR LPPT 260000Z VRB01KT 9999 BKN036 13/10 Q1024=
METAR LPPT 260030Z 00000KT 9999 SCT044 13/11 Q1023=
METAR LPPT 260100Z 00000KT 9999 FEW038 SCT048 13/12 Q1023=
METAR LPPT 260130Z VRB02KT CAVOK 13/12 Q1023=
METAR LPPT 260200Z 02002KT CAVOK 13/11 Q1023=
METAR LPPT 260230Z 34002KT CAVOK 12/11 Q1023=
METAR LPPT 260300Z 32002KT CAVOK 12/11 Q1023=
METAR LPPT 260330Z 00000KT CAVOK 12/11 Q1023=
METAR LPPT 260400Z 04003KT CAVOK 11/11 Q1023=
METAR LPPT 260430Z 04003KT 9999 FEW030 11/10 Q1023=
METAR LPPT 260500Z 04005KT 9999 FEW030 11/11 Q1023=
METAR LPPT 260530Z VRB02KT 9999 FEW002 11/11 Q1022=
METAR LPPT 260600Z 00000KT 9000 FEW003 11/11 Q1023=
METAR LPPT 260630Z VRB01KT CAVOK 11/11 Q1023=
METAR LPPT 260700Z 00000KT CAVOK 11/11 Q1023=
METAR LPPT 260730Z 00000KT 9000 NSC 11/11 Q1023=
METAR LPPT 260800Z 08003KT 350V130 9999 FEW005 11/11 Q1023=
METAR LPPT 260830Z 06004KT 310V120 9999 FEW002 12/11 Q1023=
METAR LPPT 260900Z 03003KT 360V060 9999 FEW003 12/11 Q1024=
METAR LPPT 260930Z 05003G15KT 350V130 9999 FEW003 12/11 Q1024=
METAR LPPT 261000Z 02003KT 350V090 9999 FEW004 12/12 Q1024=
METAR LPPT 261030Z VRB03KT CAVOK 13/12 Q1024=
METAR LPPT 261100Z VRB02KT CAVOK 13/11 Q1024=
METAR LPPT 261130Z VRB04KT CAVOK 14/12 Q1024=
METAR LPPT 261200Z 07005KT 030V100 CAVOK 14/11 Q1024=
METAR LPPT 261230Z 07005KT 030V100 CAVOK 14/12 Q1023=
METAR LPPT 261300Z 07005KT 030V120 CAVOK 15/12 Q1023=
METAR LPPT 261330Z 05005KT 340V100 9999 FEW025 15/11 Q1023=
METAR LPPT 261400Z VRB04KT 9999 FEW030 15/11 Q1023=
METAR LPPT 261430Z 09004KT 030V160 9999 FEW030 15/11 Q1022=
METAR LPPT 261500Z VRB04KT 9999 FEW030 16/11 Q1022=
METAR LPPT 261530Z 07004G16KT 340V120 9999 FEW030 16/11 Q1022=
METAR LPPT 261600Z VRB03KT 9999 FEW030 16/11 Q1022=
METAR LPPT 261630Z 06003KT 330V090 9999 FEW030 16/10 Q1022=
METAR LPPT 261700Z 05003KT CAVOK 16/10 Q1022=
METAR LPPT 261730Z VRB03KT CAVOK 15/09 Q1022=
METAR LPPT 261800Z VRB02KT CAVOK 14/10 Q1023=
METAR LPPT 261830Z VRB02KT CAVOK 14/09 Q1023=
METAR LPPT 261900Z 35003KT CAVOK 13/10 Q1023=
METAR LPPT 261930Z 34003KT CAVOK 13/09 Q1023=
METAR LPPT 262000Z 02004KT 330V110 CAVOK 14/09 Q1023=
METAR LPPT 262030Z VRB02KT CAVOK 12/09 Q1023=
METAR LPPT 262100Z 35003G13KT 310V100 CAVOK 13/09 Q1023=
METAR LPPT 262130Z 35003KT CAVOK 11/08 Q1023=
METAR LPPT 262200Z 32002KT CAVOK 12/09 Q1024=
METAR LPPT 262230Z 36003KT 320V040 CAVOK 10/08 Q1024=
METAR LPPT 262300Z 02004G14KT 290V080 CAVOK 12/10 Q1023=
METAR LPPT 262330Z VRB02KT CAVOK 11/09 Q1024=
METAR LPPT 270000Z 03003KT 320V100 CAVOK 12/10 Q1024=
METAR LPPT 270030Z 05004KT 320V080 CAVOK 11/09 Q1023=
METAR LPPT 270100Z 36002KT CAVOK 10/09 Q1023=
METAR LPPT 270130Z 03002KT CAVOK 10/09 Q1023=
METAR LPPT 270200Z 02003KT 9999 FEW008 09/09 Q1023=
METAR LPPT 270230Z 05005KT 9999 FEW008 10/09 Q1023=
METAR LPPT 270300Z 04004KT 9999 FEW008 10/10 Q1023=
METAR LPPT 270330Z 36003KT 9999 FEW007 09/09 Q1023=
METAR LPPT 270400Z 06005KT 9999 FEW006 09/09 Q1023=
METAR LPPT 270430Z 04003KT 9000 FEW006 09/09 Q1023=
METAR LPPT 270500Z 06005KT 9999 FEW006 09/09 Q1023=
METAR LPPT 270530Z 06004KT 9999 SCT006 09/09 Q1023=
METAR LPPT 270600Z 04005KT 9999 SCT006 08/08 Q1023=
METAR LPPT 270630Z 05005KT 8000 FEW006 08/08 Q1023=
METAR LPPT 270700Z 04005KT 330V080 9000 FEW008 08/08 Q1023=
METAR LPPT 270730Z 05005KT CAVOK 08/08 Q1023=
METAR LPPT 270800Z 05004KT 9999 FEW009 08/08 Q1024=
METAR LPPT 270830Z 05007KT 9999 FEW010 09/09 Q1024=
METAR LPPT 270900Z 06007KT 9999 FEW010 10/08 Q1024=
METAR LPPT 270930Z 06007G22KT 320V090 9999 FEW010 10/08 Q1024=
METAR LPPT 271000Z 06006KT CAVOK 11/09 Q1024=
METAR LPPT 271030Z 04006KT 300V090 CAVOK 11/09 Q1024=
METAR LPPT 271100Z 05005KT 340V090 CAVOK 12/09 Q1024=
METAR LPPT 271130Z 04005KT 340V090 CAVOK 13/10 Q1024=
METAR LPPT 271200Z 07006KT 040V110 CAVOK 13/10 Q1024=
METAR LPPT 271230Z 05005KT 330V120 CAVOK 14/10 Q1023=
METAR LPPT 271300Z 05005KT 360V090 CAVOK 15/09 Q1023=
METAR LPPT 271330Z 07006KT CAVOK 15/10 Q1023=
METAR LPPT 271400Z 06005KT 010V090 CAVOK 16/10 Q1022=
METAR LPPT 271430Z 05006KT 030V100 CAVOK 16/10 Q1022=
METAR LPPT 271500Z 05006KT 010V090 CAVOK 16/10 Q1022=
METAR LPPT 271530Z 05005KT 360V100 CAVOK 17/10 Q1022=
METAR LPPT 271600Z 05004KT 350V080 CAVOK 17/10 Q1022=
METAR LPPT 271630Z VRB05KT CAVOK 16/10 Q1022=
METAR LPPT 271700Z 04005KT 350V070 CAVOK 16/10 Q1022=
METAR LPPT 271730Z 03005KT 360V060 CAVOK 15/10 Q1022=
METAR LPPT 271800Z 05006G17KT 300V100 CAVOK 15/10 Q1023=
METAR LPPT 271830Z 04005KT CAVOK 14/10 Q1023=
METAR LPPT 271900Z 06005KT CAVOK 14/10 Q1023=
METAR LPPT 271930Z 05005KT CAVOK 13/10 Q1023=
METAR LPPT 272000Z 07006KT CAVOK 13/10 Q1023=
METAR LPPT 272030Z 07007KT CAVOK 13/10 Q1023=
METAR LPPT 272100Z 06006KT CAVOK 12/10 Q1023=
METAR LPPT 272130Z 07006KT CAVOK 12/10 Q1022=
METAR LPPT 272200Z 05006KT CAVOK 11/09 Q1023=
METAR LPPT 272230Z 05006KT CAVOK 11/09 Q1023=
METAR LPPT 272300Z 07006KT 320V100 CAVOK 11/09 Q1023=
METAR LPPT 272330Z 06006KT CAVOK 11/09 Q1023=
METAR LPPT 280000Z 06006KT CAVOK 11/09 Q1022=
METAR LPPT 280030Z 06007KT CAVOK 10/09 Q1022=
METAR LPPT 280100Z 06006KT CAVOK 10/09 Q1022=
METAR LPPT 280130Z 06006KT CAVOK 10/09 Q1022=
METAR LPPT 280200Z 06007KT CAVOK 10/09 Q1022=
METAR LPPT 280230Z 05008KT CAVOK 10/09 Q1021=
METAR LPPT 280300Z 05006KT CAVOK 10/09 Q1021=
METAR LPPT 280330Z 05006KT 020V080 CAVOK 10/09 Q1021=
METAR LPPT 280400Z 05007KT CAVOK 10/09 Q1021=
METAR LPPT 280430Z 05007KT CAVOK 09/09 Q1022=
METAR LPPT 280500Z 05008KT CAVOK 09/09 Q1021=
METAR LPPT 280530Z 05008KT 9999 FEW020 10/09 Q1021=
METAR LPPT 280600Z 06008KT 9999 FEW008 10/09 Q1021=
METAR LPPT 280630Z 06008KT 9999 FEW008 10/09 Q1021=
METAR LPPT 280700Z 06009KT 030V090 9999 FEW006 BKN008 10/09 Q1021=
METAR LPPT 280730Z 06009KT 020V120 9999 BKN006 11/10 Q1021=
METAR LPPT 280800Z 07010KT 030V120 9999 BKN006 11/10 Q1021=
METAR LPPT 280830Z 06008KT 020V090 9999 BKN007 11/10 Q1022=
METAR LPPT 280900Z 06008KT 030V100 9999 SCT007 11/10 Q1022=
METAR LPPT 280930Z 07008G26KT 360V130 9999 FEW008 11/10 Q1022=
METAR LPPT 281000Z 07008KT 040V100 9999 FEW009 12/10 Q1022=
METAR LPPT 281030Z 08009G23KT 030V130 9999 FEW009 13/11 Q1022=
METAR LPPT 281100Z 07009KT 9999 FEW009 14/12 Q1022=
METAR LPPT 281130Z 08009KT 9999 FEW010 14/12 Q1021=
METAR LPPT 281200Z 08007KT 9999 FEW012 16/13 Q1021=
METAR LPPT 281230Z 07007KT 9999 FEW012 17/14 Q1020=
METAR LPPT 281300Z 09006KT 060V120 9999 FEW015 18/14 Q1020=
METAR LPPT 281330Z 11007KT 080V150 9999 FEW016 19/14 Q1020=
METAR LPPT 281400Z 12009KT CAVOK 20/14 Q1019=
METAR LPPT 281430Z 12009KT 090V160 CAVOK 19/14 Q1019=
METAR LPPT 281500Z 12008G19KT CAVOK 20/15 Q1019=
METAR LPPT 281530Z 12007KT 090V200 CAVOK 20/15 Q1019=
METAR LPPT 281600Z 14008KT 080V170 CAVOK 20/15 Q1019=
METAR LPPT 281630Z 13007KT CAVOK 20/15 Q1019=
METAR LPPT 281700Z 13006KT 090V170 CAVOK 19/15 Q1020=
METAR LPPT 281730Z 13005KT 110V200 CAVOK 19/15 Q1020=
METAR LPPT 281800Z 12004KT 060V180 9999 FEW036 19/15 Q1020=
METAR LPPT 281830Z 13006KT 100V180 9999 SCT032 19/15 Q1020=
METAR LPPT 281900Z 11005KT 080V190 9999 BKN030 19/15 Q1020=
METAR LPPT 281930Z 10005KT 070V130 9999 BKN030 18/15 Q1020=
METAR LPPT 282000Z 08005KT 050V140 9999 SCT030 18/15 Q1020=
METAR LPPT 282030Z 11005KT 050V190 9999 SCT030 17/15 Q1020=
METAR LPPT 282100Z 10006KT 060V170 9999 FEW030 17/15 Q1020=
METAR LPPT 282130Z 11004KT 020V170 9999 SCT028 17/15 Q1020=
METAR LPPT 282200Z 11004KT 9999 FEW026 17/14 Q1021=
METAR LPPT 282230Z 11004KT 060V150 9999 BKN022 17/14 Q1021=
METAR LPPT 282300Z 09003KT 030V180 9999 BKN020 17/14 Q1021=
METAR LPPT 282330Z 07003KT 030V170 9999 BKN018 17/14 Q1022=
METAR LPPT 290000Z 07004KT 010V100 9999 BKN017 17/14 Q1021=
METAR LPPT 290030Z 09003KT 060V140 9999 BKN017 17/15 Q1021=
METAR LPPT 290100Z 05003KT 020V110 9999 BKN017 17/15 Q1021=
METAR LPPT 290130Z 19009KT 120V210 9999 BKN014 19/17 Q1022=
METAR LPPT 290200Z 20009KT 9999 BKN012 19/18 Q1022=
METAR LPPT 290230Z 19009KT 9999 BKN012 18/17 Q1022=
METAR LPPT 290300Z 07004KT 9999 BKN009 17/15 Q1021=
METAR LPPT 290330Z VRB01KT 9999 BKN008 17/16 Q1022=
METAR LPPT 290400Z 07004KT 9999 BKN008 16/16 Q1022=
METAR LPPT 290430Z VRB02KT 9999 BKN007 16/15 Q1022=
METAR LPPT 290500Z VRB02KT 9999 BKN006 16/15 Q1022=
METAR LPPT 290530Z VRB03KT 9999 BKN006 16/15 Q1022=
METAR LPPT 290600Z 06004KT 360V080 9999 BKN006 16/15 Q1022=
METAR LPPT 290630Z 04005KT 350V090 9999 BKN005 16/15 Q1023=
METAR LPPT 290700Z 05004KT 010V100 9999 BKN005 16/15 Q1023=
METAR LPPT 290730Z VRB03KT 9999 -RA FEW004 BKN005 16/15 Q1023=
METAR LPPT 290800Z 08004KT 050V200 9999 FEW004 BKN005 16/15 Q1023=
METAR LPPT 290830Z 07004KT 340V120 9999 BKN004 16/16 Q1024=
METAR LPPT 290900Z 05004KT 310V120 9999 BKN006 16/16 Q1024=
METAR LPPT 290930Z 05004KT 010V110 9999 BKN006 17/16 Q1024=
METAR LPPT 291000Z 04005KT 010V090 9999 BKN006 16/16 Q1025=
METAR LPPT 291030Z 05004KT 340V140 9999 BKN007 17/16 Q1025=
METAR LPPT 291100Z VRB03KT 9999 FEW007 SCT009 BKN012 17/16 Q1025=
METAR LPPT 291130Z VRB03KT 9999 FEW007 SCT010 BKN012 17/17 Q1025=
METAR LPPT 291200Z VRB02KT 9999 BKN010 18/17 Q1025=
METAR LPPT 291230Z 06004KT 360V110 9999 BKN010 18/17 Q1024=
METAR LPPT 291300Z VRB02KT 9999 BKN010 18/17 Q1024=
METAR LPPT 291330Z 18004KT 110V260 9999 SCT010 BKN020 20/18 Q1024=
METAR LPPT 291400Z 20009KT 9999 SCT012 BKN020 20/19 Q1024=
METAR LPPT 291430Z 19012KT 9999 FEW012 BKN018 20/18 Q1023=
METAR LPPT 291500Z 20010KT 9999 FEW010 BKN016 20/18 Q1023=
METAR LPPT 291530Z 20009KT 9999 FEW010 BKN020 20/18 Q1023=
METAR LPPT 291600Z 21008KT 9999 FEW008 BKN022 19/18 Q1024=
METAR LPPT 291630Z 20008KT 9999 FEW008 BKN022 19/18 Q1024=
METAR LPPT 291700Z 21007KT 9000 FEW007 BKN020 19/18 Q1024=
METAR LPPT 291730Z 21006KT 9000 FEW008 SCT016 18/18 Q1024=
METAR LPPT 291800Z 21006KT 9999 FEW008 SCT012 18/17 Q1025=
METAR LPPT 291830Z 21005KT 9999 FEW008 SCT012 18/18 Q1025=
METAR LPPT 291900Z 18005KT 140V260 9999 FEW008 BKN014 18/18 Q1025=
METAR LPPT 291930Z VRB03KT 9999 FEW008 BKN012 18/18 Q1025=
METAR LPPT 292000Z 20003KT 120V270 9999 FEW008 BKN012 18/18 Q1026=
METAR LPPT 292030Z 17005KT 140V210 9999 FEW009 BKN012 18/17 Q1026=
METAR LPPT 292100Z 16004KT 120V220 9999 FEW008 BKN010 18/18 Q1026=
METAR LPPT 292130Z 19007KT 9999 FEW008 BKN010 18/18 Q1026=
METAR LPPT 292200Z 12005KT 100V180 9999 FEW002 BKN009 18/17 Q1026=
METAR LPPT 292230Z 12003KT 080V180 7000 SCT007 BKN012 17/17 Q1026=
METAR LPPT 292300Z 11004KT 060V180 7000 FEW002 BKN007 17/17 Q1026=
METAR LPPT 292330Z 13003KT 080V250 7000 FEW002 BKN015 17/17 Q1026=
METAR LPPT 300000Z 10003KT 070V210 7000 FEW001 BKN015 17/17 Q1026=
METAR LPPT 300030Z VRB02KT 8000 FEW006 SCT010 BKN015 17/17 Q1026=
METAR LPPT 300100Z 05003KT 7000 3000E FEW005 SCT014 BKN017 17/17 Q1025=
METAR LPPT 300130Z VRB02KT 7000 3000E VCFG FEW001 SCT006 BKN017 17/17 Q1025=
METAR LPPT 300200Z 05002KT 6000 VCFG FEW000 BKN015 16/16 Q1025=
METAR LPPT 300230Z VRB02KT 2000 BR VCFG FEW000 BKN017 16/16 Q1025=
METAR LPPT 300300Z 11004KT 0350 R02/1400D FG SCT000 BKN001 17/17 Q1025=
METAR LPPT 300330Z 12005KT 0600 R02/1600U BCFG BR BKN000 17/17 Q1025=
METAR LPPT 300400Z 12005KT 0200 R02/1400D FG VV000 16/16 Q1025=
METAR LPPT 300430Z 11006KT 0200 R02/0450U FG VV001 16/16 Q1025=
METAR LPPT 300500Z 12006KT 0200 R02/0450N FG VV001 16/16 Q1025=
METAR LPPT 300530Z 12007KT 0200 R02/0400N FG VV001 15/15 Q1025=
METAR LPPT 300600Z 11006KT 0200 R02/0400N FG VV001 15/15 Q1025=
METAR LPPT 300630Z 11006KT 0150 R02/0500D FG VV001 15/15 Q1025=
METAR LPPT 300700Z 10005KT 0150 R02/0500 FG VV001 15/15 Q1025=
METAR LPPT 300730Z 11006KT 0250 R02/0900D FG VV001 15/15 Q1026=
METAR LPPT 300800Z 09006KT 0600 R02/1600U PRFG BKN001 15/15 Q1026=
METAR LPPT 300830Z 11005KT 2000 BR VCFG BKN001 15/15 Q1026=
METAR LPPT 300900Z 09006KT 060V120 2000 0900N PRFG BKN001 15/15 Q1026=
METAR LPPT 300930Z 11007G17KT 3000 BR BKN001 14/14 Q1026=
METAR LPPT 301000Z 10004G19KT 050V160 5000 BKN002 15/15 Q1027=
METAR LPPT 301030Z VRB05KT 8000 BKN002 BKN004 15/15 Q1027=
METAR LPPT 301100Z VRB05KT 9000 SCT004 15/15 Q1027=
METAR LPPT 301130Z 07004G17KT 020V130 9999 FEW004 15/15 Q1027=
METAR LPPT 301200Z 07004KT 360V110 9999 FEW005 16/16 Q1026=
METAR LPPT 301230Z VRB04G16KT 9999 FEW008 17/16 Q1026=
METAR LPPT 301300Z VRB03KT CAVOK 17/15 Q1026=
METAR LPPT 301330Z VRB02KT CAVOK 18/15 Q1026=
METAR LPPT 301400Z 07004KT 350V120 CAVOK 18/15 Q1025=
METAR LPPT 301430Z 07003KT 350V150 CAVOK 18/15 Q1025=
METAR LPPT 301500Z VRB04KT CAVOK 18/15 Q1025=
METAR LPPT 301530Z 11003KT 050V220 CAVOK 19/15 Q1025=
METAR LPPT 301600Z VRB02KT CAVOK 18/15 Q1025=
METAR LPPT 301630Z VRB03KT CAVOK 19/15 Q1025=
METAR LPPT 301700Z VRB02KT CAVOK 18/15 Q1025=
METAR LPPT 301730Z VRB02KT CAVOK 17/15 Q1025=
METAR LPPT 301800Z VRB03KT CAVOK 17/15 Q1025=
METAR LPPT 301830Z 10003KT 030V110 CAVOK 18/15 Q1025=
METAR LPPT 301900Z 02003KT 320V130 CAVOK 16/15 Q1025=
METAR LPPT 301930Z VRB02KT CAVOK 16/15 Q1025=
METAR LPPT 302000Z 32003KT CAVOK 16/15 Q1025=
METAR LPPT 302030Z VRB02KT CAVOK 15/14 Q1025=
METAR LPPT 302100Z VRB02KT CAVOK 16/15 Q1024=
METAR LPPT 302130Z 03003KT 350V060 CAVOK 16/14 Q1024=
METAR LPPT 302200Z 04004KT 320V080 CAVOK 16/14 Q1024=
METAR LPPT 302230Z 02004KT CAVOK 16/14 Q1024=
METAR LPPT 302300Z VRB03KT CAVOK 16/14 Q1024=
METAR LPPT 302330Z 05003KT CAVOK 16/14 Q1024=
